[
  {
    "Title": "6121",
    "KatalogText": "Untere Ingelheimstraße",
    "PLZ": "55120",
    "Postort": "Mainz",
    "GemeindeID": "1365",
    "BundeslandID": "7"
  },
  {
    "Title": "6122",
    "KatalogText": "Abraham-Lincoln-Straße",
    "PLZ": "55122",
    "Postort": "Mainz",
    "GemeindeID": "1365",
    "BundeslandID": "7"
  },
  {
    "Title": "6123",
    "KatalogText": "Abtsgasse",
    "PLZ": "55131",
    "Postort": "Mainz",
    "GemeindeID": "1365",
    "BundeslandID": "7"
  },
  {
    "Title": "6124",
    "KatalogText": "Achatiusweg",
    "PLZ": "55124",
    "Postort": "Mainz",
    "GemeindeID": "1365",
    "BundeslandID": "7"
  },
  {
    "Title": "6125",
    "KatalogText": "Acker",
    "PLZ": "55116",
    "Postort": "Mainz",
    "GemeindeID": "1365",
    "BundeslandID": "7"
  },
  {
    "Title": "6126",
    "KatalogText": "Adam-Karrillon-Straße",
    "PLZ": "55118",
    "Postort": "Mainz",
    "GemeindeID": "1365",
    "BundeslandID": "7"
  },
  {
    "Title": "6127",
    "KatalogText": "Adam-Riese-Straße",
    "PLZ": "55124",
    "Postort": "Mainz",
    "GemeindeID": "1365",
    "BundeslandID": "7"
  },
  {
    "Title": "6128",
    "KatalogText": "Adam-Stegerwald-Straße",
    "PLZ": "55131",
    "Postort": "Mainz",
    "GemeindeID": "1365",
    "BundeslandID": "7"
  },
  {
    "Title": "6129",
    "KatalogText": "Adelungstraße",
    "PLZ": "55131",
    "Postort": "Mainz",
    "GemeindeID": "1365",
    "BundeslandID": "7"
  },
  {
    "Title": "6130",
    "KatalogText": "Adenauer-Ufer",
    "PLZ": "55116",
    "Postort": "Mainz",
    "GemeindeID": "1365",
    "BundeslandID": "7"
  },
  {
    "Title": "6131",
    "KatalogText": "Ölgasse",
    "PLZ": "55116",
    "Postort": "Mainz",
    "GemeindeID": "1365",
    "BundeslandID": "7"
  },
  {
    "Title": "6132",
    "KatalogText": "Adolf-Kolping-Straße",
    "PLZ": "55116",
    "Postort": "Mainz",
    "GemeindeID": "1365",
    "BundeslandID": "7"
  },
  {
    "Title": "6133",
    "KatalogText": "Akademieweg",
    "PLZ": "55131",
    "Postort": "Mainz",
    "GemeindeID": "1365",
    "BundeslandID": "7"
  },
  {
    "Title": "6134",
    "KatalogText": "Akazienweg",
    "PLZ": "55120",
    "Postort": "Mainz",
    "GemeindeID": "1365",
    "BundeslandID": "7"
  },
  {
    "Title": "6135",
    "KatalogText": "Albanstraße",
    "PLZ": "55116",
    "Postort": "Mainz",
    "GemeindeID": "1365",
    "BundeslandID": "7"
  },
  {
    "Title": "6136",
    "KatalogText": "Albanusstraße",
    "PLZ": "55128",
    "Postort": "Mainz",
    "GemeindeID": "1365",
    "BundeslandID": "7"
  },
  {
    "Title": "6137",
    "KatalogText": "Albert-Einstein-Straße",
    "PLZ": "55122",
    "Postort": "Mainz",
    "GemeindeID": "1365",
    "BundeslandID": "7"
  },
  {
    "Title": "6138",
    "KatalogText": "Albert-Schweitzer-Straße",
    "PLZ": "55128",
    "Postort": "Mainz",
    "GemeindeID": "1365",
    "BundeslandID": "7"
  },
  {
    "Title": "6139",
    "KatalogText": "Albert-Stohr-Straße",
    "PLZ": "55128",
    "Postort": "Mainz",
    "GemeindeID": "1365",
    "BundeslandID": "7"
  },
  {
    "Title": "6140",
    "KatalogText": "Albinistraße",
    "PLZ": "55116",
    "Postort": "Mainz",
    "GemeindeID": "1365",
    "BundeslandID": "7"
  },
  {
    "Title": "6141",
    "KatalogText": "Albrecht-Dürer-Straße",
    "PLZ": "55128",
    "Postort": "Mainz",
    "GemeindeID": "1365",
    "BundeslandID": "7"
  },
  {
    "Title": "6142",
    "KatalogText": "Alexander-Diehl-Straße",
    "PLZ": "55130",
    "Postort": "Mainz",
    "GemeindeID": "1365",
    "BundeslandID": "7"
  },
  {
    "Title": "6143",
    "KatalogText": "Alfred-Delp-Straße",
    "PLZ": "55122",
    "Postort": "Mainz",
    "GemeindeID": "1365",
    "BundeslandID": "7"
  },
  {
    "Title": "6144",
    "KatalogText": "Alfred-Mumbächer-Straße",
    "PLZ": "55128",
    "Postort": "Mainz",
    "GemeindeID": "1365",
    "BundeslandID": "7"
  },
  {
    "Title": "6145",
    "KatalogText": "Alicenplatz",
    "PLZ": "55116",
    "Postort": "Mainz",
    "GemeindeID": "1365",
    "BundeslandID": "7"
  },
  {
    "Title": "6146",
    "KatalogText": "Alicenstraße",
    "PLZ": "55116",
    "Postort": "Mainz",
    "GemeindeID": "1365",
    "BundeslandID": "7"
  },
  {
    "Title": "6147",
    "KatalogText": "Alte Universitätsstraße",
    "PLZ": "55116",
    "Postort": "Mainz",
    "GemeindeID": "1365",
    "BundeslandID": "7"
  },
  {
    "Title": "6148",
    "KatalogText": "Altenauergasse",
    "PLZ": "55116",
    "Postort": "Mainz",
    "GemeindeID": "1365",
    "BundeslandID": "7"
  },
  {
    "Title": "6150",
    "KatalogText": "Alteruhweg",
    "PLZ": "55122",
    "Postort": "Mainz",
    "GemeindeID": "1365",
    "BundeslandID": "7"
  },
  {
    "Title": "6151",
    "KatalogText": "Altmünsterstraße",
    "PLZ": "55128",
    "Postort": "Mainz",
    "GemeindeID": "1365",
    "BundeslandID": "7"
  },
  {
    "Title": "6152",
    "KatalogText": "Am alten Flugplatz",
    "PLZ": "55122",
    "Postort": "Mainz",
    "GemeindeID": "1365",
    "BundeslandID": "7"
  },
  {
    "Title": "6153",
    "KatalogText": "Am Bornwald",
    "PLZ": "55124",
    "Postort": "Mainz",
    "GemeindeID": "1365",
    "BundeslandID": "7"
  },
  {
    "Title": "6154",
    "KatalogText": "Am Dalheimer Kloster",
    "PLZ": "55131",
    "Postort": "Mainz",
    "GemeindeID": "1365",
    "BundeslandID": "7"
  },
  {
    "Title": "6156",
    "KatalogText": "Am Eselsweg",
    "PLZ": "55128",
    "Postort": "Mainz",
    "GemeindeID": "1365",
    "BundeslandID": "7"
  },
  {
    "Title": "6157",
    "KatalogText": "Am Fahrengrund",
    "PLZ": "55120",
    "Postort": "Mainz",
    "GemeindeID": "1365",
    "BundeslandID": "7"
  },
  {
    "Title": "6158",
    "KatalogText": "Am Floßhafen",
    "PLZ": "55120",
    "Postort": "Mainz",
    "GemeindeID": "1365",
    "BundeslandID": "7"
  },
  {
    "Title": "6159",
    "KatalogText": "Am Forsthaus",
    "PLZ": "55124",
    "Postort": "Mainz",
    "GemeindeID": "1365",
    "BundeslandID": "7"
  },
  {
    "Title": "6160",
    "KatalogText": "Am Fort Elisabeth",
    "PLZ": "55131",
    "Postort": "Mainz",
    "GemeindeID": "1365",
    "BundeslandID": "7"
  },
  {
    "Title": "6161",
    "KatalogText": "Am Fort Gonsenheim",
    "PLZ": "55122",
    "Postort": "Mainz",
    "GemeindeID": "1365",
    "BundeslandID": "7"
  },
  {
    "Title": "6162",
    "KatalogText": "Am Fort Hartenberg",
    "PLZ": "55122",
    "Postort": "Mainz",
    "GemeindeID": "1365",
    "BundeslandID": "7"
  },
  {
    "Title": "6163",
    "KatalogText": "Am Fort Heiligkreuz",
    "PLZ": "55131",
    "Postort": "Mainz",
    "GemeindeID": "1365",
    "BundeslandID": "7"
  },
  {
    "Title": "6164",
    "KatalogText": "Am Fort Josef",
    "PLZ": "55131",
    "Postort": "Mainz",
    "GemeindeID": "1365",
    "BundeslandID": "7"
  },
  {
    "Title": "6165",
    "KatalogText": "Am Fort Mariaborn",
    "PLZ": "55131",
    "Postort": "Mainz",
    "GemeindeID": "1365",
    "BundeslandID": "7"
  },
  {
    "Title": "6166",
    "KatalogText": "Am Fort Weisenau",
    "PLZ": "55130",
    "Postort": "Mainz",
    "GemeindeID": "1365",
    "BundeslandID": "7"
  },
  {
    "Title": "6167",
    "KatalogText": "Am Fort Zahlbach",
    "PLZ": "55131",
    "Postort": "Mainz",
    "GemeindeID": "1365",
    "BundeslandID": "7"
  },
  {
    "Title": "6168",
    "KatalogText": "Am Frankenhag",
    "PLZ": "55131",
    "Postort": "Mainz",
    "GemeindeID": "1365",
    "BundeslandID": "7"
  },
  {
    "Title": "6169",
    "KatalogText": "Am Gautor",
    "PLZ": "55131",
    "Postort": "Mainz",
    "GemeindeID": "1365",
    "BundeslandID": "7"
  },
  {
    "Title": "6170",
    "KatalogText": "Am Geisköpfel",
    "PLZ": "55124",
    "Postort": "Mainz",
    "GemeindeID": "1365",
    "BundeslandID": "7"
  },
  {
    "Title": "6171",
    "KatalogText": "Am Gonsenheimer Spieß",
    "PLZ": "55122",
    "Postort": "Mainz",
    "GemeindeID": "1365",
    "BundeslandID": "7"
  },
  {
    "Title": "6172",
    "KatalogText": "Am Grasweg",
    "PLZ": "55124",
    "Postort": "Mainz",
    "GemeindeID": "1365",
    "BundeslandID": "7"
  },
  {
    "Title": "6173",
    "KatalogText": "Am Geifen",
    "PLZ": "55120",
    "Postort": "Mainz",
    "GemeindeID": "1365",
    "BundeslandID": "7"
  },
  {
    "Title": "6174",
    "KatalogText": "Am Großberg",
    "PLZ": "55130",
    "Postort": "Mainz",
    "GemeindeID": "1365",
    "BundeslandID": "7"
  },
  {
    "Title": "6175",
    "KatalogText": "Am Großen Sand",
    "PLZ": "55124",
    "Postort": "Mainz",
    "GemeindeID": "1365",
    "BundeslandID": "7"
  },
  {
    "Title": "6176",
    "KatalogText": "Am Haag",
    "PLZ": "55124",
    "Postort": "Mainz",
    "GemeindeID": "1365",
    "BundeslandID": "7"
  },
  {
    "Title": "6177",
    "KatalogText": "Am Heiligenhaus",
    "PLZ": "55122",
    "Postort": "Mainz",
    "GemeindeID": "1365",
    "BundeslandID": "7"
  },
  {
    "Title": "6178",
    "KatalogText": "Am Hemel",
    "PLZ": "55124",
    "Postort": "Mainz",
    "GemeindeID": "1365",
    "BundeslandID": "7"
  },
  {
    "Title": "6179",
    "KatalogText": "Am Hipperich",
    "PLZ": "55120",
    "Postort": "Mainz",
    "GemeindeID": "1365",
    "BundeslandID": "7"
  },
  {
    "Title": "6180",
    "KatalogText": "Am Jesuitenbogen",
    "PLZ": "55116",
    "Postort": "Mainz",
    "GemeindeID": "1365",
    "BundeslandID": "7"
  },
  {
    "Title": "6181",
    "KatalogText": "Am Judensand",
    "PLZ": "55122",
    "Postort": "Mainz",
    "GemeindeID": "1365",
    "BundeslandID": "7"
  },
  {
    "Title": "6182",
    "KatalogText": "Am Jugendwerk",
    "PLZ": "55122",
    "Postort": "Mainz",
    "GemeindeID": "1365",
    "BundeslandID": "7"
  },
  {
    "Title": "6183",
    "KatalogText": "Am Kleinen Sand",
    "PLZ": "55120",
    "Postort": "Mainz",
    "GemeindeID": "1365",
    "BundeslandID": "7"
  },
  {
    "Title": "6184",
    "KatalogText": "Am Klostergarten",
    "PLZ": "55131",
    "Postort": "Mainz",
    "GemeindeID": "1365",
    "BundeslandID": "7"
  },
  {
    "Title": "6185",
    "KatalogText": "Am Kronberger Hof",
    "PLZ": "55116",
    "Postort": "Mainz",
    "GemeindeID": "1365",
    "BundeslandID": "7"
  },
  {
    "Title": "6186",
    "KatalogText": "Am Kuckucksschlag",
    "PLZ": "55122",
    "Postort": "Mainz",
    "GemeindeID": "1365",
    "BundeslandID": "7"
  },
  {
    "Title": "6187",
    "KatalogText": "Am Leichborn",
    "PLZ": "55124",
    "Postort": "Mainz",
    "GemeindeID": "1365",
    "BundeslandID": "7"
  },
  {
    "Title": "6188",
    "KatalogText": "Am Lemmchen",
    "PLZ": "55120",
    "Postort": "Mainz",
    "GemeindeID": "1365",
    "BundeslandID": "7"
  },
  {
    "Title": "6189",
    "KatalogText": "Am Linsenberg",
    "PLZ": "55131",
    "Postort": "Mainz",
    "GemeindeID": "1365",
    "BundeslandID": "7"
  },
  {
    "Title": "6190",
    "KatalogText": "Am Lungenberg",
    "PLZ": "55122",
    "Postort": "Mainz",
    "GemeindeID": "1365",
    "BundeslandID": "7"
  },
  {
    "Title": "6191",
    "KatalogText": "Am Mahnes",
    "PLZ": "55120",
    "Postort": "Mainz",
    "GemeindeID": "1365",
    "BundeslandID": "7"
  },
  {
    "Title": "6192",
    "KatalogText": "Am Marienpfad",
    "PLZ": "55128",
    "Postort": "Mainz",
    "GemeindeID": "1365",
    "BundeslandID": "7"
  },
  {
    "Title": "6193",
    "KatalogText": "Am Michelsberg",
    "PLZ": "55131",
    "Postort": "Mainz",
    "GemeindeID": "1365",
    "BundeslandID": "7"
  },
  {
    "Title": "6194",
    "KatalogText": "Am Molkenborn",
    "PLZ": "55122",
    "Postort": "Mainz",
    "GemeindeID": "1365",
    "BundeslandID": "7"
  },
  {
    "Title": "6195",
    "KatalogText": "Am Mühlbach",
    "PLZ": "55128",
    "Postort": "Mainz",
    "GemeindeID": "1365",
    "BundeslandID": "7"
  },
  {
    "Title": "6196",
    "KatalogText": "Am Müllerwäldchen",
    "PLZ": "55122",
    "Postort": "Mainz",
    "GemeindeID": "1365",
    "BundeslandID": "7"
  },
  {
    "Title": "6197",
    "KatalogText": "Am Müllerwald",
    "PLZ": "55120",
    "Postort": "Mainz",
    "GemeindeID": "1365",
    "BundeslandID": "7"
  },
  {
    "Title": "6198",
    "KatalogText": "Am Obstgarten",
    "PLZ": "55120",
    "Postort": "Mainz",
    "GemeindeID": "1365",
    "BundeslandID": "7"
  },
  {
    "Title": "6199",
    "KatalogText": "Am Ostergraben",
    "PLZ": "55128",
    "Postort": "Mainz",
    "GemeindeID": "1365",
    "BundeslandID": "7"
  },
  {
    "Title": "6200",
    "KatalogText": "Am Palmen",
    "PLZ": "55124",
    "Postort": "Mainz",
    "GemeindeID": "1365",
    "BundeslandID": "7"
  },
  {
    "Title": "6201",
    "KatalogText": "Am Polygon",
    "PLZ": "55120",
    "Postort": "Mainz",
    "GemeindeID": "1365",
    "BundeslandID": "7"
  },
  {
    "Title": "6202",
    "KatalogText": "Am Pulverturm",
    "PLZ": "55131",
    "Postort": "Mainz",
    "GemeindeID": "1365",
    "BundeslandID": "7"
  },
  {
    "Title": "6203",
    "KatalogText": "Am Rodelberg",
    "PLZ": "55131",
    "Postort": "Mainz",
    "GemeindeID": "1365",
    "BundeslandID": "7"
  },
  {
    "Title": "6204",
    "KatalogText": "Am Römerlager",
    "PLZ": "55131",
    "Postort": "Mainz",
    "GemeindeID": "1365",
    "BundeslandID": "7"
  },
  {
    "Title": "6205",
    "KatalogText": "Am Rondell",
    "PLZ": "55120",
    "Postort": "Mainz",
    "GemeindeID": "1365",
    "BundeslandID": "7"
  },
  {
    "Title": "6206",
    "KatalogText": "Am Rosengarten",
    "PLZ": "55131",
    "Postort": "Mainz",
    "GemeindeID": "1365",
    "BundeslandID": "7"
  },
  {
    "Title": "6207",
    "KatalogText": "Am Rübenacker",
    "PLZ": "55130",
    "Postort": "Mainz",
    "GemeindeID": "1365",
    "BundeslandID": "7"
  },
  {
    "Title": "6208",
    "KatalogText": "Am Sägewerk",
    "PLZ": "55124",
    "Postort": "Mainz",
    "GemeindeID": "1365",
    "BundeslandID": "7"
  },
  {
    "Title": "6209",
    "KatalogText": "Am Sandbruch",
    "PLZ": "55122",
    "Postort": "Mainz",
    "GemeindeID": "1365",
    "BundeslandID": "7"
  },
  {
    "Title": "6210",
    "KatalogText": "Am Schottenhof",
    "PLZ": "55116",
    "Postort": "Mainz",
    "GemeindeID": "1365",
    "BundeslandID": "7"
  },
  {
    "Title": "6211",
    "KatalogText": "Am Schützenweg",
    "PLZ": "55120",
    "Postort": "Mainz",
    "GemeindeID": "1365",
    "BundeslandID": "7"
  },
  {
    "Title": "6212",
    "KatalogText": "Am Schwermer",
    "PLZ": "55120",
    "Postort": "Mainz",
    "GemeindeID": "1365",
    "BundeslandID": "7"
  },
  {
    "Title": "6213",
    "KatalogText": "Am Sportfeld",
    "PLZ": "55124",
    "Postort": "Mainz",
    "GemeindeID": "1365",
    "BundeslandID": "7"
  },
  {
    "Title": "6214",
    "KatalogText": "Am Steinbruch",
    "PLZ": "55130",
    "Postort": "Mainz",
    "GemeindeID": "1365",
    "BundeslandID": "7"
  },
  {
    "Title": "6215",
    "KatalogText": "Am Stiftswingert",
    "PLZ": "55131",
    "Postort": "Mainz",
    "GemeindeID": "1365",
    "BundeslandID": "7"
  },
  {
    "Title": "6216",
    "KatalogText": "Am Stollhenn",
    "PLZ": "55120",
    "Postort": "Mainz",
    "GemeindeID": "1365",
    "BundeslandID": "7"
  },
  {
    "Title": "6217",
    "KatalogText": "Am Suderbrunnen",
    "PLZ": "55120",
    "Postort": "Mainz",
    "GemeindeID": "1365",
    "BundeslandID": "7"
  },
  {
    "Title": "6218",
    "KatalogText": "Am Taubertsberg",
    "PLZ": "55122",
    "Postort": "Mainz",
    "GemeindeID": "1365",
    "BundeslandID": "7"
  },
  {
    "Title": "6219",
    "KatalogText": "Am Taunusblick",
    "PLZ": "55122",
    "Postort": "Mainz",
    "GemeindeID": "1365",
    "BundeslandID": "7"
  },
  {
    "Title": "6220",
    "KatalogText": "Am Tiergarten",
    "PLZ": "55120",
    "Postort": "Mainz",
    "GemeindeID": "1365",
    "BundeslandID": "7"
  },
  {
    "Title": "6221",
    "KatalogText": "Am Viktorstift",
    "PLZ": "55130",
    "Postort": "Mainz",
    "GemeindeID": "1365",
    "BundeslandID": "7"
  },
  {
    "Title": "6222",
    "KatalogText": "Am Waldfriedhof",
    "PLZ": "55120",
    "Postort": "Mainz",
    "GemeindeID": "1365",
    "BundeslandID": "7"
  },
  {
    "Title": "6223",
    "KatalogText": "Am Wasserwerk",
    "PLZ": "55120",
    "Postort": "Mainz",
    "GemeindeID": "1365",
    "BundeslandID": "7"
  },
  {
    "Title": "6224",
    "KatalogText": "Am Wildgraben",
    "PLZ": "55128",
    "Postort": "Mainz",
    "GemeindeID": "1365",
    "BundeslandID": "7"
  },
  {
    "Title": "6225",
    "KatalogText": "Am Winterhafen",
    "PLZ": "55131",
    "Postort": "Mainz",
    "GemeindeID": "1365",
    "BundeslandID": "7"
  },
  {
    "Title": "6226",
    "KatalogText": "Am Zoll- und Binnenhafen",
    "PLZ": "55120",
    "Postort": "Mainz",
    "GemeindeID": "1365",
    "BundeslandID": "7"
  },
  {
    "Title": "6227",
    "KatalogText": "Am Zollhafen",
    "PLZ": "55118",
    "Postort": "Mainz",
    "GemeindeID": "1365",
    "BundeslandID": "7"
  },
  {
    "Title": "6228",
    "KatalogText": "An den Dünen",
    "PLZ": "55120",
    "Postort": "Mainz",
    "GemeindeID": "1365",
    "BundeslandID": "7"
  },
  {
    "Title": "6229",
    "KatalogText": "An den Fuchslöchern",
    "PLZ": "55124",
    "Postort": "Mainz",
    "GemeindeID": "1365",
    "BundeslandID": "7"
  },
  {
    "Title": "6230",
    "KatalogText": "An den Kiefern",
    "PLZ": "55122",
    "Postort": "Mainz",
    "GemeindeID": "1365",
    "BundeslandID": "7"
  },
  {
    "Title": "6231",
    "KatalogText": "An den Reben",
    "PLZ": "55122",
    "Postort": "Mainz",
    "GemeindeID": "1365",
    "BundeslandID": "7"
  },
  {
    "Title": "6232",
    "KatalogText": "An den Römersteinen",
    "PLZ": "55131",
    "Postort": "Mainz",
    "GemeindeID": "1365",
    "BundeslandID": "7"
  },
  {
    "Title": "6233",
    "KatalogText": "An der Allee",
    "PLZ": "55122",
    "Postort": "Mainz",
    "GemeindeID": "1365",
    "BundeslandID": "7"
  },
  {
    "Title": "6234",
    "KatalogText": "An der alten Allee",
    "PLZ": "55120",
    "Postort": "Mainz",
    "GemeindeID": "1365",
    "BundeslandID": "7"
  },
  {
    "Title": "6235",
    "KatalogText": "An der Bastion Johannes",
    "PLZ": "55131",
    "Postort": "Mainz",
    "GemeindeID": "1365",
    "BundeslandID": "7"
  },
  {
    "Title": "6236",
    "KatalogText": "An der Bruchspitze",
    "PLZ": "55122",
    "Postort": "Mainz",
    "GemeindeID": "1365",
    "BundeslandID": "7"
  },
  {
    "Title": "6237",
    "KatalogText": "An der Brunnenstube",
    "PLZ": "55120",
    "Postort": "Mainz",
    "GemeindeID": "1365",
    "BundeslandID": "7"
  },
  {
    "Title": "6238",
    "KatalogText": "An der Dreispitz",
    "PLZ": "55122",
    "Postort": "Mainz",
    "GemeindeID": "1365",
    "BundeslandID": "7"
  },
  {
    "Title": "6239",
    "KatalogText": "An der Favorite",
    "PLZ": "55131",
    "Postort": "Mainz",
    "GemeindeID": "1365",
    "BundeslandID": "7"
  },
  {
    "Title": "6240",
    "KatalogText": "An der Feilkirsch",
    "PLZ": "55124",
    "Postort": "Mainz",
    "GemeindeID": "1365",
    "BundeslandID": "7"
  },
  {
    "Title": "6241",
    "KatalogText": "An der Goldgrube",
    "PLZ": "55131",
    "Postort": "Mainz",
    "GemeindeID": "1365",
    "BundeslandID": "7"
  },
  {
    "Title": "6242",
    "KatalogText": "An der Hechtsheimer Höhe",
    "PLZ": "55130",
    "Postort": "Mainz",
    "GemeindeID": "1365",
    "BundeslandID": "7"
  },
  {
    "Title": "6243",
    "KatalogText": "An der Kaiserbrücke",
    "PLZ": "55120",
    "Postort": "Mainz",
    "GemeindeID": "1365",
    "BundeslandID": "7"
  },
  {
    "Title": "6244",
    "KatalogText": "An der Karlsschanze",
    "PLZ": "55131",
    "Postort": "Mainz",
    "GemeindeID": "1365",
    "BundeslandID": "7"
  },
  {
    "Title": "6245",
    "KatalogText": "An der Kirche",
    "PLZ": "55130",
    "Postort": "Mainz",
    "GemeindeID": "1365",
    "BundeslandID": "7"
  },
  {
    "Title": "6246",
    "KatalogText": "An der Kirchenpforte",
    "PLZ": "55128",
    "Postort": "Mainz",
    "GemeindeID": "1365",
    "BundeslandID": "7"
  },
  {
    "Title": "6247",
    "KatalogText": "An der Krimm",
    "PLZ": "55124",
    "Postort": "Mainz",
    "GemeindeID": "1365",
    "BundeslandID": "7"
  },
  {
    "Title": "6248",
    "KatalogText": "An der Nikolausschanze",
    "PLZ": "55131",
    "Postort": "Mainz",
    "GemeindeID": "1365",
    "BundeslandID": "7"
  },
  {
    "Title": "6249",
    "KatalogText": "An der Nonnenwiese",
    "PLZ": "55122",
    "Postort": "Mainz",
    "GemeindeID": "1365",
    "BundeslandID": "7"
  },
  {
    "Title": "6250",
    "KatalogText": "An der Oberpforte",
    "PLZ": "55128",
    "Postort": "Mainz",
    "GemeindeID": "1365",
    "BundeslandID": "7"
  },
  {
    "Title": "6251",
    "KatalogText": "An der Ochsenwiese",
    "PLZ": "55124",
    "Postort": "Mainz",
    "GemeindeID": "1365",
    "BundeslandID": "7"
  },
  {
    "Title": "6252",
    "KatalogText": "An der Philippsschanze",
    "PLZ": "55131",
    "Postort": "Mainz",
    "GemeindeID": "1365",
    "BundeslandID": "7"
  },
  {
    "Title": "6253",
    "KatalogText": "An der Plantage",
    "PLZ": "55120",
    "Postort": "Mainz",
    "GemeindeID": "1365",
    "BundeslandID": "7"
  },
  {
    "Title": "6254",
    "KatalogText": "An der Prall",
    "PLZ": "55124",
    "Postort": "Mainz",
    "GemeindeID": "1365",
    "BundeslandID": "7"
  },
  {
    "Title": "6255",
    "KatalogText": "An der Riegelspforte",
    "PLZ": "55128",
    "Postort": "Mainz",
    "GemeindeID": "1365",
    "BundeslandID": "7"
  },
  {
    "Title": "6256",
    "KatalogText": "An der Sandflora",
    "PLZ": "55122",
    "Postort": "Mainz",
    "GemeindeID": "1365",
    "BundeslandID": "7"
  },
  {
    "Title": "6257",
    "KatalogText": "An der Schanze",
    "PLZ": "55128",
    "Postort": "Mainz",
    "GemeindeID": "1365",
    "BundeslandID": "7"
  },
  {
    "Title": "6258",
    "KatalogText": "An der Schlehenhecke",
    "PLZ": "55120",
    "Postort": "Mainz",
    "GemeindeID": "1365",
    "BundeslandID": "7"
  },
  {
    "Title": "6259",
    "KatalogText": "An der Turnhalle",
    "PLZ": "55130",
    "Postort": "Mainz",
    "GemeindeID": "1365",
    "BundeslandID": "7"
  },
  {
    "Title": "6260",
    "KatalogText": "An der Wied",
    "PLZ": "55128",
    "Postort": "Mainz",
    "GemeindeID": "1365",
    "BundeslandID": "7"
  },
  {
    "Title": "6261",
    "KatalogText": "An Schneiders Mühle",
    "PLZ": "55122",
    "Postort": "Mainz",
    "GemeindeID": "1365",
    "BundeslandID": "7"
  },
  {
    "Title": "6262",
    "KatalogText": "Angelrechweg",
    "PLZ": "55122",
    "Postort": "Mainz",
    "GemeindeID": "1365",
    "BundeslandID": "7"
  },
  {
    "Title": "6263",
    "KatalogText": "Annabergstraße",
    "PLZ": "55131",
    "Postort": "Mainz",
    "GemeindeID": "1365",
    "BundeslandID": "7"
  },
  {
    "Title": "6264",
    "KatalogText": "Annastraße",
    "PLZ": "55124",
    "Postort": "Mainz",
    "GemeindeID": "1365",
    "BundeslandID": "7"
  },
  {
    "Title": "6265",
    "KatalogText": "Anselm-Franz-von-Bentzel-Weg",
    "PLZ": "55128",
    "Postort": "Mainz",
    "GemeindeID": "1365",
    "BundeslandID": "7"
  },
  {
    "Title": "6266",
    "KatalogText": "Anzengasse",
    "PLZ": "55128",
    "Postort": "Mainz",
    "GemeindeID": "1365",
    "BundeslandID": "7"
  },
  {
    "Title": "6267",
    "KatalogText": "Arndtstraße",
    "PLZ": "55124",
    "Postort": "Mainz",
    "GemeindeID": "1365",
    "BundeslandID": "7"
  },
  {
    "Title": "6268",
    "KatalogText": "Auf dem Albansberg",
    "PLZ": "55131",
    "Postort": "Mainz",
    "GemeindeID": "1365",
    "BundeslandID": "7"
  },
  {
    "Title": "6269",
    "KatalogText": "Auf dem Krahl",
    "PLZ": "55120",
    "Postort": "Mainz",
    "GemeindeID": "1365",
    "BundeslandID": "7"
  },
  {
    "Title": "6270",
    "KatalogText": "Auf dem Stielchen",
    "PLZ": "55130",
    "Postort": "Mainz",
    "GemeindeID": "1365",
    "BundeslandID": "7"
  },
  {
    "Title": "6271",
    "KatalogText": "Auf der Bastei",
    "PLZ": "55131",
    "Postort": "Mainz",
    "GemeindeID": "1365",
    "BundeslandID": "7"
  },
  {
    "Title": "6272",
    "KatalogText": "Auf der Langen Lein",
    "PLZ": "55120",
    "Postort": "Mainz",
    "GemeindeID": "1365",
    "BundeslandID": "7"
  },
  {
    "Title": "6273",
    "KatalogText": "Auf der Steig",
    "PLZ": "55131",
    "Postort": "Mainz",
    "GemeindeID": "1365",
    "BundeslandID": "7"
  },
  {
    "Title": "6274",
    "KatalogText": "August-Herber-Straße",
    "PLZ": "55130",
    "Postort": "Mainz",
    "GemeindeID": "1365",
    "BundeslandID": "7"
  },
  {
    "Title": "6275",
    "KatalogText": "Augustinergäßchen",
    "PLZ": "55116",
    "Postort": "Mainz",
    "GemeindeID": "1365",
    "BundeslandID": "7"
  },
  {
    "Title": "6276",
    "KatalogText": "Augustinerstraße",
    "PLZ": "55116",
    "Postort": "Mainz",
    "GemeindeID": "1365",
    "BundeslandID": "7"
  },
  {
    "Title": "6277",
    "KatalogText": "Augustusplatz",
    "PLZ": "55131",
    "Postort": "Mainz",
    "GemeindeID": "1365",
    "BundeslandID": "7"
  },
  {
    "Title": "6278",
    "KatalogText": "Augustusstraße",
    "PLZ": "55131",
    "Postort": "Mainz",
    "GemeindeID": "1365",
    "BundeslandID": "7"
  },
  {
    "Title": "6279",
    "KatalogText": "Backhaushohl",
    "PLZ": "55128",
    "Postort": "Mainz",
    "GemeindeID": "1365",
    "BundeslandID": "7"
  },
  {
    "Title": "6280",
    "KatalogText": "Backmuhlstraße",
    "PLZ": "55120",
    "Postort": "Mainz",
    "GemeindeID": "1365",
    "BundeslandID": "7"
  },
  {
    "Title": "6281",
    "KatalogText": "Badergasse",
    "PLZ": "55116",
    "Postort": "Mainz",
    "GemeindeID": "1365",
    "BundeslandID": "7"
  },
  {
    "Title": "6282",
    "KatalogText": "Bäckergasse",
    "PLZ": "55128",
    "Postort": "Mainz",
    "GemeindeID": "1365",
    "BundeslandID": "7"
  },
  {
    "Title": "6283",
    "KatalogText": "Baentschstraße",
    "PLZ": "55122",
    "Postort": "Mainz",
    "GemeindeID": "1365",
    "BundeslandID": "7"
  },
  {
    "Title": "6284",
    "KatalogText": "Bahnhofplatz",
    "PLZ": "55116",
    "Postort": "Mainz",
    "GemeindeID": "1365",
    "BundeslandID": "7"
  },
  {
    "Title": "6285",
    "KatalogText": "Bahnhofstraße",
    "PLZ": "55116",
    "Postort": "Mainz",
    "GemeindeID": "1365",
    "BundeslandID": "7"
  },
  {
    "Title": "6286",
    "KatalogText": "Bahnstraße",
    "PLZ": "55128",
    "Postort": "Mainz",
    "GemeindeID": "1365",
    "BundeslandID": "7"
  },
  {
    "Title": "6287",
    "KatalogText": "Bahnwärterhaus 39",
    "PLZ": "55122",
    "Postort": "Mainz",
    "GemeindeID": "1365",
    "BundeslandID": "7"
  },
  {
    "Title": "6288",
    "KatalogText": "Ballplatz",
    "PLZ": "55116",
    "Postort": "Mainz",
    "GemeindeID": "1365",
    "BundeslandID": "7"
  },
  {
    "Title": "6289",
    "KatalogText": "Balthasar-Maler-Gasse",
    "PLZ": "55116",
    "Postort": "Mainz",
    "GemeindeID": "1365",
    "BundeslandID": "7"
  },
  {
    "Title": "6290",
    "KatalogText": "Barbarossaring",
    "PLZ": "55118",
    "Postort": "Mainz",
    "GemeindeID": "1365",
    "BundeslandID": "7"
  },
  {
    "Title": "6291",
    "KatalogText": "Barbarossastraße",
    "PLZ": "55118",
    "Postort": "Mainz",
    "GemeindeID": "1365",
    "BundeslandID": "7"
  },
  {
    "Title": "6292",
    "KatalogText": "Bastion Martin",
    "PLZ": "55131",
    "Postort": "Mainz",
    "GemeindeID": "1365",
    "BundeslandID": "7"
  },
  {
    "Title": "6293",
    "KatalogText": "Bastion Philipp",
    "PLZ": "55131",
    "Postort": "Mainz",
    "GemeindeID": "1365",
    "BundeslandID": "7"
  },
  {
    "Title": "6294",
    "KatalogText": "Bauerngasse",
    "PLZ": "55116",
    "Postort": "Mainz",
    "GemeindeID": "1365",
    "BundeslandID": "7"
  },
  {
    "Title": "6295",
    "KatalogText": "Bauhofstraße",
    "PLZ": "55116",
    "Postort": "Mainz",
    "GemeindeID": "1365",
    "BundeslandID": "7"
  },
  {
    "Title": "6296",
    "KatalogText": "Bebelstraße",
    "PLZ": "55128",
    "Postort": "Mainz",
    "GemeindeID": "1365",
    "BundeslandID": "7"
  },
  {
    "Title": "6297",
    "KatalogText": "Benjamin-Franklin-Straße",
    "PLZ": "55122",
    "Postort": "Mainz",
    "GemeindeID": "1365",
    "BundeslandID": "7"
  },
  {
    "Title": "6298",
    "KatalogText": "Am Heckerpfad",
    "PLZ": "55128",
    "Postort": "Mainz",
    "GemeindeID": "1365",
    "BundeslandID": "7"
  },
  {
    "Title": "6299",
    "KatalogText": "Berliner Straße",
    "PLZ": "55131",
    "Postort": "Mainz",
    "GemeindeID": "1365",
    "BundeslandID": "7"
  },
  {
    "Title": "6300",
    "KatalogText": "Bert-Brecht-Straße",
    "PLZ": "55128",
    "Postort": "Mainz",
    "GemeindeID": "1365",
    "BundeslandID": "7"
  },
  {
    "Title": "6301",
    "KatalogText": "Bettelpfad",
    "PLZ": "55130",
    "Postort": "Mainz",
    "GemeindeID": "1365",
    "BundeslandID": "7"
  },
  {
    "Title": "6302",
    "KatalogText": "Betzelsstraße",
    "PLZ": "55116",
    "Postort": "Mainz",
    "GemeindeID": "1365",
    "BundeslandID": "7"
  },
  {
    "Title": "6303",
    "KatalogText": "Beuthener Straße",
    "PLZ": "55131",
    "Postort": "Mainz",
    "GemeindeID": "1365",
    "BundeslandID": "7"
  },
  {
    "Title": "6304",
    "KatalogText": "Bilhildisstraße",
    "PLZ": "55116",
    "Postort": "Mainz",
    "GemeindeID": "1365",
    "BundeslandID": "7"
  },
  {
    "Title": "6305",
    "KatalogText": "Billrothweg",
    "PLZ": "55131",
    "Postort": "Mainz",
    "GemeindeID": "1365",
    "BundeslandID": "7"
  },
  {
    "Title": "6306",
    "KatalogText": "Binger Straße",
    "PLZ": "99999",
    "Postort": "Mainz",
    "GemeindeID": "1365",
    "BundeslandID": "7"
  },
  {
    "Title": "6307",
    "KatalogText": "Birnbaumsgasse",
    "PLZ": "55116",
    "Postort": "Mainz",
    "GemeindeID": "1365",
    "BundeslandID": "7"
  },
  {
    "Title": "6308",
    "KatalogText": "Bischofsplatz",
    "PLZ": "55116",
    "Postort": "Mainz",
    "GemeindeID": "1365",
    "BundeslandID": "7"
  },
  {
    "Title": "6309",
    "KatalogText": "Bismarckplatz",
    "PLZ": "55118",
    "Postort": "Mainz",
    "GemeindeID": "1365",
    "BundeslandID": "7"
  },
  {
    "Title": "6310",
    "KatalogText": "Bleichgarten",
    "PLZ": "55120",
    "Postort": "Mainz",
    "GemeindeID": "1365",
    "BundeslandID": "7"
  },
  {
    "Title": "6311",
    "KatalogText": "Bleichstraße",
    "PLZ": "55130",
    "Postort": "Mainz",
    "GemeindeID": "1365",
    "BundeslandID": "7"
  },
  {
    "Title": "6312",
    "KatalogText": "Blussusstraße",
    "PLZ": "55130",
    "Postort": "Mainz",
    "GemeindeID": "1365",
    "BundeslandID": "7"
  },
  {
    "Title": "6313",
    "KatalogText": "Bockshöfchen",
    "PLZ": "55116",
    "Postort": "Mainz",
    "GemeindeID": "1365",
    "BundeslandID": "7"
  },
  {
    "Title": "6314",
    "KatalogText": "Bodelschwinghstraße",
    "PLZ": "55131",
    "Postort": "Mainz",
    "GemeindeID": "1365",
    "BundeslandID": "7"
  },
  {
    "Title": "6315",
    "KatalogText": "Bonifaziusplatz",
    "PLZ": "55118",
    "Postort": "Mainz",
    "GemeindeID": "1365",
    "BundeslandID": "7"
  },
  {
    "Title": "6316",
    "KatalogText": "Bonifaziusstraße",
    "PLZ": "55118",
    "Postort": "Mainz",
    "GemeindeID": "1365",
    "BundeslandID": "7"
  },
  {
    "Title": "6317",
    "KatalogText": "Boppstraße",
    "PLZ": "55118",
    "Postort": "Mainz",
    "GemeindeID": "1365",
    "BundeslandID": "7"
  },
  {
    "Title": "6318",
    "KatalogText": "Braunwiesstraße",
    "PLZ": "55120",
    "Postort": "Mainz",
    "GemeindeID": "1365",
    "BundeslandID": "7"
  },
  {
    "Title": "6319",
    "KatalogText": "Breidenbacherstraße",
    "PLZ": "55116",
    "Postort": "Mainz",
    "GemeindeID": "1365",
    "BundeslandID": "7"
  },
  {
    "Title": "6320",
    "KatalogText": "Breite Straße",
    "PLZ": "55124",
    "Postort": "Mainz",
    "GemeindeID": "1365",
    "BundeslandID": "7"
  },
  {
    "Title": "6321",
    "KatalogText": "Liegnitzer Straße",
    "PLZ": "55131",
    "Postort": "Mainz",
    "GemeindeID": "1365",
    "BundeslandID": "7"
  },
  {
    "Title": "6322",
    "KatalogText": "Bretzenheimer Straße",
    "PLZ": "55128",
    "Postort": "Mainz",
    "GemeindeID": "1365",
    "BundeslandID": "7"
  },
  {
    "Title": "6323",
    "KatalogText": "Bretzenheimer Weg",
    "PLZ": "55131",
    "Postort": "Mainz",
    "GemeindeID": "1365",
    "BundeslandID": "7"
  },
  {
    "Title": "6324",
    "KatalogText": "Brunnenstraße",
    "PLZ": "55130",
    "Postort": "Mainz",
    "GemeindeID": "1365",
    "BundeslandID": "7"
  },
  {
    "Title": "6325",
    "KatalogText": "Budenheimer Straße",
    "PLZ": "55124",
    "Postort": "Mainz",
    "GemeindeID": "1365",
    "BundeslandID": "7"
  },
  {
    "Title": "6326",
    "KatalogText": "Burgstraße",
    "PLZ": "55130",
    "Postort": "Mainz",
    "GemeindeID": "1365",
    "BundeslandID": "7"
  },
  {
    "Title": "6327",
    "KatalogText": "Butterbergreul",
    "PLZ": "55124",
    "Postort": "Mainz",
    "GemeindeID": "1365",
    "BundeslandID": "7"
  },
  {
    "Title": "6328",
    "KatalogText": "Canisiusstraße",
    "PLZ": "55122",
    "Postort": "Mainz",
    "GemeindeID": "1365",
    "BundeslandID": "7"
  },
  {
    "Title": "6329",
    "KatalogText": "Carl-Benz-Straße",
    "PLZ": "55131",
    "Postort": "Mainz",
    "GemeindeID": "1365",
    "BundeslandID": "7"
  },
  {
    "Title": "6330",
    "KatalogText": "Carlo-Mierendorff-Straße",
    "PLZ": "55124",
    "Postort": "Mainz",
    "GemeindeID": "1365",
    "BundeslandID": "7"
  },
  {
    "Title": "6331",
    "KatalogText": "Chattenstraße",
    "PLZ": "55130",
    "Postort": "Mainz",
    "GemeindeID": "1365",
    "BundeslandID": "7"
  },
  {
    "Title": "6332",
    "KatalogText": "Christianstraße",
    "PLZ": "55130",
    "Postort": "Mainz",
    "GemeindeID": "1365",
    "BundeslandID": "7"
  },
  {
    "Title": "6333",
    "KatalogText": "Christofsgäßchen",
    "PLZ": "55116",
    "Postort": "Mainz",
    "GemeindeID": "1365",
    "BundeslandID": "7"
  },
  {
    "Title": "6334",
    "KatalogText": "Christofsstraße",
    "PLZ": "55116",
    "Postort": "Mainz",
    "GemeindeID": "1365",
    "BundeslandID": "7"
  },
  {
    "Title": "6335",
    "KatalogText": "Colmarstraße",
    "PLZ": "55118",
    "Postort": "Mainz",
    "GemeindeID": "1365",
    "BundeslandID": "7"
  },
  {
    "Title": "6336",
    "KatalogText": "Corneliusstraße",
    "PLZ": "55118",
    "Postort": "Mainz",
    "GemeindeID": "1365",
    "BundeslandID": "7"
  },
  {
    "Title": "6337",
    "KatalogText": "Czernyweg",
    "PLZ": "55131",
    "Postort": "Mainz",
    "GemeindeID": "1365",
    "BundeslandID": "7"
  },
  {
    "Title": "6338",
    "KatalogText": "Dagobertstraße",
    "PLZ": "55116",
    "Postort": "Mainz",
    "GemeindeID": "1365",
    "BundeslandID": "7"
  },
  {
    "Title": "6339",
    "KatalogText": "Aspeltstraße",
    "PLZ": "55118",
    "Postort": "Mainz",
    "GemeindeID": "1365",
    "BundeslandID": "7"
  },
  {
    "Title": "6340",
    "KatalogText": "Dalheimer Straße",
    "PLZ": "55128",
    "Postort": "Mainz",
    "GemeindeID": "1365",
    "BundeslandID": "7"
  },
  {
    "Title": "6341",
    "KatalogText": "Dalheimer Weg",
    "PLZ": "55128",
    "Postort": "Mainz",
    "GemeindeID": "1365",
    "BundeslandID": "7"
  },
  {
    "Title": "6342",
    "KatalogText": "Dantestraße",
    "PLZ": "55128",
    "Postort": "Mainz",
    "GemeindeID": "1365",
    "BundeslandID": "7"
  },
  {
    "Title": "6343",
    "KatalogText": "Deutschhausplatz",
    "PLZ": "55116",
    "Postort": "Mainz",
    "GemeindeID": "1365",
    "BundeslandID": "7"
  },
  {
    "Title": "6344",
    "KatalogText": "Diether-von-Isenburg-Straße",
    "PLZ": "55116",
    "Postort": "Mainz",
    "GemeindeID": "1365",
    "BundeslandID": "7"
  },
  {
    "Title": "6345",
    "KatalogText": "Dietrich-Bonhoeffer-Straße",
    "PLZ": "55131",
    "Postort": "Mainz",
    "GemeindeID": "1365",
    "BundeslandID": "7"
  },
  {
    "Title": "6346",
    "KatalogText": "Dietzestraße",
    "PLZ": "55120",
    "Postort": "Mainz",
    "GemeindeID": "1365",
    "BundeslandID": "7"
  },
  {
    "Title": "6347",
    "KatalogText": "Dijonstraße",
    "PLZ": "55122",
    "Postort": "Mainz",
    "GemeindeID": "1365",
    "BundeslandID": "7"
  },
  {
    "Title": "6348",
    "KatalogText": "Dionysiusstraße",
    "PLZ": "55124",
    "Postort": "Mainz",
    "GemeindeID": "1365",
    "BundeslandID": "7"
  },
  {
    "Title": "6349",
    "KatalogText": "Domherrngasse",
    "PLZ": "55128",
    "Postort": "Mainz",
    "GemeindeID": "1365",
    "BundeslandID": "7"
  },
  {
    "Title": "6350",
    "KatalogText": "Dominikanerstraße",
    "PLZ": "55116",
    "Postort": "Mainz",
    "GemeindeID": "1365",
    "BundeslandID": "7"
  },
  {
    "Title": "6351",
    "KatalogText": "Domstraße",
    "PLZ": "55116",
    "Postort": "Mainz",
    "GemeindeID": "1365",
    "BundeslandID": "7"
  },
  {
    "Title": "6352",
    "KatalogText": "Dr.-Friedrich-Kirchhoff-Str.",
    "PLZ": "55130",
    "Postort": "Mainz",
    "GemeindeID": "1365",
    "BundeslandID": "7"
  },
  {
    "Title": "6353",
    "KatalogText": "Dr.-Martin-Luther-King-Weg",
    "PLZ": "55122",
    "Postort": "Mainz",
    "GemeindeID": "1365",
    "BundeslandID": "7"
  },
  {
    "Title": "6354",
    "KatalogText": "Draiser Straße",
    "PLZ": "55128",
    "Postort": "Mainz",
    "GemeindeID": "1365",
    "BundeslandID": "7"
  },
  {
    "Title": "6355",
    "KatalogText": "Draiser Weg",
    "PLZ": "55128",
    "Postort": "Mainz",
    "GemeindeID": "1365",
    "BundeslandID": "7"
  },
  {
    "Title": "6356",
    "KatalogText": "Drosselweg",
    "PLZ": "55122",
    "Postort": "Mainz",
    "GemeindeID": "1365",
    "BundeslandID": "7"
  },
  {
    "Title": "6357",
    "KatalogText": "Drususstraße",
    "PLZ": "55131",
    "Postort": "Mainz",
    "GemeindeID": "1365",
    "BundeslandID": "7"
  },
  {
    "Title": "6358",
    "KatalogText": "Drususwall",
    "PLZ": "55131",
    "Postort": "Mainz",
    "GemeindeID": "1365",
    "BundeslandID": "7"
  },
  {
    "Title": "6359",
    "KatalogText": "Dumontstraße",
    "PLZ": "55131",
    "Postort": "Mainz",
    "GemeindeID": "1365",
    "BundeslandID": "7"
  },
  {
    "Title": "6360",
    "KatalogText": "Ebersheimer Weg",
    "PLZ": "55131",
    "Postort": "Mainz",
    "GemeindeID": "1365",
    "BundeslandID": "7"
  },
  {
    "Title": "6361",
    "KatalogText": "Eduard-David-Straße",
    "PLZ": "55122",
    "Postort": "Mainz",
    "GemeindeID": "1365",
    "BundeslandID": "7"
  },
  {
    "Title": "6362",
    "KatalogText": "Eduard-Frank-Straße",
    "PLZ": "55122",
    "Postort": "Mainz",
    "GemeindeID": "1365",
    "BundeslandID": "7"
  },
  {
    "Title": "6363",
    "KatalogText": "Ehrhardstraße",
    "PLZ": "55131",
    "Postort": "Mainz",
    "GemeindeID": "1365",
    "BundeslandID": "7"
  },
  {
    "Title": "6364",
    "KatalogText": "Eichelsteinstraße",
    "PLZ": "55131",
    "Postort": "Mainz",
    "GemeindeID": "1365",
    "BundeslandID": "7"
  },
  {
    "Title": "6365",
    "KatalogText": "Eichendorffstraße",
    "PLZ": "55122",
    "Postort": "Mainz",
    "GemeindeID": "1365",
    "BundeslandID": "7"
  },
  {
    "Title": "6366",
    "KatalogText": "Eisgrubweg",
    "PLZ": "55116",
    "Postort": "Mainz",
    "GemeindeID": "1365",
    "BundeslandID": "7"
  },
  {
    "Title": "6367",
    "KatalogText": "Elbestraße",
    "PLZ": "55122",
    "Postort": "Mainz",
    "GemeindeID": "1365",
    "BundeslandID": "7"
  },
  {
    "Title": "6368",
    "KatalogText": "Eleonorenstraße",
    "PLZ": "55124",
    "Postort": "Mainz",
    "GemeindeID": "1365",
    "BundeslandID": "7"
  },
  {
    "Title": "6369",
    "KatalogText": "Elisabethenstraße",
    "PLZ": "55130",
    "Postort": "Mainz",
    "GemeindeID": "1365",
    "BundeslandID": "7"
  },
  {
    "Title": "6370",
    "KatalogText": "Ellenbogenstraße",
    "PLZ": "55124",
    "Postort": "Mainz",
    "GemeindeID": "1365",
    "BundeslandID": "7"
  },
  {
    "Title": "6371",
    "KatalogText": "Emausweg",
    "PLZ": "55118",
    "Postort": "Mainz",
    "GemeindeID": "1365",
    "BundeslandID": "7"
  },
  {
    "Title": "6372",
    "KatalogText": "Emmeransstraße",
    "PLZ": "55116",
    "Postort": "Mainz",
    "GemeindeID": "1365",
    "BundeslandID": "7"
  },
  {
    "Title": "6373",
    "KatalogText": "Emmerich-Josef-Straße",
    "PLZ": "55116",
    "Postort": "Mainz",
    "GemeindeID": "1365",
    "BundeslandID": "7"
  },
  {
    "Title": "6374",
    "KatalogText": "Emrichruhstraße",
    "PLZ": "55120",
    "Postort": "Mainz",
    "GemeindeID": "1365",
    "BundeslandID": "7"
  },
  {
    "Title": "6375",
    "KatalogText": "Engelgasse",
    "PLZ": "55130",
    "Postort": "Mainz",
    "GemeindeID": "1365",
    "BundeslandID": "7"
  },
  {
    "Title": "6376",
    "KatalogText": "Engelstraße",
    "PLZ": "55124",
    "Postort": "Mainz",
    "GemeindeID": "1365",
    "BundeslandID": "7"
  },
  {
    "Title": "6377",
    "KatalogText": "Eppichmauergasse",
    "PLZ": "55116",
    "Postort": "Mainz",
    "GemeindeID": "1365",
    "BundeslandID": "7"
  },
  {
    "Title": "6378",
    "KatalogText": "Erbacherhofgasse",
    "PLZ": "55116",
    "Postort": "Mainz",
    "GemeindeID": "1365",
    "BundeslandID": "7"
  },
  {
    "Title": "6379",
    "KatalogText": "Erfurter Straße",
    "PLZ": "55122",
    "Postort": "Mainz",
    "GemeindeID": "1365",
    "BundeslandID": "7"
  },
  {
    "Title": "6380",
    "KatalogText": "Erich-Ollenhauer-Straße",
    "PLZ": "55130",
    "Postort": "Mainz",
    "GemeindeID": "1365",
    "BundeslandID": "7"
  },
  {
    "Title": "6381",
    "KatalogText": "Ernst-Abbe-Straße",
    "PLZ": "55124",
    "Postort": "Mainz",
    "GemeindeID": "1365",
    "BundeslandID": "7"
  },
  {
    "Title": "6382",
    "KatalogText": "Ernst-Ludwig-Platz",
    "PLZ": "55116",
    "Postort": "Mainz",
    "GemeindeID": "1365",
    "BundeslandID": "7"
  },
  {
    "Title": "6383",
    "KatalogText": "Ernst-Ludwig-Straße",
    "PLZ": "55116",
    "Postort": "Mainz",
    "GemeindeID": "1365",
    "BundeslandID": "7"
  },
  {
    "Title": "6384",
    "KatalogText": "Ernst-Neeb-Straße",
    "PLZ": "55131",
    "Postort": "Mainz",
    "GemeindeID": "1365",
    "BundeslandID": "7"
  },
  {
    "Title": "6385",
    "KatalogText": "Erthalstraße",
    "PLZ": "55118",
    "Postort": "Mainz",
    "GemeindeID": "1365",
    "BundeslandID": "7"
  },
  {
    "Title": "6386",
    "KatalogText": "Erzbergerstraße",
    "PLZ": "55120",
    "Postort": "Mainz",
    "GemeindeID": "1365",
    "BundeslandID": "7"
  },
  {
    "Title": "6387",
    "KatalogText": "Essenheimer Straße",
    "PLZ": "55128",
    "Postort": "Mainz",
    "GemeindeID": "1365",
    "BundeslandID": "7"
  },
  {
    "Title": "6388",
    "KatalogText": "Eupener Straße",
    "PLZ": "55131",
    "Postort": "Mainz",
    "GemeindeID": "1365",
    "BundeslandID": "7"
  },
  {
    "Title": "6389",
    "KatalogText": "Färchergäßchen",
    "PLZ": "55116",
    "Postort": "Mainz",
    "GemeindeID": "1365",
    "BundeslandID": "7"
  },
  {
    "Title": "6390",
    "KatalogText": "Faulhaberstraße",
    "PLZ": "55128",
    "Postort": "Mainz",
    "GemeindeID": "1365",
    "BundeslandID": "7"
  },
  {
    "Title": "6391",
    "KatalogText": "Feldbergplatz",
    "PLZ": "55118",
    "Postort": "Mainz",
    "GemeindeID": "1365",
    "BundeslandID": "7"
  },
  {
    "Title": "6392",
    "KatalogText": "Feldbergstraße",
    "PLZ": "55118",
    "Postort": "Mainz",
    "GemeindeID": "1365",
    "BundeslandID": "7"
  },
  {
    "Title": "6393",
    "KatalogText": "Feldherrenstraße",
    "PLZ": "55120",
    "Postort": "Mainz",
    "GemeindeID": "1365",
    "BundeslandID": "7"
  },
  {
    "Title": "6394",
    "KatalogText": "Fichteplatz",
    "PLZ": "55131",
    "Postort": "Mainz",
    "GemeindeID": "1365",
    "BundeslandID": "7"
  },
  {
    "Title": "6395",
    "KatalogText": "Finkenstraße",
    "PLZ": "55122",
    "Postort": "Mainz",
    "GemeindeID": "1365",
    "BundeslandID": "7"
  },
  {
    "Title": "6396",
    "KatalogText": "Finther Landstraße",
    "PLZ": "55124",
    "Postort": "Mainz",
    "GemeindeID": "1365",
    "BundeslandID": "7"
  },
  {
    "Title": "6397",
    "KatalogText": "Fischergasse",
    "PLZ": "55116",
    "Postort": "Mainz",
    "GemeindeID": "1365",
    "BundeslandID": "7"
  },
  {
    "Title": "6398",
    "KatalogText": "Fischtorplatz",
    "PLZ": "55116",
    "Postort": "Mainz",
    "GemeindeID": "1365",
    "BundeslandID": "7"
  },
  {
    "Title": "6399",
    "KatalogText": "Fischtorstraße",
    "PLZ": "55116",
    "Postort": "Mainz",
    "GemeindeID": "1365",
    "BundeslandID": "7"
  },
  {
    "Title": "6400",
    "KatalogText": "Flachsmarkt",
    "PLZ": "55116",
    "Postort": "Mainz",
    "GemeindeID": "1365",
    "BundeslandID": "7"
  },
  {
    "Title": "6401",
    "KatalogText": "Flachsmarktstraße",
    "PLZ": "55116",
    "Postort": "Mainz",
    "GemeindeID": "1365",
    "BundeslandID": "7"
  },
  {
    "Title": "6402",
    "KatalogText": "Fliednerstraße",
    "PLZ": "55131",
    "Postort": "Mainz",
    "GemeindeID": "1365",
    "BundeslandID": "7"
  },
  {
    "Title": "6403",
    "KatalogText": "Floßstraße",
    "PLZ": "55120",
    "Postort": "Mainz",
    "GemeindeID": "1365",
    "BundeslandID": "7"
  },
  {
    "Title": "6404",
    "KatalogText": "Forellenstraße",
    "PLZ": "55120",
    "Postort": "Mainz",
    "GemeindeID": "1365",
    "BundeslandID": "7"
  },
  {
    "Title": "6405",
    "KatalogText": "Forsterstraße",
    "PLZ": "55118",
    "Postort": "Mainz",
    "GemeindeID": "1365",
    "BundeslandID": "7"
  },
  {
    "Title": "6406",
    "KatalogText": "Franz-Werfel-Straße",
    "PLZ": "55122",
    "Postort": "Mainz",
    "GemeindeID": "1365",
    "BundeslandID": "7"
  },
  {
    "Title": "6407",
    "KatalogText": "Franz-Winkeler-Straße",
    "PLZ": "55120",
    "Postort": "Mainz",
    "GemeindeID": "1365",
    "BundeslandID": "7"
  },
  {
    "Title": "6408",
    "KatalogText": "Franziskanerstraße",
    "PLZ": "55116",
    "Postort": "Mainz",
    "GemeindeID": "1365",
    "BundeslandID": "7"
  },
  {
    "Title": "6409",
    "KatalogText": "Frauenlobplatz",
    "PLZ": "55118",
    "Postort": "Mainz",
    "GemeindeID": "1365",
    "BundeslandID": "7"
  },
  {
    "Title": "6410",
    "KatalogText": "Frauenlobstraße",
    "PLZ": "55118",
    "Postort": "Mainz",
    "GemeindeID": "1365",
    "BundeslandID": "7"
  },
  {
    "Title": "6411",
    "KatalogText": "Freiherr-vom-Stein-Straße",
    "PLZ": "55131",
    "Postort": "Mainz",
    "GemeindeID": "1365",
    "BundeslandID": "7"
  },
  {
    "Title": "6412",
    "KatalogText": "Freiligrathstraße",
    "PLZ": "55131",
    "Postort": "Mainz",
    "GemeindeID": "1365",
    "BundeslandID": "7"
  },
  {
    "Title": "6413",
    "KatalogText": "Friedensstraße",
    "PLZ": "55124",
    "Postort": "Mainz",
    "GemeindeID": "1365",
    "BundeslandID": "7"
  },
  {
    "Title": "6414",
    "KatalogText": "Friedrich-Ebert-Platz",
    "PLZ": "55124",
    "Postort": "Mainz",
    "GemeindeID": "1365",
    "BundeslandID": "7"
  },
  {
    "Title": "6415",
    "KatalogText": "Friedrich-Ebert-Straße",
    "PLZ": "55130",
    "Postort": "Mainz",
    "GemeindeID": "1365",
    "BundeslandID": "7"
  },
  {
    "Title": "6416",
    "KatalogText": "Friedrich-Naumann-Straße",
    "PLZ": "55131",
    "Postort": "Mainz",
    "GemeindeID": "1365",
    "BundeslandID": "7"
  },
  {
    "Title": "6417",
    "KatalogText": "Friedrich-Schneider-Straße",
    "PLZ": "55131",
    "Postort": "Mainz",
    "GemeindeID": "1365",
    "BundeslandID": "7"
  },
  {
    "Title": "6418",
    "KatalogText": "Friedrichsstraße",
    "PLZ": "55124",
    "Postort": "Mainz",
    "GemeindeID": "1365",
    "BundeslandID": "7"
  },
  {
    "Title": "6419",
    "KatalogText": "Fritz-Bockius-Straße",
    "PLZ": "55122",
    "Postort": "Mainz",
    "GemeindeID": "1365",
    "BundeslandID": "7"
  },
  {
    "Title": "6420",
    "KatalogText": "Fritz-Ohlhof-Straße",
    "PLZ": "55122",
    "Postort": "Mainz",
    "GemeindeID": "1365",
    "BundeslandID": "7"
  },
  {
    "Title": "6421",
    "KatalogText": "Früchtstraße",
    "PLZ": "55130",
    "Postort": "Mainz",
    "GemeindeID": "1365",
    "BundeslandID": "7"
  },
  {
    "Title": "6422",
    "KatalogText": "Fürstenbergerhofstraße",
    "PLZ": "55116",
    "Postort": "Mainz",
    "GemeindeID": "1365",
    "BundeslandID": "7"
  },
  {
    "Title": "6423",
    "KatalogText": "Fuststraße",
    "PLZ": "55116",
    "Postort": "Mainz",
    "GemeindeID": "1365",
    "BundeslandID": "7"
  },
  {
    "Title": "6424",
    "KatalogText": "Gabelsbergerstraße",
    "PLZ": "55118",
    "Postort": "Mainz",
    "GemeindeID": "1365",
    "BundeslandID": "7"
  },
  {
    "Title": "6425",
    "KatalogText": "Gänsmarkt",
    "PLZ": "55128",
    "Postort": "Mainz",
    "GemeindeID": "1365",
    "BundeslandID": "7"
  },
  {
    "Title": "6426",
    "KatalogText": "Gärtnergasse",
    "PLZ": "55116",
    "Postort": "Mainz",
    "GemeindeID": "1365",
    "BundeslandID": "7"
  },
  {
    "Title": "6427",
    "KatalogText": "Gallusgasse",
    "PLZ": "55116",
    "Postort": "Mainz",
    "GemeindeID": "1365",
    "BundeslandID": "7"
  },
  {
    "Title": "6428",
    "KatalogText": "Gartenfeldplatz",
    "PLZ": "55118",
    "Postort": "Mainz",
    "GemeindeID": "1365",
    "BundeslandID": "7"
  },
  {
    "Title": "6429",
    "KatalogText": "Gartenfeldstraße",
    "PLZ": "55118",
    "Postort": "Mainz",
    "GemeindeID": "1365",
    "BundeslandID": "7"
  },
  {
    "Title": "6430",
    "KatalogText": "Albert-Knoll-Straße",
    "PLZ": "55120",
    "Postort": "Mainz",
    "GemeindeID": "1365",
    "BundeslandID": "7"
  },
  {
    "Title": "6431",
    "KatalogText": "Gartenweg",
    "PLZ": "55131",
    "Postort": "Mainz",
    "GemeindeID": "1365",
    "BundeslandID": "7"
  },
  {
    "Title": "6432",
    "KatalogText": "Gaßnerallee",
    "PLZ": "55120",
    "Postort": "Mainz",
    "GemeindeID": "1365",
    "BundeslandID": "7"
  },
  {
    "Title": "6433",
    "KatalogText": "Gastellstraße",
    "PLZ": "55120",
    "Postort": "Mainz",
    "GemeindeID": "1365",
    "BundeslandID": "7"
  },
  {
    "Title": "6434",
    "KatalogText": "Gaustraße",
    "PLZ": "55116",
    "Postort": "Mainz",
    "GemeindeID": "1365",
    "BundeslandID": "7"
  },
  {
    "Title": "6435",
    "KatalogText": "Georg-Fröhder-Straße",
    "PLZ": "55128",
    "Postort": "Mainz",
    "GemeindeID": "1365",
    "BundeslandID": "7"
  },
  {
    "Title": "6436",
    "KatalogText": "Georg-Hamm-Straße",
    "PLZ": "55120",
    "Postort": "Mainz",
    "GemeindeID": "1365",
    "BundeslandID": "7"
  },
  {
    "Title": "6437",
    "KatalogText": "George-Washington-Straße",
    "PLZ": "55122",
    "Postort": "Mainz",
    "GemeindeID": "1365",
    "BundeslandID": "7"
  },
  {
    "Title": "6438",
    "KatalogText": "Gerhart-Hauptmann-Straße",
    "PLZ": "55124",
    "Postort": "Mainz",
    "GemeindeID": "1365",
    "BundeslandID": "7"
  },
  {
    "Title": "6439",
    "KatalogText": "Germanikusstraße",
    "PLZ": "55131",
    "Postort": "Mainz",
    "GemeindeID": "1365",
    "BundeslandID": "7"
  },
  {
    "Title": "6440",
    "KatalogText": "Geschwister-Scholl-Straße",
    "PLZ": "55131",
    "Postort": "Mainz",
    "GemeindeID": "1365",
    "BundeslandID": "7"
  },
  {
    "Title": "6441",
    "KatalogText": "Gleisbergweg",
    "PLZ": "55122",
    "Postort": "Mainz",
    "GemeindeID": "1365",
    "BundeslandID": "7"
  },
  {
    "Title": "6442",
    "KatalogText": "Gleiwitzer Straße",
    "PLZ": "55131",
    "Postort": "Mainz",
    "GemeindeID": "1365",
    "BundeslandID": "7"
  },
  {
    "Title": "6443",
    "KatalogText": "Görresstraße",
    "PLZ": "55131",
    "Postort": "Mainz",
    "GemeindeID": "1365",
    "BundeslandID": "7"
  },
  {
    "Title": "6444",
    "KatalogText": "Görzstraße",
    "PLZ": "55131",
    "Postort": "Mainz",
    "GemeindeID": "1365",
    "BundeslandID": "7"
  },
  {
    "Title": "6445",
    "KatalogText": "Herderplatz",
    "PLZ": "55124",
    "Postort": "Mainz",
    "GemeindeID": "1365",
    "BundeslandID": "7"
  },
  {
    "Title": "6446",
    "KatalogText": "Goethestraße",
    "PLZ": "55118",
    "Postort": "Mainz",
    "GemeindeID": "1365",
    "BundeslandID": "7"
  },
  {
    "Title": "6447",
    "KatalogText": "Göttelmannstraße",
    "PLZ": "99999",
    "Postort": "Mainz",
    "GemeindeID": "1365",
    "BundeslandID": "7"
  },
  {
    "Title": "6448",
    "KatalogText": "Goetzstraße",
    "PLZ": "55124",
    "Postort": "Mainz",
    "GemeindeID": "1365",
    "BundeslandID": "7"
  },
  {
    "Title": "6449",
    "KatalogText": "Goldenbrunnengasse",
    "PLZ": "55116",
    "Postort": "Mainz",
    "GemeindeID": "1365",
    "BundeslandID": "7"
  },
  {
    "Title": "6450",
    "KatalogText": "Goldenluftgasse",
    "PLZ": "55116",
    "Postort": "Mainz",
    "GemeindeID": "1365",
    "BundeslandID": "7"
  },
  {
    "Title": "6451",
    "KatalogText": "Gonsbachstraße",
    "PLZ": "55124",
    "Postort": "Mainz",
    "GemeindeID": "1365",
    "BundeslandID": "7"
  },
  {
    "Title": "6452",
    "KatalogText": "Fritz-Kohl-Straße",
    "PLZ": "55122",
    "Postort": "Mainz",
    "GemeindeID": "1365",
    "BundeslandID": "7"
  },
  {
    "Title": "6453",
    "KatalogText": "Goßlerweg",
    "PLZ": "55122",
    "Postort": "Mainz",
    "GemeindeID": "1365",
    "BundeslandID": "7"
  },
  {
    "Title": "6454",
    "KatalogText": "Gottlieb-Daimler-Straße",
    "PLZ": "55131",
    "Postort": "Mainz",
    "GemeindeID": "1365",
    "BundeslandID": "7"
  },
  {
    "Title": "6455",
    "KatalogText": "Graben",
    "PLZ": "55116",
    "Postort": "Mainz",
    "GemeindeID": "1365",
    "BundeslandID": "7"
  },
  {
    "Title": "6456",
    "KatalogText": "Grabenstraße",
    "PLZ": "55124",
    "Postort": "Mainz",
    "GemeindeID": "1365",
    "BundeslandID": "7"
  },
  {
    "Title": "6457",
    "KatalogText": "Graf-Stauffenberg-Straße",
    "PLZ": "55124",
    "Postort": "Mainz",
    "GemeindeID": "1365",
    "BundeslandID": "7"
  },
  {
    "Title": "6458",
    "KatalogText": "Grebenstraße",
    "PLZ": "55116",
    "Postort": "Mainz",
    "GemeindeID": "1365",
    "BundeslandID": "7"
  },
  {
    "Title": "6459",
    "KatalogText": "Greiffenklaustraße",
    "PLZ": "55116",
    "Postort": "Mainz",
    "GemeindeID": "1365",
    "BundeslandID": "7"
  },
  {
    "Title": "6460",
    "KatalogText": "Grenzweg",
    "PLZ": "55130",
    "Postort": "Mainz",
    "GemeindeID": "1365",
    "BundeslandID": "7"
  },
  {
    "Title": "6461",
    "KatalogText": "Große Bleiche",
    "PLZ": "55116",
    "Postort": "Mainz",
    "GemeindeID": "1365",
    "BundeslandID": "7"
  },
  {
    "Title": "6462",
    "KatalogText": "Große Langgasse",
    "PLZ": "55116",
    "Postort": "Mainz",
    "GemeindeID": "1365",
    "BundeslandID": "7"
  },
  {
    "Title": "6463",
    "KatalogText": "Große Weißgasse",
    "PLZ": "55116",
    "Postort": "Mainz",
    "GemeindeID": "1365",
    "BundeslandID": "7"
  },
  {
    "Title": "6464",
    "KatalogText": "Gutenbergplatz",
    "PLZ": "55116",
    "Postort": "Mainz",
    "GemeindeID": "1365",
    "BundeslandID": "7"
  },
  {
    "Title": "6465",
    "KatalogText": "Gutenbergstraße",
    "PLZ": "55124",
    "Postort": "Mainz",
    "GemeindeID": "1365",
    "BundeslandID": "7"
  },
  {
    "Title": "6466",
    "KatalogText": "Gymnasiumstraße",
    "PLZ": "55116",
    "Postort": "Mainz",
    "GemeindeID": "1365",
    "BundeslandID": "7"
  },
  {
    "Title": "6467",
    "KatalogText": "Häfnerstraße",
    "PLZ": "55120",
    "Postort": "Mainz",
    "GemeindeID": "1365",
    "BundeslandID": "7"
  },
  {
    "Title": "6468",
    "KatalogText": "Händelstraße",
    "PLZ": "55124",
    "Postort": "Mainz",
    "GemeindeID": "1365",
    "BundeslandID": "7"
  },
  {
    "Title": "6469",
    "KatalogText": "Hänleingäßchen",
    "PLZ": "55116",
    "Postort": "Mainz",
    "GemeindeID": "1365",
    "BundeslandID": "7"
  },
  {
    "Title": "6470",
    "KatalogText": "Hafenstraße",
    "PLZ": "55118",
    "Postort": "Mainz",
    "GemeindeID": "1365",
    "BundeslandID": "7"
  },
  {
    "Title": "6471",
    "KatalogText": "Haferackerweg",
    "PLZ": "55120",
    "Postort": "Mainz",
    "GemeindeID": "1365",
    "BundeslandID": "7"
  },
  {
    "Title": "6472",
    "KatalogText": "Am Rathaus",
    "PLZ": "55116",
    "Postort": "Mainz",
    "GemeindeID": "1365",
    "BundeslandID": "7"
  },
  {
    "Title": "6473",
    "KatalogText": "Hans-Böckler-Straße",
    "PLZ": "55128",
    "Postort": "Mainz",
    "GemeindeID": "1365",
    "BundeslandID": "7"
  },
  {
    "Title": "6474",
    "KatalogText": "Hartmühlenweg",
    "PLZ": "55122",
    "Postort": "Mainz",
    "GemeindeID": "1365",
    "BundeslandID": "7"
  },
  {
    "Title": "6475",
    "KatalogText": "Hattenbergstraße",
    "PLZ": "55122",
    "Postort": "Mainz",
    "GemeindeID": "1365",
    "BundeslandID": "7"
  },
  {
    "Title": "6476",
    "KatalogText": "Hauptstraße",
    "PLZ": "55120",
    "Postort": "Mainz",
    "GemeindeID": "1365",
    "BundeslandID": "7"
  },
  {
    "Title": "6477",
    "KatalogText": "Franz-Liszt-Straße",
    "PLZ": "55118",
    "Postort": "Mainz",
    "GemeindeID": "1365",
    "BundeslandID": "7"
  },
  {
    "Title": "6478",
    "KatalogText": "Hechtsheimer Straße",
    "PLZ": "55131",
    "Postort": "Mainz",
    "GemeindeID": "1365",
    "BundeslandID": "7"
  },
  {
    "Title": "6479",
    "KatalogText": "Heckerstraße",
    "PLZ": "55120",
    "Postort": "Mainz",
    "GemeindeID": "1365",
    "BundeslandID": "7"
  },
  {
    "Title": "6480",
    "KatalogText": "Hegelstraße",
    "PLZ": "55122",
    "Postort": "Mainz",
    "GemeindeID": "1365",
    "BundeslandID": "7"
  },
  {
    "Title": "6481",
    "KatalogText": "Heidelbergerfaßgasse",
    "PLZ": "55116",
    "Postort": "Mainz",
    "GemeindeID": "1365",
    "BundeslandID": "7"
  },
  {
    "Title": "6482",
    "KatalogText": "Heidesheimer Straße",
    "PLZ": "55124",
    "Postort": "Mainz",
    "GemeindeID": "1365",
    "BundeslandID": "7"
  },
  {
    "Title": "6483",
    "KatalogText": "Heiliggrabgasse",
    "PLZ": "55116",
    "Postort": "Mainz",
    "GemeindeID": "1365",
    "BundeslandID": "7"
  },
  {
    "Title": "6484",
    "KatalogText": "Heiligkreuzweg",
    "PLZ": "55130",
    "Postort": "Mainz",
    "GemeindeID": "1365",
    "BundeslandID": "7"
  },
  {
    "Title": "6485",
    "KatalogText": "Heimstraße",
    "PLZ": "55120",
    "Postort": "Mainz",
    "GemeindeID": "1365",
    "BundeslandID": "7"
  },
  {
    "Title": "6486",
    "KatalogText": "Heinrich-Freber-Straße",
    "PLZ": "55120",
    "Postort": "Mainz",
    "GemeindeID": "1365",
    "BundeslandID": "7"
  },
  {
    "Title": "6487",
    "KatalogText": "Heinrich-Heine-Straße",
    "PLZ": "55118",
    "Postort": "Mainz",
    "GemeindeID": "1365",
    "BundeslandID": "7"
  },
  {
    "Title": "6488",
    "KatalogText": "Heinrich-Schrohe-Straße",
    "PLZ": "55130",
    "Postort": "Mainz",
    "GemeindeID": "1365",
    "BundeslandID": "7"
  },
  {
    "Title": "6489",
    "KatalogText": "Heinrich-von-Brentano-Str.",
    "PLZ": "55130",
    "Postort": "Mainz",
    "GemeindeID": "1365",
    "BundeslandID": "7"
  },
  {
    "Title": "6490",
    "KatalogText": "Heinrich-von-Gagern-Str.",
    "PLZ": "55131",
    "Postort": "Mainz",
    "GemeindeID": "1365",
    "BundeslandID": "7"
  },
  {
    "Title": "6491",
    "KatalogText": "Heinrich-von-Stephan-Str.",
    "PLZ": "55124",
    "Postort": "Mainz",
    "GemeindeID": "1365",
    "BundeslandID": "7"
  },
  {
    "Title": "6492",
    "KatalogText": "Heinrich-Wothe-Straße",
    "PLZ": "55122",
    "Postort": "Mainz",
    "GemeindeID": "1365",
    "BundeslandID": "7"
  },
  {
    "Title": "6493",
    "KatalogText": "Helmholtzweg",
    "PLZ": "55131",
    "Postort": "Mainz",
    "GemeindeID": "1365",
    "BundeslandID": "7"
  },
  {
    "Title": "6494",
    "KatalogText": "Heringsbrunnengasse",
    "PLZ": "55116",
    "Postort": "Mainz",
    "GemeindeID": "1365",
    "BundeslandID": "7"
  },
  {
    "Title": "6495",
    "KatalogText": "Hermann-Ehlers-Straße",
    "PLZ": "55124",
    "Postort": "Mainz",
    "GemeindeID": "1365",
    "BundeslandID": "7"
  },
  {
    "Title": "6496",
    "KatalogText": "Herrnweg",
    "PLZ": "55122",
    "Postort": "Mainz",
    "GemeindeID": "1365",
    "BundeslandID": "7"
  },
  {
    "Title": "6497",
    "KatalogText": "Heugasse",
    "PLZ": "55116",
    "Postort": "Mainz",
    "GemeindeID": "1365",
    "BundeslandID": "7"
  },
  {
    "Title": "6498",
    "KatalogText": "Hildegardstraße",
    "PLZ": "55131",
    "Postort": "Mainz",
    "GemeindeID": "1365",
    "BundeslandID": "7"
  },
  {
    "Title": "6499",
    "KatalogText": "Himmelgasse",
    "PLZ": "55116",
    "Postort": "Mainz",
    "GemeindeID": "1365",
    "BundeslandID": "7"
  },
  {
    "Title": "6500",
    "KatalogText": "Hindenburgplatz",
    "PLZ": "55118",
    "Postort": "Mainz",
    "GemeindeID": "1365",
    "BundeslandID": "7"
  },
  {
    "Title": "6501",
    "KatalogText": "Hindenburgstraße",
    "PLZ": "55118",
    "Postort": "Mainz",
    "GemeindeID": "1365",
    "BundeslandID": "7"
  },
  {
    "Title": "6502",
    "KatalogText": "Hinkelsteinerstraße",
    "PLZ": "55128",
    "Postort": "Mainz",
    "GemeindeID": "1365",
    "BundeslandID": "7"
  },
  {
    "Title": "6503",
    "KatalogText": "Hinter der Kapelle",
    "PLZ": "55128",
    "Postort": "Mainz",
    "GemeindeID": "1365",
    "BundeslandID": "7"
  },
  {
    "Title": "6504",
    "KatalogText": "Hintere Bleiche",
    "PLZ": "55116",
    "Postort": "Mainz",
    "GemeindeID": "1365",
    "BundeslandID": "7"
  },
  {
    "Title": "6505",
    "KatalogText": "Hintere Christofsgasse",
    "PLZ": "55116",
    "Postort": "Mainz",
    "GemeindeID": "1365",
    "BundeslandID": "7"
  },
  {
    "Title": "6506",
    "KatalogText": "Hintere Flachsmarktstraße",
    "PLZ": "55116",
    "Postort": "Mainz",
    "GemeindeID": "1365",
    "BundeslandID": "7"
  },
  {
    "Title": "6507",
    "KatalogText": "Hintere Präsenzgasse",
    "PLZ": "55116",
    "Postort": "Mainz",
    "GemeindeID": "1365",
    "BundeslandID": "7"
  },
  {
    "Title": "6508",
    "KatalogText": "Hochgesandstraße",
    "PLZ": "55131",
    "Postort": "Mainz",
    "GemeindeID": "1365",
    "BundeslandID": "7"
  },
  {
    "Title": "6509",
    "KatalogText": "Hochstraße",
    "PLZ": "55128",
    "Postort": "Mainz",
    "GemeindeID": "1365",
    "BundeslandID": "7"
  },
  {
    "Title": "6510",
    "KatalogText": "Höfchen",
    "PLZ": "55116",
    "Postort": "Mainz",
    "GemeindeID": "1365",
    "BundeslandID": "7"
  },
  {
    "Title": "6511",
    "KatalogText": "Hölderlinstraße",
    "PLZ": "55131",
    "Postort": "Mainz",
    "GemeindeID": "1365",
    "BundeslandID": "7"
  },
  {
    "Title": "6512",
    "KatalogText": "Hohenstaufenstraße",
    "PLZ": "55118",
    "Postort": "Mainz",
    "GemeindeID": "1365",
    "BundeslandID": "7"
  },
  {
    "Title": "6513",
    "KatalogText": "Hohlstraße",
    "PLZ": "55130",
    "Postort": "Mainz",
    "GemeindeID": "1365",
    "BundeslandID": "7"
  },
  {
    "Title": "6514",
    "KatalogText": "Hollagäßchen",
    "PLZ": "55116",
    "Postort": "Mainz",
    "GemeindeID": "1365",
    "BundeslandID": "7"
  },
  {
    "Title": "6515",
    "KatalogText": "Holsteinstraße",
    "PLZ": "55118",
    "Postort": "Mainz",
    "GemeindeID": "1365",
    "BundeslandID": "7"
  },
  {
    "Title": "6516",
    "KatalogText": "Holthausenstraße",
    "PLZ": "55128",
    "Postort": "Mainz",
    "GemeindeID": "1365",
    "BundeslandID": "7"
  },
  {
    "Title": "6517",
    "KatalogText": "Holzhofstraße",
    "PLZ": "55116",
    "Postort": "Mainz",
    "GemeindeID": "1365",
    "BundeslandID": "7"
  },
  {
    "Title": "6518",
    "KatalogText": "Holzstraße",
    "PLZ": "55116",
    "Postort": "Mainz",
    "GemeindeID": "1365",
    "BundeslandID": "7"
  },
  {
    "Title": "6519",
    "KatalogText": "Hopfengarten",
    "PLZ": "55116",
    "Postort": "Mainz",
    "GemeindeID": "1365",
    "BundeslandID": "7"
  },
  {
    "Title": "6520",
    "KatalogText": "Hopfengartenstraße",
    "PLZ": "55130",
    "Postort": "Mainz",
    "GemeindeID": "1365",
    "BundeslandID": "7"
  },
  {
    "Title": "6521",
    "KatalogText": "Hügelgasse",
    "PLZ": "55120",
    "Postort": "Mainz",
    "GemeindeID": "1365",
    "BundeslandID": "7"
  },
  {
    "Title": "6522",
    "KatalogText": "Hugo-Eckener-Straße",
    "PLZ": "55122",
    "Postort": "Mainz",
    "GemeindeID": "1365",
    "BundeslandID": "7"
  },
  {
    "Title": "6523",
    "KatalogText": "Hultschiner Straße",
    "PLZ": "55131",
    "Postort": "Mainz",
    "GemeindeID": "1365",
    "BundeslandID": "7"
  },
  {
    "Title": "6524",
    "KatalogText": "Ignazgäßchen",
    "PLZ": "55116",
    "Postort": "Mainz",
    "GemeindeID": "1365",
    "BundeslandID": "7"
  },
  {
    "Title": "6525",
    "KatalogText": "Illstraße",
    "PLZ": "55118",
    "Postort": "Mainz",
    "GemeindeID": "1365",
    "BundeslandID": "7"
  },
  {
    "Title": "6526",
    "KatalogText": "Im Gewerbegebiet",
    "PLZ": "55120",
    "Postort": "Mainz",
    "GemeindeID": "1365",
    "BundeslandID": "7"
  },
  {
    "Title": "6527",
    "KatalogText": "Im Güterbahnhof",
    "PLZ": "55130",
    "Postort": "Mainz",
    "GemeindeID": "1365",
    "BundeslandID": "7"
  },
  {
    "Title": "6528",
    "KatalogText": "Im Leimen",
    "PLZ": "55130",
    "Postort": "Mainz",
    "GemeindeID": "1365",
    "BundeslandID": "7"
  },
  {
    "Title": "6529",
    "KatalogText": "Im Münchfeld",
    "PLZ": "55122",
    "Postort": "Mainz",
    "GemeindeID": "1365",
    "BundeslandID": "7"
  },
  {
    "Title": "6530",
    "KatalogText": "Immelmannstraße",
    "PLZ": "55124",
    "Postort": "Mainz",
    "GemeindeID": "1365",
    "BundeslandID": "7"
  },
  {
    "Title": "6531",
    "KatalogText": "In den Gärten",
    "PLZ": "55128",
    "Postort": "Mainz",
    "GemeindeID": "1365",
    "BundeslandID": "7"
  },
  {
    "Title": "6532",
    "KatalogText": "In der Anlage",
    "PLZ": "55120",
    "Postort": "Mainz",
    "GemeindeID": "1365",
    "BundeslandID": "7"
  },
  {
    "Title": "6533",
    "KatalogText": "In der Meielache",
    "PLZ": "55122",
    "Postort": "Mainz",
    "GemeindeID": "1365",
    "BundeslandID": "7"
  },
  {
    "Title": "6534",
    "KatalogText": "Industriestraße",
    "PLZ": "55120",
    "Postort": "Mainz",
    "GemeindeID": "1365",
    "BundeslandID": "7"
  },
  {
    "Title": "6535",
    "KatalogText": "Inselstraße",
    "PLZ": "55116",
    "Postort": "Mainz",
    "GemeindeID": "1365",
    "BundeslandID": "7"
  },
  {
    "Title": "6536",
    "KatalogText": "Jacob-Goedecker-Straße",
    "PLZ": "55122",
    "Postort": "Mainz",
    "GemeindeID": "1365",
    "BundeslandID": "7"
  },
  {
    "Title": "6537",
    "KatalogText": "Jägergasse",
    "PLZ": "55120",
    "Postort": "Mainz",
    "GemeindeID": "1365",
    "BundeslandID": "7"
  },
  {
    "Title": "6538",
    "KatalogText": "Jägerhofstraße",
    "PLZ": "55120",
    "Postort": "Mainz",
    "GemeindeID": "1365",
    "BundeslandID": "7"
  },
  {
    "Title": "6539",
    "KatalogText": "Jägerstraße",
    "PLZ": "55131",
    "Postort": "Mainz",
    "GemeindeID": "1365",
    "BundeslandID": "7"
  },
  {
    "Title": "6540",
    "KatalogText": "Jahnstraße",
    "PLZ": "55124",
    "Postort": "Mainz",
    "GemeindeID": "1365",
    "BundeslandID": "7"
  },
  {
    "Title": "6541",
    "KatalogText": "Jakob-Anstatt-Straße",
    "PLZ": "55130",
    "Postort": "Mainz",
    "GemeindeID": "1365",
    "BundeslandID": "7"
  },
  {
    "Title": "6542",
    "KatalogText": "Jakob-Dieterich-Straße",
    "PLZ": "55118",
    "Postort": "Mainz",
    "GemeindeID": "1365",
    "BundeslandID": "7"
  },
  {
    "Title": "6543",
    "KatalogText": "Jakob-Sieben-Straße",
    "PLZ": "55130",
    "Postort": "Mainz",
    "GemeindeID": "1365",
    "BundeslandID": "7"
  },
  {
    "Title": "6544",
    "KatalogText": "Jakob-Steffan-Straße",
    "PLZ": "55122",
    "Postort": "Mainz",
    "GemeindeID": "1365",
    "BundeslandID": "7"
  },
  {
    "Title": "6545",
    "KatalogText": "Jakob-Welder-Weg",
    "PLZ": "55128",
    "Postort": "Mainz",
    "GemeindeID": "1365",
    "BundeslandID": "7"
  },
  {
    "Title": "6546",
    "KatalogText": "Jakobsbergstraße",
    "PLZ": "55116",
    "Postort": "Mainz",
    "GemeindeID": "1365",
    "BundeslandID": "7"
  },
  {
    "Title": "6547",
    "KatalogText": "Joh.-Friedrich-v.-Pfeiffer-Weg",
    "PLZ": "55128",
    "Postort": "Mainz",
    "GemeindeID": "1365",
    "BundeslandID": "7"
  },
  {
    "Title": "6548",
    "KatalogText": "Johann-Joachim-Becher-Weg",
    "PLZ": "55128",
    "Postort": "Mainz",
    "GemeindeID": "1365",
    "BundeslandID": "7"
  },
  {
    "Title": "6549",
    "KatalogText": "Johannes-von-Müller-Weg",
    "PLZ": "55128",
    "Postort": "Mainz",
    "GemeindeID": "1365",
    "BundeslandID": "7"
  },
  {
    "Title": "6550",
    "KatalogText": "Johannisstraße",
    "PLZ": "55116",
    "Postort": "Mainz",
    "GemeindeID": "1365",
    "BundeslandID": "7"
  },
  {
    "Title": "6551",
    "KatalogText": "Josefsstraße",
    "PLZ": "55118",
    "Postort": "Mainz",
    "GemeindeID": "1365",
    "BundeslandID": "7"
  },
  {
    "Title": "6552",
    "KatalogText": "Jungenfelder Aue",
    "PLZ": "55130",
    "Postort": "Mainz",
    "GemeindeID": "1365",
    "BundeslandID": "7"
  },
  {
    "Title": "6553",
    "KatalogText": "Kästrich",
    "PLZ": "55116",
    "Postort": "Mainz",
    "GemeindeID": "1365",
    "BundeslandID": "7"
  },
  {
    "Title": "6554",
    "KatalogText": "Käthe-Kollwitz-Straße",
    "PLZ": "55128",
    "Postort": "Mainz",
    "GemeindeID": "1365",
    "BundeslandID": "7"
  },
  {
    "Title": "6555",
    "KatalogText": "Kaiser-Friedrich-Straße",
    "PLZ": "55116",
    "Postort": "Mainz",
    "GemeindeID": "1365",
    "BundeslandID": "7"
  },
  {
    "Title": "6556",
    "KatalogText": "Kaiser-Karl-Ring",
    "PLZ": "55118",
    "Postort": "Mainz",
    "GemeindeID": "1365",
    "BundeslandID": "7"
  },
  {
    "Title": "6557",
    "KatalogText": "Kaiser-Wilhelm-Ring",
    "PLZ": "55118",
    "Postort": "Mainz",
    "GemeindeID": "1365",
    "BundeslandID": "7"
  },
  {
    "Title": "6558",
    "KatalogText": "Kaiserstraße",
    "PLZ": "55116",
    "Postort": "Mainz",
    "GemeindeID": "1365",
    "BundeslandID": "7"
  },
  {
    "Title": "6559",
    "KatalogText": "Kannengasse",
    "PLZ": "55130",
    "Postort": "Mainz",
    "GemeindeID": "1365",
    "BundeslandID": "7"
  },
  {
    "Title": "6560",
    "KatalogText": "Kantstraße",
    "PLZ": "55122",
    "Postort": "Mainz",
    "GemeindeID": "1365",
    "BundeslandID": "7"
  },
  {
    "Title": "6561",
    "KatalogText": "Kapellenstraße",
    "PLZ": "55124",
    "Postort": "Mainz",
    "GemeindeID": "1365",
    "BundeslandID": "7"
  },
  {
    "Title": "6562",
    "KatalogText": "Kappelhof",
    "PLZ": "55116",
    "Postort": "Mainz",
    "GemeindeID": "1365",
    "BundeslandID": "7"
  },
  {
    "Title": "6563",
    "KatalogText": "Kappelhofgasse",
    "PLZ": "55116",
    "Postort": "Mainz",
    "GemeindeID": "1365",
    "BundeslandID": "7"
  },
  {
    "Title": "6564",
    "KatalogText": "Kapuzinerstraße",
    "PLZ": "55116",
    "Postort": "Mainz",
    "GemeindeID": "1365",
    "BundeslandID": "7"
  },
  {
    "Title": "6565",
    "KatalogText": "Karl-Trau-Straße",
    "PLZ": "55130",
    "Postort": "Mainz",
    "GemeindeID": "1365",
    "BundeslandID": "7"
  },
  {
    "Title": "6566",
    "KatalogText": "Karl-Weiser-Straße",
    "PLZ": "55131",
    "Postort": "Mainz",
    "GemeindeID": "1365",
    "BundeslandID": "7"
  },
  {
    "Title": "6567",
    "KatalogText": "Karl-Zörgiebel-Straße",
    "PLZ": "55128",
    "Postort": "Mainz",
    "GemeindeID": "1365",
    "BundeslandID": "7"
  },
  {
    "Title": "6568",
    "KatalogText": "Karlsstraße",
    "PLZ": "55120",
    "Postort": "Mainz",
    "GemeindeID": "1365",
    "BundeslandID": "7"
  },
  {
    "Title": "6569",
    "KatalogText": "Karmeliterplatz",
    "PLZ": "55116",
    "Postort": "Mainz",
    "GemeindeID": "1365",
    "BundeslandID": "7"
  },
  {
    "Title": "6570",
    "KatalogText": "Karmeliterstraße",
    "PLZ": "55116",
    "Postort": "Mainz",
    "GemeindeID": "1365",
    "BundeslandID": "7"
  },
  {
    "Title": "6571",
    "KatalogText": "Kartäuserstraße",
    "PLZ": "55116",
    "Postort": "Mainz",
    "GemeindeID": "1365",
    "BundeslandID": "7"
  },
  {
    "Title": "6572",
    "KatalogText": "Kartaus",
    "PLZ": "55131",
    "Postort": "Mainz",
    "GemeindeID": "1365",
    "BundeslandID": "7"
  },
  {
    "Title": "6573",
    "KatalogText": "Katharinenstraße",
    "PLZ": "55124",
    "Postort": "Mainz",
    "GemeindeID": "1365",
    "BundeslandID": "7"
  },
  {
    "Title": "6574",
    "KatalogText": "Kehlweg",
    "PLZ": "55124",
    "Postort": "Mainz",
    "GemeindeID": "1365",
    "BundeslandID": "7"
  },
  {
    "Title": "6575",
    "KatalogText": "Keilmannstraße",
    "PLZ": "55128",
    "Postort": "Mainz",
    "GemeindeID": "1365",
    "BundeslandID": "7"
  },
  {
    "Title": "6576",
    "KatalogText": "Keltenstraße",
    "PLZ": "55130",
    "Postort": "Mainz",
    "GemeindeID": "1365",
    "BundeslandID": "7"
  },
  {
    "Title": "6577",
    "KatalogText": "Kerschensteinerstraße",
    "PLZ": "55122",
    "Postort": "Mainz",
    "GemeindeID": "1365",
    "BundeslandID": "7"
  },
  {
    "Title": "6578",
    "KatalogText": "Kirsteinstraße",
    "PLZ": "55131",
    "Postort": "Mainz",
    "GemeindeID": "1365",
    "BundeslandID": "7"
  },
  {
    "Title": "6579",
    "KatalogText": "Kilianweg",
    "PLZ": "55131",
    "Postort": "Mainz",
    "GemeindeID": "1365",
    "BundeslandID": "7"
  },
  {
    "Title": "6580",
    "KatalogText": "Kirchgäßchen",
    "PLZ": "55124",
    "Postort": "Mainz",
    "GemeindeID": "1365",
    "BundeslandID": "7"
  },
  {
    "Title": "6581",
    "KatalogText": "Kirchstraße",
    "PLZ": "55124",
    "Postort": "Mainz",
    "GemeindeID": "1365",
    "BundeslandID": "7"
  },
  {
    "Title": "6582",
    "KatalogText": "Kirschgarten",
    "PLZ": "55116",
    "Postort": "Mainz",
    "GemeindeID": "1365",
    "BundeslandID": "7"
  },
  {
    "Title": "6583",
    "KatalogText": "Klarastraße",
    "PLZ": "55116",
    "Postort": "Mainz",
    "GemeindeID": "1365",
    "BundeslandID": "7"
  },
  {
    "Title": "6584",
    "KatalogText": "Ludwig-Nauth-Straße",
    "PLZ": "55128",
    "Postort": "Mainz",
    "GemeindeID": "1365",
    "BundeslandID": "7"
  },
  {
    "Title": "6585",
    "KatalogText": "Kleine Bogenstraße",
    "PLZ": "55120",
    "Postort": "Mainz",
    "GemeindeID": "1365",
    "BundeslandID": "7"
  },
  {
    "Title": "6586",
    "KatalogText": "Kleine Früchtstraße",
    "PLZ": "55130",
    "Postort": "Mainz",
    "GemeindeID": "1365",
    "BundeslandID": "7"
  },
  {
    "Title": "6587",
    "KatalogText": "Kleine Ingelheimstraße",
    "PLZ": "55120",
    "Postort": "Mainz",
    "GemeindeID": "1365",
    "BundeslandID": "7"
  },
  {
    "Title": "6588",
    "KatalogText": "Kleine Langgasse",
    "PLZ": "55116",
    "Postort": "Mainz",
    "GemeindeID": "1365",
    "BundeslandID": "7"
  },
  {
    "Title": "6589",
    "KatalogText": "Kleine Quintinsgasse",
    "PLZ": "55116",
    "Postort": "Mainz",
    "GemeindeID": "1365",
    "BundeslandID": "7"
  },
  {
    "Title": "6590",
    "KatalogText": "Kleine Schöfferstraße",
    "PLZ": "55116",
    "Postort": "Mainz",
    "GemeindeID": "1365",
    "BundeslandID": "7"
  },
  {
    "Title": "6591",
    "KatalogText": "Kleine Schönbergstraße",
    "PLZ": "55120",
    "Postort": "Mainz",
    "GemeindeID": "1365",
    "BundeslandID": "7"
  },
  {
    "Title": "6592",
    "KatalogText": "Sterngasse",
    "PLZ": "55130",
    "Postort": "Mainz",
    "GemeindeID": "1365",
    "BundeslandID": "7"
  },
  {
    "Title": "6593",
    "KatalogText": "Kleine Wassergasse",
    "PLZ": "55130",
    "Postort": "Mainz",
    "GemeindeID": "1365",
    "BundeslandID": "7"
  },
  {
    "Title": "6594",
    "KatalogText": "Kleine Weiherstraße",
    "PLZ": "55120",
    "Postort": "Mainz",
    "GemeindeID": "1365",
    "BundeslandID": "7"
  },
  {
    "Title": "6595",
    "KatalogText": "Kleine Weißgasse",
    "PLZ": "55116",
    "Postort": "Mainz",
    "GemeindeID": "1365",
    "BundeslandID": "7"
  },
  {
    "Title": "6596",
    "KatalogText": "Kleine Windmühlenstraße",
    "PLZ": "55131",
    "Postort": "Mainz",
    "GemeindeID": "1365",
    "BundeslandID": "7"
  },
  {
    "Title": "6597",
    "KatalogText": "Kleiner Landwehrweg",
    "PLZ": "55131",
    "Postort": "Mainz",
    "GemeindeID": "1365",
    "BundeslandID": "7"
  },
  {
    "Title": "6598",
    "KatalogText": "Kleiststraße",
    "PLZ": "55120",
    "Postort": "Mainz",
    "GemeindeID": "1365",
    "BundeslandID": "7"
  },
  {
    "Title": "6599",
    "KatalogText": "Klemensstraße",
    "PLZ": "55118",
    "Postort": "Mainz",
    "GemeindeID": "1365",
    "BundeslandID": "7"
  },
  {
    "Title": "6600",
    "KatalogText": "Klosterstraße",
    "PLZ": "55124",
    "Postort": "Mainz",
    "GemeindeID": "1365",
    "BundeslandID": "7"
  },
  {
    "Title": "6601",
    "KatalogText": "Königshütter Straße",
    "PLZ": "55131",
    "Postort": "Mainz",
    "GemeindeID": "1365",
    "BundeslandID": "7"
  },
  {
    "Title": "6602",
    "KatalogText": "Köppelstraße",
    "PLZ": "55120",
    "Postort": "Mainz",
    "GemeindeID": "1365",
    "BundeslandID": "7"
  },
  {
    "Title": "6603",
    "KatalogText": "Körnerstraße",
    "PLZ": "55120",
    "Postort": "Mainz",
    "GemeindeID": "1365",
    "BundeslandID": "7"
  },
  {
    "Title": "6604",
    "KatalogText": "Kötherhofstraße",
    "PLZ": "55116",
    "Postort": "Mainz",
    "GemeindeID": "1365",
    "BundeslandID": "7"
  },
  {
    "Title": "6605",
    "KatalogText": "Konrad-Kraus-Straße",
    "PLZ": "55124",
    "Postort": "Mainz",
    "GemeindeID": "1365",
    "BundeslandID": "7"
  },
  {
    "Title": "6606",
    "KatalogText": "Korbgäßchen",
    "PLZ": "55116",
    "Postort": "Mainz",
    "GemeindeID": "1365",
    "BundeslandID": "7"
  },
  {
    "Title": "6607",
    "KatalogText": "Korbgasse",
    "PLZ": "55116",
    "Postort": "Mainz",
    "GemeindeID": "1365",
    "BundeslandID": "7"
  },
  {
    "Title": "6608",
    "KatalogText": "Kraeplinweg",
    "PLZ": "55131",
    "Postort": "Mainz",
    "GemeindeID": "1365",
    "BundeslandID": "7"
  },
  {
    "Title": "6609",
    "KatalogText": "Kreuzschanze",
    "PLZ": "55131",
    "Postort": "Mainz",
    "GemeindeID": "1365",
    "BundeslandID": "7"
  },
  {
    "Title": "6610",
    "KatalogText": "Kreuzstraße",
    "PLZ": "55120",
    "Postort": "Mainz",
    "GemeindeID": "1365",
    "BundeslandID": "7"
  },
  {
    "Title": "6611",
    "KatalogText": "Kreyßigstraße",
    "PLZ": "55118",
    "Postort": "Mainz",
    "GemeindeID": "1365",
    "BundeslandID": "7"
  },
  {
    "Title": "6612",
    "KatalogText": "Külbstraße",
    "PLZ": "55131",
    "Postort": "Mainz",
    "GemeindeID": "1365",
    "BundeslandID": "7"
  },
  {
    "Title": "6613",
    "KatalogText": "Kupferbergterrasse",
    "PLZ": "55116",
    "Postort": "Mainz",
    "GemeindeID": "1365",
    "BundeslandID": "7"
  },
  {
    "Title": "6614",
    "KatalogText": "Kurfürstenstraße",
    "PLZ": "55118",
    "Postort": "Mainz",
    "GemeindeID": "1365",
    "BundeslandID": "7"
  },
  {
    "Title": "6615",
    "KatalogText": "Kurt-Schumacher-Straße",
    "PLZ": "55124",
    "Postort": "Mainz",
    "GemeindeID": "1365",
    "BundeslandID": "7"
  },
  {
    "Title": "6616",
    "KatalogText": "Lahnstraße",
    "PLZ": "55118",
    "Postort": "Mainz",
    "GemeindeID": "1365",
    "BundeslandID": "7"
  },
  {
    "Title": "6617",
    "KatalogText": "Landwehrweg",
    "PLZ": "55131",
    "Postort": "Mainz",
    "GemeindeID": "1365",
    "BundeslandID": "7"
  },
  {
    "Title": "6618",
    "KatalogText": "Langenbeckstraße",
    "PLZ": "55131",
    "Postort": "Mainz",
    "GemeindeID": "1365",
    "BundeslandID": "7"
  },
  {
    "Title": "6619",
    "KatalogText": "Langentalstraße",
    "PLZ": "55130",
    "Postort": "Mainz",
    "GemeindeID": "1365",
    "BundeslandID": "7"
  },
  {
    "Title": "6620",
    "KatalogText": "Langer Hunikelweg",
    "PLZ": "55118",
    "Postort": "Mainz",
    "GemeindeID": "1365",
    "BundeslandID": "7"
  },
  {
    "Title": "6621",
    "KatalogText": "Langgasse",
    "PLZ": "55130",
    "Postort": "Mainz",
    "GemeindeID": "1365",
    "BundeslandID": "7"
  },
  {
    "Title": "6622",
    "KatalogText": "Lanzelhohl",
    "PLZ": "55128",
    "Postort": "Mainz",
    "GemeindeID": "1365",
    "BundeslandID": "7"
  },
  {
    "Title": "6623",
    "KatalogText": "Laubenheimer Straße",
    "PLZ": "55130",
    "Postort": "Mainz",
    "GemeindeID": "1365",
    "BundeslandID": "7"
  },
  {
    "Title": "6624",
    "KatalogText": "Lauterenstraße",
    "PLZ": "55116",
    "Postort": "Mainz",
    "GemeindeID": "1365",
    "BundeslandID": "7"
  },
  {
    "Title": "6625",
    "KatalogText": "Leibnizstraße",
    "PLZ": "55118",
    "Postort": "Mainz",
    "GemeindeID": "1365",
    "BundeslandID": "7"
  },
  {
    "Title": "6626",
    "KatalogText": "Leichhof",
    "PLZ": "55116",
    "Postort": "Mainz",
    "GemeindeID": "1365",
    "BundeslandID": "7"
  },
  {
    "Title": "6627",
    "KatalogText": "Leichhofstraße",
    "PLZ": "55116",
    "Postort": "Mainz",
    "GemeindeID": "1365",
    "BundeslandID": "7"
  },
  {
    "Title": "6628",
    "KatalogText": "Lengesstraße",
    "PLZ": "55120",
    "Postort": "Mainz",
    "GemeindeID": "1365",
    "BundeslandID": "7"
  },
  {
    "Title": "6629",
    "KatalogText": "Lennebergplatz",
    "PLZ": "55124",
    "Postort": "Mainz",
    "GemeindeID": "1365",
    "BundeslandID": "7"
  },
  {
    "Title": "6630",
    "KatalogText": "Lennebergstraße",
    "PLZ": "55124",
    "Postort": "Mainz",
    "GemeindeID": "1365",
    "BundeslandID": "7"
  },
  {
    "Title": "6631",
    "KatalogText": "Lennigstraße",
    "PLZ": "55118",
    "Postort": "Mainz",
    "GemeindeID": "1365",
    "BundeslandID": "7"
  },
  {
    "Title": "6632",
    "KatalogText": "Lessingplatz",
    "PLZ": "55118",
    "Postort": "Mainz",
    "GemeindeID": "1365",
    "BundeslandID": "7"
  },
  {
    "Title": "6633",
    "KatalogText": "Lessingstraße",
    "PLZ": "55118",
    "Postort": "Mainz",
    "GemeindeID": "1365",
    "BundeslandID": "7"
  },
  {
    "Title": "6634",
    "KatalogText": "Liebfrauenplatz",
    "PLZ": "55116",
    "Postort": "Mainz",
    "GemeindeID": "1365",
    "BundeslandID": "7"
  },
  {
    "Title": "6635",
    "KatalogText": "Liebfrauenstraße",
    "PLZ": "55116",
    "Postort": "Mainz",
    "GemeindeID": "1365",
    "BundeslandID": "7"
  },
  {
    "Title": "6636",
    "KatalogText": "Liebigstraße",
    "PLZ": "55120",
    "Postort": "Mainz",
    "GemeindeID": "1365",
    "BundeslandID": "7"
  },
  {
    "Title": "6637",
    "KatalogText": "Lilienthalstraße",
    "PLZ": "55131",
    "Postort": "Mainz",
    "GemeindeID": "1365",
    "BundeslandID": "7"
  },
  {
    "Title": "6638",
    "KatalogText": "Lindengasse",
    "PLZ": "55120",
    "Postort": "Mainz",
    "GemeindeID": "1365",
    "BundeslandID": "7"
  },
  {
    "Title": "6639",
    "KatalogText": "Lindenschmitstraße",
    "PLZ": "55131",
    "Postort": "Mainz",
    "GemeindeID": "1365",
    "BundeslandID": "7"
  },
  {
    "Title": "6640",
    "KatalogText": "Lindenstraße",
    "PLZ": "55130",
    "Postort": "Mainz",
    "GemeindeID": "1365",
    "BundeslandID": "7"
  },
  {
    "Title": "6641",
    "KatalogText": "Löhrstraße",
    "PLZ": "55116",
    "Postort": "Mainz",
    "GemeindeID": "1365",
    "BundeslandID": "7"
  },
  {
    "Title": "6642",
    "KatalogText": "Löwenhofstraße",
    "PLZ": "55116",
    "Postort": "Mainz",
    "GemeindeID": "1365",
    "BundeslandID": "7"
  },
  {
    "Title": "6643",
    "KatalogText": "Lorenz-Diehl-Straße",
    "PLZ": "55131",
    "Postort": "Mainz",
    "GemeindeID": "1365",
    "BundeslandID": "7"
  },
  {
    "Title": "6644",
    "KatalogText": "Lotharpassage",
    "PLZ": "55116",
    "Postort": "Mainz",
    "GemeindeID": "1365",
    "BundeslandID": "7"
  },
  {
    "Title": "6645",
    "KatalogText": "Lotharstraße",
    "PLZ": "55116",
    "Postort": "Mainz",
    "GemeindeID": "1365",
    "BundeslandID": "7"
  },
  {
    "Title": "6646",
    "KatalogText": "Lothary Aue",
    "PLZ": "55130",
    "Postort": "Mainz",
    "GemeindeID": "1365",
    "BundeslandID": "7"
  },
  {
    "Title": "6647",
    "KatalogText": "Ludwig-Bamberger-Straße",
    "PLZ": "55131",
    "Postort": "Mainz",
    "GemeindeID": "1365",
    "BundeslandID": "7"
  },
  {
    "Title": "6648",
    "KatalogText": "Ludwig-Richter-Straße",
    "PLZ": "55128",
    "Postort": "Mainz",
    "GemeindeID": "1365",
    "BundeslandID": "7"
  },
  {
    "Title": "6649",
    "KatalogText": "Carl-Goerdeler-Straße",
    "PLZ": "55122",
    "Postort": "Mainz",
    "GemeindeID": "1365",
    "BundeslandID": "7"
  },
  {
    "Title": "6650",
    "KatalogText": "Ludwigsburger Straße",
    "PLZ": "55122",
    "Postort": "Mainz",
    "GemeindeID": "1365",
    "BundeslandID": "7"
  },
  {
    "Title": "6651",
    "KatalogText": "Ludwigsstraße",
    "PLZ": "55116",
    "Postort": "Mainz",
    "GemeindeID": "1365",
    "BundeslandID": "7"
  },
  {
    "Title": "6652",
    "KatalogText": "Luisenstraße",
    "PLZ": "55124",
    "Postort": "Mainz",
    "GemeindeID": "1365",
    "BundeslandID": "7"
  },
  {
    "Title": "6653",
    "KatalogText": "Mailandsgasse",
    "PLZ": "55116",
    "Postort": "Mainz",
    "GemeindeID": "1365",
    "BundeslandID": "7"
  },
  {
    "Title": "6654",
    "KatalogText": "Mainstraße",
    "PLZ": "55118",
    "Postort": "Mainz",
    "GemeindeID": "1365",
    "BundeslandID": "7"
  },
  {
    "Title": "6655",
    "KatalogText": "Mainzer Straße",
    "PLZ": "55124",
    "Postort": "Mainz",
    "GemeindeID": "1365",
    "BundeslandID": "7"
  },
  {
    "Title": "6656",
    "KatalogText": "Maler-Becker-Straße",
    "PLZ": "55124",
    "Postort": "Mainz",
    "GemeindeID": "1365",
    "BundeslandID": "7"
  },
  {
    "Title": "6657",
    "KatalogText": "Maletenstraße",
    "PLZ": "55120",
    "Postort": "Mainz",
    "GemeindeID": "1365",
    "BundeslandID": "7"
  },
  {
    "Title": "6658",
    "KatalogText": "Manfred-v.-Richthofen-Str.",
    "PLZ": "55124",
    "Postort": "Mainz",
    "GemeindeID": "1365",
    "BundeslandID": "7"
  },
  {
    "Title": "6659",
    "KatalogText": "Margaretengasse",
    "PLZ": "55116",
    "Postort": "Mainz",
    "GemeindeID": "1365",
    "BundeslandID": "7"
  },
  {
    "Title": "6660",
    "KatalogText": "Marie-Juchacz-Straße",
    "PLZ": "55128",
    "Postort": "Mainz",
    "GemeindeID": "1365",
    "BundeslandID": "7"
  },
  {
    "Title": "6661",
    "KatalogText": "Marienborner Straße",
    "PLZ": "55128",
    "Postort": "Mainz",
    "GemeindeID": "1365",
    "BundeslandID": "7"
  },
  {
    "Title": "6662",
    "KatalogText": "Mariengäßchen",
    "PLZ": "55128",
    "Postort": "Mainz",
    "GemeindeID": "1365",
    "BundeslandID": "7"
  },
  {
    "Title": "6663",
    "KatalogText": "Marienstraße",
    "PLZ": "55124",
    "Postort": "Mainz",
    "GemeindeID": "1365",
    "BundeslandID": "7"
  },
  {
    "Title": "6664",
    "KatalogText": "Markt",
    "PLZ": "55116",
    "Postort": "Mainz",
    "GemeindeID": "1365",
    "BundeslandID": "7"
  },
  {
    "Title": "6665",
    "KatalogText": "Marseillestraße",
    "PLZ": "55122",
    "Postort": "Mainz",
    "GemeindeID": "1365",
    "BundeslandID": "7"
  },
  {
    "Title": "6666",
    "KatalogText": "Martin-Kirchner-Straße",
    "PLZ": "55128",
    "Postort": "Mainz",
    "GemeindeID": "1365",
    "BundeslandID": "7"
  },
  {
    "Title": "6667",
    "KatalogText": "Martin-Luther-Straße",
    "PLZ": "55131",
    "Postort": "Mainz",
    "GemeindeID": "1365",
    "BundeslandID": "7"
  },
  {
    "Title": "6668",
    "KatalogText": "Martinsstraße",
    "PLZ": "55116",
    "Postort": "Mainz",
    "GemeindeID": "1365",
    "BundeslandID": "7"
  },
  {
    "Title": "6669",
    "KatalogText": "Mathildenstraße",
    "PLZ": "55116",
    "Postort": "Mainz",
    "GemeindeID": "1365",
    "BundeslandID": "7"
  },
  {
    "Title": "6670",
    "KatalogText": "Mauritzenplatz",
    "PLZ": "55116",
    "Postort": "Mainz",
    "GemeindeID": "1365",
    "BundeslandID": "7"
  },
  {
    "Title": "6671",
    "KatalogText": "Max-Hufschmidt-Straße",
    "PLZ": "55130",
    "Postort": "Mainz",
    "GemeindeID": "1365",
    "BundeslandID": "7"
  },
  {
    "Title": "6672",
    "KatalogText": "Max-Planck-Straße",
    "PLZ": "55124",
    "Postort": "Mainz",
    "GemeindeID": "1365",
    "BundeslandID": "7"
  },
  {
    "Title": "6673",
    "KatalogText": "Meixlerstraße",
    "PLZ": "55120",
    "Postort": "Mainz",
    "GemeindeID": "1365",
    "BundeslandID": "7"
  },
  {
    "Title": "6674",
    "KatalogText": "Milchpfad",
    "PLZ": "55128",
    "Postort": "Mainz",
    "GemeindeID": "1365",
    "BundeslandID": "7"
  },
  {
    "Title": "6675",
    "KatalogText": "Mittelgasse",
    "PLZ": "55130",
    "Postort": "Mainz",
    "GemeindeID": "1365",
    "BundeslandID": "7"
  },
  {
    "Title": "6676",
    "KatalogText": "Schmiedegasse",
    "PLZ": "55124",
    "Postort": "Mainz",
    "GemeindeID": "1365",
    "BundeslandID": "7"
  },
  {
    "Title": "6677",
    "KatalogText": "Mitternacht",
    "PLZ": "55116",
    "Postort": "Mainz",
    "GemeindeID": "1365",
    "BundeslandID": "7"
  },
  {
    "Title": "6678",
    "KatalogText": "Mitternachtsgasse",
    "PLZ": "55116",
    "Postort": "Mainz",
    "GemeindeID": "1365",
    "BundeslandID": "7"
  },
  {
    "Title": "6679",
    "KatalogText": "Mittlere Bleiche",
    "PLZ": "55116",
    "Postort": "Mainz",
    "GemeindeID": "1365",
    "BundeslandID": "7"
  },
  {
    "Title": "6680",
    "KatalogText": "Möldersstraße",
    "PLZ": "55122",
    "Postort": "Mainz",
    "GemeindeID": "1365",
    "BundeslandID": "7"
  },
  {
    "Title": "6681",
    "KatalogText": "Mönchgasse",
    "PLZ": "55120",
    "Postort": "Mainz",
    "GemeindeID": "1365",
    "BundeslandID": "7"
  },
  {
    "Title": "6682",
    "KatalogText": "Mönchstraße",
    "PLZ": "55130",
    "Postort": "Mainz",
    "GemeindeID": "1365",
    "BundeslandID": "7"
  },
  {
    "Title": "6683",
    "KatalogText": "Mörikestraße",
    "PLZ": "55122",
    "Postort": "Mainz",
    "GemeindeID": "1365",
    "BundeslandID": "7"
  },
  {
    "Title": "6684",
    "KatalogText": "Mohrgasse",
    "PLZ": "55120",
    "Postort": "Mainz",
    "GemeindeID": "1365",
    "BundeslandID": "7"
  },
  {
    "Title": "6685",
    "KatalogText": "Moltkestraße",
    "PLZ": "55118",
    "Postort": "Mainz",
    "GemeindeID": "1365",
    "BundeslandID": "7"
  },
  {
    "Title": "6686",
    "KatalogText": "Mombacher Straße",
    "PLZ": "55122",
    "Postort": "Mainz",
    "GemeindeID": "1365",
    "BundeslandID": "7"
  },
  {
    "Title": "6687",
    "KatalogText": "Mombacher Tor",
    "PLZ": "55122",
    "Postort": "Mainz",
    "GemeindeID": "1365",
    "BundeslandID": "7"
  },
  {
    "Title": "6688",
    "KatalogText": "Moritzstraße",
    "PLZ": "55130",
    "Postort": "Mainz",
    "GemeindeID": "1365",
    "BundeslandID": "7"
  },
  {
    "Title": "6689",
    "KatalogText": "Moselstraße",
    "PLZ": "55118",
    "Postort": "Mainz",
    "GemeindeID": "1365",
    "BundeslandID": "7"
  },
  {
    "Title": "6690",
    "KatalogText": "Mozartstraße",
    "PLZ": "55118",
    "Postort": "Mainz",
    "GemeindeID": "1365",
    "BundeslandID": "7"
  },
  {
    "Title": "6691",
    "KatalogText": "Mühlenstraße",
    "PLZ": "55120",
    "Postort": "Mainz",
    "GemeindeID": "1365",
    "BundeslandID": "7"
  },
  {
    "Title": "6692",
    "KatalogText": "Mühlweg",
    "PLZ": "55128",
    "Postort": "Mainz",
    "GemeindeID": "1365",
    "BundeslandID": "7"
  },
  {
    "Title": "6693",
    "KatalogText": "Münsterplatz",
    "PLZ": "55116",
    "Postort": "Mainz",
    "GemeindeID": "1365",
    "BundeslandID": "7"
  },
  {
    "Title": "6694",
    "KatalogText": "Münsterstraße",
    "PLZ": "55116",
    "Postort": "Mainz",
    "GemeindeID": "1365",
    "BundeslandID": "7"
  },
  {
    "Title": "6695",
    "KatalogText": "Nachtigallenweg",
    "PLZ": "55124",
    "Postort": "Mainz",
    "GemeindeID": "1365",
    "BundeslandID": "7"
  },
  {
    "Title": "6696",
    "KatalogText": "Nackstraße",
    "PLZ": "55118",
    "Postort": "Mainz",
    "GemeindeID": "1365",
    "BundeslandID": "7"
  },
  {
    "Title": "6697",
    "KatalogText": "Nahestraße",
    "PLZ": "55118",
    "Postort": "Mainz",
    "GemeindeID": "1365",
    "BundeslandID": "7"
  },
  {
    "Title": "6698",
    "KatalogText": "Nasengäßchen",
    "PLZ": "55116",
    "Postort": "Mainz",
    "GemeindeID": "1365",
    "BundeslandID": "7"
  },
  {
    "Title": "6699",
    "KatalogText": "Naunynweg",
    "PLZ": "55131",
    "Postort": "Mainz",
    "GemeindeID": "1365",
    "BundeslandID": "7"
  },
  {
    "Title": "6700",
    "KatalogText": "Neckarstraße",
    "PLZ": "55118",
    "Postort": "Mainz",
    "GemeindeID": "1365",
    "BundeslandID": "7"
  },
  {
    "Title": "6701",
    "KatalogText": "Neideckerstraße",
    "PLZ": "55130",
    "Postort": "Mainz",
    "GemeindeID": "1365",
    "BundeslandID": "7"
  },
  {
    "Title": "6702",
    "KatalogText": "Neißestraße",
    "PLZ": "55131",
    "Postort": "Mainz",
    "GemeindeID": "1365",
    "BundeslandID": "7"
  },
  {
    "Title": "6703",
    "KatalogText": "Nerobergstraße",
    "PLZ": "55120",
    "Postort": "Mainz",
    "GemeindeID": "1365",
    "BundeslandID": "7"
  },
  {
    "Title": "6704",
    "KatalogText": "Nerotalstraße",
    "PLZ": "55124",
    "Postort": "Mainz",
    "GemeindeID": "1365",
    "BundeslandID": "7"
  },
  {
    "Title": "6705",
    "KatalogText": "Nestlestraße",
    "PLZ": "55120",
    "Postort": "Mainz",
    "GemeindeID": "1365",
    "BundeslandID": "7"
  },
  {
    "Title": "6706",
    "KatalogText": "Neubrunnenplatz",
    "PLZ": "55116",
    "Postort": "Mainz",
    "GemeindeID": "1365",
    "BundeslandID": "7"
  },
  {
    "Title": "6707",
    "KatalogText": "Neubrunnenstraße",
    "PLZ": "55116",
    "Postort": "Mainz",
    "GemeindeID": "1365",
    "BundeslandID": "7"
  },
  {
    "Title": "6708",
    "KatalogText": "Neue Universitätsstraße",
    "PLZ": "55116",
    "Postort": "Mainz",
    "GemeindeID": "1365",
    "BundeslandID": "7"
  },
  {
    "Title": "6709",
    "KatalogText": "Neumannstraße",
    "PLZ": "55131",
    "Postort": "Mainz",
    "GemeindeID": "1365",
    "BundeslandID": "7"
  },
  {
    "Title": "6710",
    "KatalogText": "Neutorstraße",
    "PLZ": "55116",
    "Postort": "Mainz",
    "GemeindeID": "1365",
    "BundeslandID": "7"
  },
  {
    "Title": "6711",
    "KatalogText": "Niklas-Vogt-Straße",
    "PLZ": "55131",
    "Postort": "Mainz",
    "GemeindeID": "1365",
    "BundeslandID": "7"
  },
  {
    "Title": "6712",
    "KatalogText": "Nikolaus-Becker-Straße",
    "PLZ": "55131",
    "Postort": "Mainz",
    "GemeindeID": "1365",
    "BundeslandID": "7"
  },
  {
    "Title": "6713",
    "KatalogText": "Nikolausstraße",
    "PLZ": "55120",
    "Postort": "Mainz",
    "GemeindeID": "1365",
    "BundeslandID": "7"
  },
  {
    "Title": "6714",
    "KatalogText": "Nordstraße",
    "PLZ": "55131",
    "Postort": "Mainz",
    "GemeindeID": "1365",
    "BundeslandID": "7"
  },
  {
    "Title": "6715",
    "KatalogText": "An der Oberbrücke",
    "PLZ": "55124",
    "Postort": "Mainz",
    "GemeindeID": "1365",
    "BundeslandID": "7"
  },
  {
    "Title": "6716",
    "KatalogText": "Obere Austraße",
    "PLZ": "55120",
    "Postort": "Mainz",
    "GemeindeID": "1365",
    "BundeslandID": "7"
  },
  {
    "Title": "6717",
    "KatalogText": "Obere Bogenstraße",
    "PLZ": "55120",
    "Postort": "Mainz",
    "GemeindeID": "1365",
    "BundeslandID": "7"
  },
  {
    "Title": "6718",
    "KatalogText": "Obere Zahlbacher Straße",
    "PLZ": "55131",
    "Postort": "Mainz",
    "GemeindeID": "1365",
    "BundeslandID": "7"
  },
  {
    "Title": "6719",
    "KatalogText": "Oberer Laubenheimer Weg",
    "PLZ": "55131",
    "Postort": "Mainz",
    "GemeindeID": "1365",
    "BundeslandID": "7"
  },
  {
    "Title": "6720",
    "KatalogText": "Oberer Mühlrech",
    "PLZ": "55128",
    "Postort": "Mainz",
    "GemeindeID": "1365",
    "BundeslandID": "7"
  },
  {
    "Title": "6721",
    "KatalogText": "Oderstraße",
    "PLZ": "55131",
    "Postort": "Mainz",
    "GemeindeID": "1365",
    "BundeslandID": "7"
  },
  {
    "Title": "6722",
    "KatalogText": "Oechsnerstraße",
    "PLZ": "55131",
    "Postort": "Mainz",
    "GemeindeID": "1365",
    "BundeslandID": "7"
  },
  {
    "Title": "6723",
    "KatalogText": "Ölwiesenstraße",
    "PLZ": "55124",
    "Postort": "Mainz",
    "GemeindeID": "1365",
    "BundeslandID": "7"
  },
  {
    "Title": "6724",
    "KatalogText": "Olmer Gäßchen",
    "PLZ": "55128",
    "Postort": "Mainz",
    "GemeindeID": "1365",
    "BundeslandID": "7"
  },
  {
    "Title": "6725",
    "KatalogText": "Oppelner Straße",
    "PLZ": "55131",
    "Postort": "Mainz",
    "GemeindeID": "1365",
    "BundeslandID": "7"
  },
  {
    "Title": "6726",
    "KatalogText": "Oranienstraße",
    "PLZ": "55124",
    "Postort": "Mainz",
    "GemeindeID": "1365",
    "BundeslandID": "7"
  },
  {
    "Title": "6727",
    "KatalogText": "Osteinstraße",
    "PLZ": "55118",
    "Postort": "Mainz",
    "GemeindeID": "1365",
    "BundeslandID": "7"
  },
  {
    "Title": "6728",
    "KatalogText": "Ottiliengasse",
    "PLZ": "55116",
    "Postort": "Mainz",
    "GemeindeID": "1365",
    "BundeslandID": "7"
  },
  {
    "Title": "6729",
    "KatalogText": "Otto-Wels-Straße",
    "PLZ": "55130",
    "Postort": "Mainz",
    "GemeindeID": "1365",
    "BundeslandID": "7"
  },
  {
    "Title": "6730",
    "KatalogText": "Palmenstraße",
    "PLZ": "55124",
    "Postort": "Mainz",
    "GemeindeID": "1365",
    "BundeslandID": "7"
  },
  {
    "Title": "6731",
    "KatalogText": "Pankratiusstraße",
    "PLZ": "55118",
    "Postort": "Mainz",
    "GemeindeID": "1365",
    "BundeslandID": "7"
  },
  {
    "Title": "6732",
    "KatalogText": "Pappelstraße",
    "PLZ": "55120",
    "Postort": "Mainz",
    "GemeindeID": "1365",
    "BundeslandID": "7"
  },
  {
    "Title": "6733",
    "KatalogText": "Parcusstraße",
    "PLZ": "55116",
    "Postort": "Mainz",
    "GemeindeID": "1365",
    "BundeslandID": "7"
  },
  {
    "Title": "6734",
    "KatalogText": "Pariser Landstraße",
    "PLZ": "55131",
    "Postort": "Mainz",
    "GemeindeID": "1365",
    "BundeslandID": "7"
  },
  {
    "Title": "6735",
    "KatalogText": "Pariser Straße",
    "PLZ": "55131",
    "Postort": "Mainz",
    "GemeindeID": "1365",
    "BundeslandID": "7"
  },
  {
    "Title": "6736",
    "KatalogText": "Parsevalstraße",
    "PLZ": "55122",
    "Postort": "Mainz",
    "GemeindeID": "1365",
    "BundeslandID": "7"
  },
  {
    "Title": "6737",
    "KatalogText": "Paul-Denis-Straße",
    "PLZ": "55122",
    "Postort": "Mainz",
    "GemeindeID": "1365",
    "BundeslandID": "7"
  },
  {
    "Title": "6738",
    "KatalogText": "Paul-Ehrlich-Weg",
    "PLZ": "55131",
    "Postort": "Mainz",
    "GemeindeID": "1365",
    "BundeslandID": "7"
  },
  {
    "Title": "6739",
    "KatalogText": "Paul-Gerhardt-Weg",
    "PLZ": "55130",
    "Postort": "Mainz",
    "GemeindeID": "1365",
    "BundeslandID": "7"
  },
  {
    "Title": "6740",
    "KatalogText": "Pestalozziplatz",
    "PLZ": "55120",
    "Postort": "Mainz",
    "GemeindeID": "1365",
    "BundeslandID": "7"
  },
  {
    "Title": "6741",
    "KatalogText": "Pestalozzistraße",
    "PLZ": "55120",
    "Postort": "Mainz",
    "GemeindeID": "1365",
    "BundeslandID": "7"
  },
  {
    "Title": "6742",
    "KatalogText": "Peter-Cornelius-Platz",
    "PLZ": "55118",
    "Postort": "Mainz",
    "GemeindeID": "1365",
    "BundeslandID": "7"
  },
  {
    "Title": "6743",
    "KatalogText": "Petersstraße",
    "PLZ": "55116",
    "Postort": "Mainz",
    "GemeindeID": "1365",
    "BundeslandID": "7"
  },
  {
    "Title": "6744",
    "KatalogText": "Pettenkoferweg",
    "PLZ": "55131",
    "Postort": "Mainz",
    "GemeindeID": "1365",
    "BundeslandID": "7"
  },
  {
    "Title": "6745",
    "KatalogText": "Pfaffengasse",
    "PLZ": "55116",
    "Postort": "Mainz",
    "GemeindeID": "1365",
    "BundeslandID": "7"
  },
  {
    "Title": "6746",
    "KatalogText": "Pfandhausstraße",
    "PLZ": "55116",
    "Postort": "Mainz",
    "GemeindeID": "1365",
    "BundeslandID": "7"
  },
  {
    "Title": "6747",
    "KatalogText": "Pfarrer-Bechtolsheimer-Weg",
    "PLZ": "55120",
    "Postort": "Mainz",
    "GemeindeID": "1365",
    "BundeslandID": "7"
  },
  {
    "Title": "6748",
    "KatalogText": "Pfarrer-Grimm-Straße",
    "PLZ": "55124",
    "Postort": "Mainz",
    "GemeindeID": "1365",
    "BundeslandID": "7"
  },
  {
    "Title": "6749",
    "KatalogText": "Pfarrer-Stockheimer-Straße",
    "PLZ": "55128",
    "Postort": "Mainz",
    "GemeindeID": "1365",
    "BundeslandID": "7"
  },
  {
    "Title": "6750",
    "KatalogText": "Pfarrer-Veller-Straße",
    "PLZ": "55128",
    "Postort": "Mainz",
    "GemeindeID": "1365",
    "BundeslandID": "7"
  },
  {
    "Title": "6751",
    "KatalogText": "Pfarrstraße",
    "PLZ": "55124",
    "Postort": "Mainz",
    "GemeindeID": "1365",
    "BundeslandID": "7"
  },
  {
    "Title": "6752",
    "KatalogText": "Plesser Straße",
    "PLZ": "55131",
    "Postort": "Mainz",
    "GemeindeID": "1365",
    "BundeslandID": "7"
  },
  {
    "Title": "6753",
    "KatalogText": "Poppelreuterstraße",
    "PLZ": "55131",
    "Postort": "Mainz",
    "GemeindeID": "1365",
    "BundeslandID": "7"
  },
  {
    "Title": "6754",
    "KatalogText": "Portlandstraße",
    "PLZ": "55130",
    "Postort": "Mainz",
    "GemeindeID": "1365",
    "BundeslandID": "7"
  },
  {
    "Title": "6755",
    "KatalogText": "Probststraße",
    "PLZ": "55128",
    "Postort": "Mainz",
    "GemeindeID": "1365",
    "BundeslandID": "7"
  },
  {
    "Title": "6756",
    "KatalogText": "Quellwiesstraße",
    "PLZ": "55120",
    "Postort": "Mainz",
    "GemeindeID": "1365",
    "BundeslandID": "7"
  },
  {
    "Title": "6757",
    "KatalogText": "Quintinsstraße",
    "PLZ": "55116",
    "Postort": "Mainz",
    "GemeindeID": "1365",
    "BundeslandID": "7"
  },
  {
    "Title": "6758",
    "KatalogText": "Radweg",
    "PLZ": "55130",
    "Postort": "Mainz",
    "GemeindeID": "1365",
    "BundeslandID": "7"
  },
  {
    "Title": "6759",
    "KatalogText": "Raiffeisenstraße",
    "PLZ": "55124",
    "Postort": "Mainz",
    "GemeindeID": "1365",
    "BundeslandID": "7"
  },
  {
    "Title": "6760",
    "KatalogText": "Raimundistraße",
    "PLZ": "55118",
    "Postort": "Mainz",
    "GemeindeID": "1365",
    "BundeslandID": "7"
  },
  {
    "Title": "6761",
    "KatalogText": "Rathausstraße",
    "PLZ": "55128",
    "Postort": "Mainz",
    "GemeindeID": "1365",
    "BundeslandID": "7"
  },
  {
    "Title": "6762",
    "KatalogText": "Rathenaustraße",
    "PLZ": "55131",
    "Postort": "Mainz",
    "GemeindeID": "1365",
    "BundeslandID": "7"
  },
  {
    "Title": "6763",
    "KatalogText": "Raupelsweg",
    "PLZ": "55118",
    "Postort": "Mainz",
    "GemeindeID": "1365",
    "BundeslandID": "7"
  },
  {
    "Title": "6764",
    "KatalogText": "Reichklarastraße",
    "PLZ": "55116",
    "Postort": "Mainz",
    "GemeindeID": "1365",
    "BundeslandID": "7"
  },
  {
    "Title": "6765",
    "KatalogText": "Reinhold-Schneider-Straße",
    "PLZ": "55124",
    "Postort": "Mainz",
    "GemeindeID": "1365",
    "BundeslandID": "7"
  },
  {
    "Title": "6766",
    "KatalogText": "Rektor-Plum-Weg",
    "PLZ": "55122",
    "Postort": "Mainz",
    "GemeindeID": "1365",
    "BundeslandID": "7"
  },
  {
    "Title": "6767",
    "KatalogText": "Rentengasse",
    "PLZ": "55116",
    "Postort": "Mainz",
    "GemeindeID": "1365",
    "BundeslandID": "7"
  },
  {
    "Title": "6768",
    "KatalogText": "Rhabanusstraße",
    "PLZ": "55118",
    "Postort": "Mainz",
    "GemeindeID": "1365",
    "BundeslandID": "7"
  },
  {
    "Title": "6769",
    "KatalogText": "Rheinallee",
    "PLZ": "99999",
    "Postort": "Mainz",
    "GemeindeID": "1365",
    "BundeslandID": "7"
  },
  {
    "Title": "6770",
    "KatalogText": "Rheingauer Straße",
    "PLZ": "55122",
    "Postort": "Mainz",
    "GemeindeID": "1365",
    "BundeslandID": "7"
  },
  {
    "Title": "6771",
    "KatalogText": "Rheingauwall",
    "PLZ": "55122",
    "Postort": "Mainz",
    "GemeindeID": "1365",
    "BundeslandID": "7"
  },
  {
    "Title": "6772",
    "KatalogText": "Rheinstraße",
    "PLZ": "55116",
    "Postort": "Mainz",
    "GemeindeID": "1365",
    "BundeslandID": "7"
  },
  {
    "Title": "6773",
    "KatalogText": "Rheinufer Mainz",
    "PLZ": "55131",
    "Postort": "Mainz",
    "GemeindeID": "1365",
    "BundeslandID": "7"
  },
  {
    "Title": "6774",
    "KatalogText": "Rheinufer Weisenau",
    "PLZ": "55130",
    "Postort": "Mainz",
    "GemeindeID": "1365",
    "BundeslandID": "7"
  },
  {
    "Title": "6775",
    "KatalogText": "Ricarda-Huch-Straße",
    "PLZ": "55122",
    "Postort": "Mainz",
    "GemeindeID": "1365",
    "BundeslandID": "7"
  },
  {
    "Title": "6776",
    "KatalogText": "Richard-Wagner-Straße",
    "PLZ": "55118",
    "Postort": "Mainz",
    "GemeindeID": "1365",
    "BundeslandID": "7"
  },
  {
    "Title": "6777",
    "KatalogText": "Ritterstraße",
    "PLZ": "55131",
    "Postort": "Mainz",
    "GemeindeID": "1365",
    "BundeslandID": "7"
  },
  {
    "Title": "6778",
    "KatalogText": "Rochusstraße",
    "PLZ": "55116",
    "Postort": "Mainz",
    "GemeindeID": "1365",
    "BundeslandID": "7"
  },
  {
    "Title": "6779",
    "KatalogText": "Römerberg",
    "PLZ": "55130",
    "Postort": "Mainz",
    "GemeindeID": "1365",
    "BundeslandID": "7"
  },
  {
    "Title": "6780",
    "KatalogText": "Agrippastraße",
    "PLZ": "55131",
    "Postort": "Mainz",
    "GemeindeID": "1365",
    "BundeslandID": "7"
  },
  {
    "Title": "6781",
    "KatalogText": "Römerwall",
    "PLZ": "55131",
    "Postort": "Mainz",
    "GemeindeID": "1365",
    "BundeslandID": "7"
  },
  {
    "Title": "6782",
    "KatalogText": "Röntgenstraße",
    "PLZ": "55128",
    "Postort": "Mainz",
    "GemeindeID": "1365",
    "BundeslandID": "7"
  },
  {
    "Title": "6783",
    "KatalogText": "Rotekopfgasse",
    "PLZ": "55116",
    "Postort": "Mainz",
    "GemeindeID": "1365",
    "BundeslandID": "7"
  },
  {
    "Title": "6784",
    "KatalogText": "Rudolf-Diesel-Straße",
    "PLZ": "55131",
    "Postort": "Mainz",
    "GemeindeID": "1365",
    "BundeslandID": "7"
  },
  {
    "Title": "6785",
    "KatalogText": "Saalestraße",
    "PLZ": "55122",
    "Postort": "Mainz",
    "GemeindeID": "1365",
    "BundeslandID": "7"
  },
  {
    "Title": "6786",
    "KatalogText": "Saarstraße",
    "PLZ": "99999",
    "Postort": "Mainz",
    "GemeindeID": "1365",
    "BundeslandID": "7"
  },
  {
    "Title": "6787",
    "KatalogText": "Sackgäßchen",
    "PLZ": "55120",
    "Postort": "Mainz",
    "GemeindeID": "1365",
    "BundeslandID": "7"
  },
  {
    "Title": "6788",
    "KatalogText": "Salvatorstraße",
    "PLZ": "55131",
    "Postort": "Mainz",
    "GemeindeID": "1365",
    "BundeslandID": "7"
  },
  {
    "Title": "6789",
    "KatalogText": "Sandmühlweg",
    "PLZ": "55124",
    "Postort": "Mainz",
    "GemeindeID": "1365",
    "BundeslandID": "7"
  },
  {
    "Title": "6790",
    "KatalogText": "Sandweg",
    "PLZ": "55120",
    "Postort": "Mainz",
    "GemeindeID": "1365",
    "BundeslandID": "7"
  },
  {
    "Title": "6791",
    "KatalogText": "Schaftriebweg",
    "PLZ": "55131",
    "Postort": "Mainz",
    "GemeindeID": "1365",
    "BundeslandID": "7"
  },
  {
    "Title": "6792",
    "KatalogText": "Scharfensteinergäßchen",
    "PLZ": "55116",
    "Postort": "Mainz",
    "GemeindeID": "1365",
    "BundeslandID": "7"
  },
  {
    "Title": "6793",
    "KatalogText": "Scharngasse",
    "PLZ": "55116",
    "Postort": "Mainz",
    "GemeindeID": "1365",
    "BundeslandID": "7"
  },
  {
    "Title": "6794",
    "KatalogText": "Scharnhorststraße",
    "PLZ": "55120",
    "Postort": "Mainz",
    "GemeindeID": "1365",
    "BundeslandID": "7"
  },
  {
    "Title": "6795",
    "KatalogText": "Scheffelstraße",
    "PLZ": "55118",
    "Postort": "Mainz",
    "GemeindeID": "1365",
    "BundeslandID": "7"
  },
  {
    "Title": "6796",
    "KatalogText": "Schießgartenstraße",
    "PLZ": "55116",
    "Postort": "Mainz",
    "GemeindeID": "1365",
    "BundeslandID": "7"
  },
  {
    "Title": "6797",
    "KatalogText": "Schifferstraße",
    "PLZ": "55130",
    "Postort": "Mainz",
    "GemeindeID": "1365",
    "BundeslandID": "7"
  },
  {
    "Title": "6798",
    "KatalogText": "Schillerplatz",
    "PLZ": "55116",
    "Postort": "Mainz",
    "GemeindeID": "1365",
    "BundeslandID": "7"
  },
  {
    "Title": "6799",
    "KatalogText": "Schillerstraße",
    "PLZ": "55116",
    "Postort": "Mainz",
    "GemeindeID": "1365",
    "BundeslandID": "7"
  },
  {
    "Title": "6800",
    "KatalogText": "Schillstraße",
    "PLZ": "55131",
    "Postort": "Mainz",
    "GemeindeID": "1365",
    "BundeslandID": "7"
  },
  {
    "Title": "6801",
    "KatalogText": "Schlesische Straße",
    "PLZ": "55131",
    "Postort": "Mainz",
    "GemeindeID": "1365",
    "BundeslandID": "7"
  },
  {
    "Title": "6802",
    "KatalogText": "Schlossergasse",
    "PLZ": "55116",
    "Postort": "Mainz",
    "GemeindeID": "1365",
    "BundeslandID": "7"
  },
  {
    "Title": "6803",
    "KatalogText": "Schneckenburgerstraße",
    "PLZ": "55131",
    "Postort": "Mainz",
    "GemeindeID": "1365",
    "BundeslandID": "7"
  },
  {
    "Title": "6804",
    "KatalogText": "Schöfferstraße",
    "PLZ": "55116",
    "Postort": "Mainz",
    "GemeindeID": "1365",
    "BundeslandID": "7"
  },
  {
    "Title": "6805",
    "KatalogText": "Schönbergstraße",
    "PLZ": "55120",
    "Postort": "Mainz",
    "GemeindeID": "1365",
    "BundeslandID": "7"
  },
  {
    "Title": "6806",
    "KatalogText": "Schönbornstraße",
    "PLZ": "55116",
    "Postort": "Mainz",
    "GemeindeID": "1365",
    "BundeslandID": "7"
  },
  {
    "Title": "6807",
    "KatalogText": "Schopenhauerweg",
    "PLZ": "55122",
    "Postort": "Mainz",
    "GemeindeID": "1365",
    "BundeslandID": "7"
  },
  {
    "Title": "6808",
    "KatalogText": "Schottstraße",
    "PLZ": "55116",
    "Postort": "Mainz",
    "GemeindeID": "1365",
    "BundeslandID": "7"
  },
  {
    "Title": "6809",
    "KatalogText": "Pfitznerstraße",
    "PLZ": "55118",
    "Postort": "Mainz",
    "GemeindeID": "1365",
    "BundeslandID": "7"
  },
  {
    "Title": "6810",
    "KatalogText": "Schulgäßchen",
    "PLZ": "55124",
    "Postort": "Mainz",
    "GemeindeID": "1365",
    "BundeslandID": "7"
  },
  {
    "Title": "6811",
    "KatalogText": "Schulstraße",
    "PLZ": "55124",
    "Postort": "Mainz",
    "GemeindeID": "1365",
    "BundeslandID": "7"
  },
  {
    "Title": "6812",
    "KatalogText": "Schulze-Delitzsch-Straße",
    "PLZ": "55131",
    "Postort": "Mainz",
    "GemeindeID": "1365",
    "BundeslandID": "7"
  },
  {
    "Title": "6813",
    "KatalogText": "Schusterstraße",
    "PLZ": "55116",
    "Postort": "Mainz",
    "GemeindeID": "1365",
    "BundeslandID": "7"
  },
  {
    "Title": "6814",
    "KatalogText": "Schwedenstraße",
    "PLZ": "55128",
    "Postort": "Mainz",
    "GemeindeID": "1365",
    "BundeslandID": "7"
  },
  {
    "Title": "6815",
    "KatalogText": "Schweidnitzer Straße",
    "PLZ": "55131",
    "Postort": "Mainz",
    "GemeindeID": "1365",
    "BundeslandID": "7"
  },
  {
    "Title": "6816",
    "KatalogText": "Sebastian-Bach-Straße",
    "PLZ": "55118",
    "Postort": "Mainz",
    "GemeindeID": "1365",
    "BundeslandID": "7"
  },
  {
    "Title": "6817",
    "KatalogText": "Seilergasse",
    "PLZ": "55116",
    "Postort": "Mainz",
    "GemeindeID": "1365",
    "BundeslandID": "7"
  },
  {
    "Title": "6818",
    "KatalogText": "Semmelweisweg",
    "PLZ": "55131",
    "Postort": "Mainz",
    "GemeindeID": "1365",
    "BundeslandID": "7"
  },
  {
    "Title": "6819",
    "KatalogText": "Seppel-Glückert-Passage",
    "PLZ": "55116",
    "Postort": "Mainz",
    "GemeindeID": "1365",
    "BundeslandID": "7"
  },
  {
    "Title": "6820",
    "KatalogText": "Siedlerstraße",
    "PLZ": "55120",
    "Postort": "Mainz",
    "GemeindeID": "1365",
    "BundeslandID": "7"
  },
  {
    "Title": "6821",
    "KatalogText": "Siemensstraße",
    "PLZ": "55131",
    "Postort": "Mainz",
    "GemeindeID": "1365",
    "BundeslandID": "7"
  },
  {
    "Title": "6822",
    "KatalogText": "Skagerrakstraße",
    "PLZ": "55128",
    "Postort": "Mainz",
    "GemeindeID": "1365",
    "BundeslandID": "7"
  },
  {
    "Title": "6823",
    "KatalogText": "Sömmerringplatz",
    "PLZ": "55118",
    "Postort": "Mainz",
    "GemeindeID": "1365",
    "BundeslandID": "7"
  },
  {
    "Title": "6824",
    "KatalogText": "Sömmerringstraße",
    "PLZ": "55118",
    "Postort": "Mainz",
    "GemeindeID": "1365",
    "BundeslandID": "7"
  },
  {
    "Title": "6825",
    "KatalogText": "Sonnengäßchen",
    "PLZ": "55116",
    "Postort": "Mainz",
    "GemeindeID": "1365",
    "BundeslandID": "7"
  },
  {
    "Title": "6826",
    "KatalogText": "Spritzengasse",
    "PLZ": "55116",
    "Postort": "Mainz",
    "GemeindeID": "1365",
    "BundeslandID": "7"
  },
  {
    "Title": "6827",
    "KatalogText": "St.-Georg-Straße",
    "PLZ": "55128",
    "Postort": "Mainz",
    "GemeindeID": "1365",
    "BundeslandID": "7"
  },
  {
    "Title": "6828",
    "KatalogText": "St.-Sebastian-Straße",
    "PLZ": "55128",
    "Postort": "Mainz",
    "GemeindeID": "1365",
    "BundeslandID": "7"
  },
  {
    "Title": "6829",
    "KatalogText": "Stadionerhofstraße",
    "PLZ": "55116",
    "Postort": "Mainz",
    "GemeindeID": "1365",
    "BundeslandID": "7"
  },
  {
    "Title": "6830",
    "KatalogText": "Stadthausstraße",
    "PLZ": "55116",
    "Postort": "Mainz",
    "GemeindeID": "1365",
    "BundeslandID": "7"
  },
  {
    "Title": "6831",
    "KatalogText": "Stadtpark",
    "PLZ": "55131",
    "Postort": "Mainz",
    "GemeindeID": "1365",
    "BundeslandID": "7"
  },
  {
    "Title": "6832",
    "KatalogText": "Stahlbergstraße",
    "PLZ": "55131",
    "Postort": "Mainz",
    "GemeindeID": "1365",
    "BundeslandID": "7"
  },
  {
    "Title": "6833",
    "KatalogText": "Starenweg",
    "PLZ": "55122",
    "Postort": "Mainz",
    "GemeindeID": "1365",
    "BundeslandID": "7"
  },
  {
    "Title": "6834",
    "KatalogText": "Stefan-Zweig-Straße",
    "PLZ": "55122",
    "Postort": "Mainz",
    "GemeindeID": "1365",
    "BundeslandID": "7"
  },
  {
    "Title": "6835",
    "KatalogText": "Stefansberg",
    "PLZ": "55116",
    "Postort": "Mainz",
    "GemeindeID": "1365",
    "BundeslandID": "7"
  },
  {
    "Title": "6836",
    "KatalogText": "Stefansplatz",
    "PLZ": "55116",
    "Postort": "Mainz",
    "GemeindeID": "1365",
    "BundeslandID": "7"
  },
  {
    "Title": "6837",
    "KatalogText": "Stefansstraße",
    "PLZ": "55116",
    "Postort": "Mainz",
    "GemeindeID": "1365",
    "BundeslandID": "7"
  },
  {
    "Title": "6838",
    "KatalogText": "Steinbiedengasse",
    "PLZ": "55128",
    "Postort": "Mainz",
    "GemeindeID": "1365",
    "BundeslandID": "7"
  },
  {
    "Title": "6839",
    "KatalogText": "Steingasse",
    "PLZ": "55116",
    "Postort": "Mainz",
    "GemeindeID": "1365",
    "BundeslandID": "7"
  },
  {
    "Title": "6840",
    "KatalogText": "Stephan-Karl-Michel-Str.",
    "PLZ": "55131",
    "Postort": "Mainz",
    "GemeindeID": "1365",
    "BundeslandID": "7"
  },
  {
    "Title": "6841",
    "KatalogText": "Stiftsstraße",
    "PLZ": "55116",
    "Postort": "Mainz",
    "GemeindeID": "1365",
    "BundeslandID": "7"
  },
  {
    "Title": "6842",
    "KatalogText": "Stolze-Schrey-Straße",
    "PLZ": "55124",
    "Postort": "Mainz",
    "GemeindeID": "1365",
    "BundeslandID": "7"
  },
  {
    "Title": "6843",
    "KatalogText": "Stresemann-Ufer",
    "PLZ": "55116",
    "Postort": "Mainz",
    "GemeindeID": "1365",
    "BundeslandID": "7"
  },
  {
    "Title": "6844",
    "KatalogText": "Strunkgasse",
    "PLZ": "55120",
    "Postort": "Mainz",
    "GemeindeID": "1365",
    "BundeslandID": "7"
  },
  {
    "Title": "6845",
    "KatalogText": "Suderstraße",
    "PLZ": "55120",
    "Postort": "Mainz",
    "GemeindeID": "1365",
    "BundeslandID": "7"
  },
  {
    "Title": "6846",
    "KatalogText": "Südoststraße",
    "PLZ": "55130",
    "Postort": "Mainz",
    "GemeindeID": "1365",
    "BundeslandID": "7"
  },
  {
    "Title": "6847",
    "KatalogText": "Südring",
    "PLZ": "55128",
    "Postort": "Mainz",
    "GemeindeID": "1365",
    "BundeslandID": "7"
  },
  {
    "Title": "6848",
    "KatalogText": "Im Niedergarten",
    "PLZ": "55124",
    "Postort": "Mainz",
    "GemeindeID": "1365",
    "BundeslandID": "7"
  },
  {
    "Title": "6849",
    "KatalogText": "Tanzplatz",
    "PLZ": "55130",
    "Postort": "Mainz",
    "GemeindeID": "1365",
    "BundeslandID": "7"
  },
  {
    "Title": "6850",
    "KatalogText": "Taunusstraße",
    "PLZ": "55118",
    "Postort": "Mainz",
    "GemeindeID": "1365",
    "BundeslandID": "7"
  },
  {
    "Title": "6851",
    "KatalogText": "Teichstraße",
    "PLZ": "55128",
    "Postort": "Mainz",
    "GemeindeID": "1365",
    "BundeslandID": "7"
  },
  {
    "Title": "6852",
    "KatalogText": "Templergasse",
    "PLZ": "55116",
    "Postort": "Mainz",
    "GemeindeID": "1365",
    "BundeslandID": "7"
  },
  {
    "Title": "6853",
    "KatalogText": "Templerstraße",
    "PLZ": "55116",
    "Postort": "Mainz",
    "GemeindeID": "1365",
    "BundeslandID": "7"
  },
  {
    "Title": "6854",
    "KatalogText": "Terrassenstraße",
    "PLZ": "55116",
    "Postort": "Mainz",
    "GemeindeID": "1365",
    "BundeslandID": "7"
  },
  {
    "Title": "6855",
    "KatalogText": "Theodor-Körner-Straße",
    "PLZ": "55124",
    "Postort": "Mainz",
    "GemeindeID": "1365",
    "BundeslandID": "7"
  },
  {
    "Title": "6856",
    "KatalogText": "Thomannstraße",
    "PLZ": "55131",
    "Postort": "Mainz",
    "GemeindeID": "1365",
    "BundeslandID": "7"
  },
  {
    "Title": "6857",
    "KatalogText": "Thomas-Mann-Straße",
    "PLZ": "55122",
    "Postort": "Mainz",
    "GemeindeID": "1365",
    "BundeslandID": "7"
  },
  {
    "Title": "6858",
    "KatalogText": "Tiefentaler Weg",
    "PLZ": "55128",
    "Postort": "Mainz",
    "GemeindeID": "1365",
    "BundeslandID": "7"
  },
  {
    "Title": "6859",
    "KatalogText": "Trajanstraße",
    "PLZ": "55131",
    "Postort": "Mainz",
    "GemeindeID": "1365",
    "BundeslandID": "7"
  },
  {
    "Title": "6860",
    "KatalogText": "Traubengasse",
    "PLZ": "55120",
    "Postort": "Mainz",
    "GemeindeID": "1365",
    "BundeslandID": "7"
  },
  {
    "Title": "6861",
    "KatalogText": "Treppengasse",
    "PLZ": "55130",
    "Postort": "Mainz",
    "GemeindeID": "1365",
    "BundeslandID": "7"
  },
  {
    "Title": "6862",
    "KatalogText": "Tritonplatz",
    "PLZ": "55116",
    "Postort": "Mainz",
    "GemeindeID": "1365",
    "BundeslandID": "7"
  },
  {
    "Title": "6863",
    "KatalogText": "Trommlerstraße",
    "PLZ": "55120",
    "Postort": "Mainz",
    "GemeindeID": "1365",
    "BundeslandID": "7"
  },
  {
    "Title": "6864",
    "KatalogText": "Turmstraße",
    "PLZ": "55120",
    "Postort": "Mainz",
    "GemeindeID": "1365",
    "BundeslandID": "7"
  },
  {
    "Title": "6865",
    "KatalogText": "Turnerstraße",
    "PLZ": "55120",
    "Postort": "Mainz",
    "GemeindeID": "1365",
    "BundeslandID": "7"
  },
  {
    "Title": "6866",
    "KatalogText": "Turnvater-Jahn-Straße",
    "PLZ": "55128",
    "Postort": "Mainz",
    "GemeindeID": "1365",
    "BundeslandID": "7"
  },
  {
    "Title": "6867",
    "KatalogText": "Udetstraße",
    "PLZ": "55122",
    "Postort": "Mainz",
    "GemeindeID": "1365",
    "BundeslandID": "7"
  },
  {
    "Title": "6868",
    "KatalogText": "Uferstraße",
    "PLZ": "55116",
    "Postort": "Mainz",
    "GemeindeID": "1365",
    "BundeslandID": "7"
  },
  {
    "Title": "6869",
    "KatalogText": "Uhlandstraße",
    "PLZ": "55118",
    "Postort": "Mainz",
    "GemeindeID": "1365",
    "BundeslandID": "7"
  },
  {
    "Title": "6870",
    "KatalogText": "Ulrichstraße",
    "PLZ": "55128",
    "Postort": "Mainz",
    "GemeindeID": "1365",
    "BundeslandID": "7"
  },
  {
    "Title": "6871",
    "KatalogText": "Umbach",
    "PLZ": "55116",
    "Postort": "Mainz",
    "GemeindeID": "1365",
    "BundeslandID": "7"
  },
  {
    "Title": "6872",
    "KatalogText": "Unterdorfstraße",
    "PLZ": "55130",
    "Postort": "Mainz",
    "GemeindeID": "1365",
    "BundeslandID": "7"
  },
  {
    "Title": "6873",
    "KatalogText": "Untere Bogenstraße",
    "PLZ": "55120",
    "Postort": "Mainz",
    "GemeindeID": "1365",
    "BundeslandID": "7"
  },
  {
    "Title": "6874",
    "KatalogText": "Untere Zahlbacher Straße",
    "PLZ": "55131",
    "Postort": "Mainz",
    "GemeindeID": "1365",
    "BundeslandID": "7"
  },
  {
    "Title": "6875",
    "KatalogText": "Unterer Michelsbergweg",
    "PLZ": "55131",
    "Postort": "Mainz",
    "GemeindeID": "1365",
    "BundeslandID": "7"
  },
  {
    "Title": "6876",
    "KatalogText": "Unterer Mühlrech",
    "PLZ": "55128",
    "Postort": "Mainz",
    "GemeindeID": "1365",
    "BundeslandID": "7"
  },
  {
    "Title": "6877",
    "KatalogText": "Viermorgenweg",
    "PLZ": "55124",
    "Postort": "Mainz",
    "GemeindeID": "1365",
    "BundeslandID": "7"
  },
  {
    "Title": "6878",
    "KatalogText": "Vierzehn-Nothelfer-Straße",
    "PLZ": "55124",
    "Postort": "Mainz",
    "GemeindeID": "1365",
    "BundeslandID": "7"
  },
  {
    "Title": "6879",
    "KatalogText": "Viktoriastraße",
    "PLZ": "55130",
    "Postort": "Mainz",
    "GemeindeID": "1365",
    "BundeslandID": "7"
  },
  {
    "Title": "6880",
    "KatalogText": "Vogelsgesangweg",
    "PLZ": "55124",
    "Postort": "Mainz",
    "GemeindeID": "1365",
    "BundeslandID": "7"
  },
  {
    "Title": "6881",
    "KatalogText": "Vordere Präsenzgasse",
    "PLZ": "55116",
    "Postort": "Mainz",
    "GemeindeID": "1365",
    "BundeslandID": "7"
  },
  {
    "Title": "6882",
    "KatalogText": "Waldstraße",
    "PLZ": "55124",
    "Postort": "Mainz",
    "GemeindeID": "1365",
    "BundeslandID": "7"
  },
  {
    "Title": "6883",
    "KatalogText": "Wallaustraße",
    "PLZ": "55118",
    "Postort": "Mainz",
    "GemeindeID": "1365",
    "BundeslandID": "7"
  },
  {
    "Title": "6884",
    "KatalogText": "Wallstraße",
    "PLZ": "55122",
    "Postort": "Mainz",
    "GemeindeID": "1365",
    "BundeslandID": "7"
  },
  {
    "Title": "6885",
    "KatalogText": "Walpodenstraße",
    "PLZ": "55116",
    "Postort": "Mainz",
    "GemeindeID": "1365",
    "BundeslandID": "7"
  },
  {
    "Title": "6886",
    "KatalogText": "Wassergasse",
    "PLZ": "55130",
    "Postort": "Mainz",
    "GemeindeID": "1365",
    "BundeslandID": "7"
  },
  {
    "Title": "6887",
    "KatalogText": "Watfordstraße",
    "PLZ": "55122",
    "Postort": "Mainz",
    "GemeindeID": "1365",
    "BundeslandID": "7"
  },
  {
    "Title": "6888",
    "KatalogText": "Weberstraße",
    "PLZ": "55130",
    "Postort": "Mainz",
    "GemeindeID": "1365",
    "BundeslandID": "7"
  },
  {
    "Title": "6889",
    "KatalogText": "Weichselstraße",
    "PLZ": "55131",
    "Postort": "Mainz",
    "GemeindeID": "1365",
    "BundeslandID": "7"
  },
  {
    "Title": "6890",
    "KatalogText": "Weidmannstraße",
    "PLZ": "55131",
    "Postort": "Mainz",
    "GemeindeID": "1365",
    "BundeslandID": "7"
  },
  {
    "Title": "6891",
    "KatalogText": "Weidstraße",
    "PLZ": "55120",
    "Postort": "Mainz",
    "GemeindeID": "1365",
    "BundeslandID": "7"
  },
  {
    "Title": "6892",
    "KatalogText": "Weifert-Janz-Straße",
    "PLZ": "55122",
    "Postort": "Mainz",
    "GemeindeID": "1365",
    "BundeslandID": "7"
  },
  {
    "Title": "6893",
    "KatalogText": "Weihergarten",
    "PLZ": "55116",
    "Postort": "Mainz",
    "GemeindeID": "1365",
    "BundeslandID": "7"
  },
  {
    "Title": "6894",
    "KatalogText": "Weihergartenstraße",
    "PLZ": "55116",
    "Postort": "Mainz",
    "GemeindeID": "1365",
    "BundeslandID": "7"
  },
  {
    "Title": "6895",
    "KatalogText": "Weiherstraße",
    "PLZ": "55120",
    "Postort": "Mainz",
    "GemeindeID": "1365",
    "BundeslandID": "7"
  },
  {
    "Title": "6896",
    "KatalogText": "Bernhard-Winter-Straße",
    "PLZ": "55120",
    "Postort": "Mainz",
    "GemeindeID": "1365",
    "BundeslandID": "7"
  },
  {
    "Title": "6897",
    "KatalogText": "Weingartenstraße",
    "PLZ": "55128",
    "Postort": "Mainz",
    "GemeindeID": "1365",
    "BundeslandID": "7"
  },
  {
    "Title": "6898",
    "KatalogText": "Weintorstraße",
    "PLZ": "55116",
    "Postort": "Mainz",
    "GemeindeID": "1365",
    "BundeslandID": "7"
  },
  {
    "Title": "6899",
    "KatalogText": "Weisenauer Straße",
    "PLZ": "55131",
    "Postort": "Mainz",
    "GemeindeID": "1365",
    "BundeslandID": "7"
  },
  {
    "Title": "6900",
    "KatalogText": "Weißliliengasse",
    "PLZ": "55116",
    "Postort": "Mainz",
    "GemeindeID": "1365",
    "BundeslandID": "7"
  },
  {
    "Title": "6901",
    "KatalogText": "Welschnonnengasse",
    "PLZ": "55116",
    "Postort": "Mainz",
    "GemeindeID": "1365",
    "BundeslandID": "7"
  },
  {
    "Title": "6902",
    "KatalogText": "Welschplatz",
    "PLZ": "55131",
    "Postort": "Mainz",
    "GemeindeID": "1365",
    "BundeslandID": "7"
  },
  {
    "Title": "6903",
    "KatalogText": "Welschstraße",
    "PLZ": "55131",
    "Postort": "Mainz",
    "GemeindeID": "1365",
    "BundeslandID": "7"
  },
  {
    "Title": "6904",
    "KatalogText": "Werderstraße",
    "PLZ": "55118",
    "Postort": "Mainz",
    "GemeindeID": "1365",
    "BundeslandID": "7"
  },
  {
    "Title": "6905",
    "KatalogText": "Werrastraße",
    "PLZ": "55122",
    "Postort": "Mainz",
    "GemeindeID": "1365",
    "BundeslandID": "7"
  },
  {
    "Title": "6906",
    "KatalogText": "Weserstraße",
    "PLZ": "55122",
    "Postort": "Mainz",
    "GemeindeID": "1365",
    "BundeslandID": "7"
  },
  {
    "Title": "6907",
    "KatalogText": "Westendstraße",
    "PLZ": "55130",
    "Postort": "Mainz",
    "GemeindeID": "1365",
    "BundeslandID": "7"
  },
  {
    "Title": "6908",
    "KatalogText": "Westring",
    "PLZ": "55120",
    "Postort": "Mainz",
    "GemeindeID": "1365",
    "BundeslandID": "7"
  },
  {
    "Title": "6909",
    "KatalogText": "Wichernstraße",
    "PLZ": "55131",
    "Postort": "Mainz",
    "GemeindeID": "1365",
    "BundeslandID": "7"
  },
  {
    "Title": "6910",
    "KatalogText": "Wiesenweg",
    "PLZ": "55118",
    "Postort": "Mainz",
    "GemeindeID": "1365",
    "BundeslandID": "7"
  },
  {
    "Title": "6911",
    "KatalogText": "Wilhelm-Christ-Straße",
    "PLZ": "55122",
    "Postort": "Mainz",
    "GemeindeID": "1365",
    "BundeslandID": "7"
  },
  {
    "Title": "6912",
    "KatalogText": "Wilhelm-Raabe-Straße",
    "PLZ": "55124",
    "Postort": "Mainz",
    "GemeindeID": "1365",
    "BundeslandID": "7"
  },
  {
    "Title": "6913",
    "KatalogText": "Wilhelmiterstraße",
    "PLZ": "55131",
    "Postort": "Mainz",
    "GemeindeID": "1365",
    "BundeslandID": "7"
  },
  {
    "Title": "6914",
    "KatalogText": "Wilhelmsstraße",
    "PLZ": "55128",
    "Postort": "Mainz",
    "GemeindeID": "1365",
    "BundeslandID": "7"
  },
  {
    "Title": "6915",
    "KatalogText": "Willigisplatz",
    "PLZ": "55116",
    "Postort": "Mainz",
    "GemeindeID": "1365",
    "BundeslandID": "7"
  },
  {
    "Title": "6916",
    "KatalogText": "Willigisstraße",
    "PLZ": "55116",
    "Postort": "Mainz",
    "GemeindeID": "1365",
    "BundeslandID": "7"
  },
  {
    "Title": "6917",
    "KatalogText": "Windmühlenstraße",
    "PLZ": "55116",
    "Postort": "Mainz",
    "GemeindeID": "1365",
    "BundeslandID": "7"
  },
  {
    "Title": "6918",
    "KatalogText": "Windthorststraße",
    "PLZ": "55131",
    "Postort": "Mainz",
    "GemeindeID": "1365",
    "BundeslandID": "7"
  },
  {
    "Title": "6919",
    "KatalogText": "Winkelgäßchen",
    "PLZ": "55120",
    "Postort": "Mainz",
    "GemeindeID": "1365",
    "BundeslandID": "7"
  },
  {
    "Title": "6920",
    "KatalogText": "Winterhafendamm",
    "PLZ": "55131",
    "Postort": "Mainz",
    "GemeindeID": "1365",
    "BundeslandID": "7"
  },
  {
    "Title": "6921",
    "KatalogText": "Wöhlerstraße",
    "PLZ": "55120",
    "Postort": "Mainz",
    "GemeindeID": "1365",
    "BundeslandID": "7"
  },
  {
    "Title": "6922",
    "KatalogText": "Wormser Straße",
    "PLZ": "55130",
    "Postort": "Mainz",
    "GemeindeID": "1365",
    "BundeslandID": "7"
  },
  {
    "Title": "6923",
    "KatalogText": "Woynastraße",
    "PLZ": "55118",
    "Postort": "Mainz",
    "GemeindeID": "1365",
    "BundeslandID": "7"
  },
  {
    "Title": "6924",
    "KatalogText": "Xaveriusweg",
    "PLZ": "55131",
    "Postort": "Mainz",
    "GemeindeID": "1365",
    "BundeslandID": "7"
  },
  {
    "Title": "6925",
    "KatalogText": "Zahlbacher Steig",
    "PLZ": "55131",
    "Postort": "Mainz",
    "GemeindeID": "1365",
    "BundeslandID": "7"
  },
  {
    "Title": "6926",
    "KatalogText": "Zanggasse",
    "PLZ": "55116",
    "Postort": "Mainz",
    "GemeindeID": "1365",
    "BundeslandID": "7"
  },
  {
    "Title": "6927",
    "KatalogText": "Zaybachstraße",
    "PLZ": "55128",
    "Postort": "Mainz",
    "GemeindeID": "1365",
    "BundeslandID": "7"
  },
  {
    "Title": "6928",
    "KatalogText": "Zeppelinstraße",
    "PLZ": "55131",
    "Postort": "Mainz",
    "GemeindeID": "1365",
    "BundeslandID": "7"
  },
  {
    "Title": "6929",
    "KatalogText": "Zeughausgasse",
    "PLZ": "55116",
    "Postort": "Mainz",
    "GemeindeID": "1365",
    "BundeslandID": "7"
  },
  {
    "Title": "6930",
    "KatalogText": "Zeystraße",
    "PLZ": "55120",
    "Postort": "Mainz",
    "GemeindeID": "1365",
    "BundeslandID": "7"
  },
  {
    "Title": "6931",
    "KatalogText": "Zitadelle",
    "PLZ": "55131",
    "Postort": "Mainz",
    "GemeindeID": "1365",
    "BundeslandID": "7"
  },
  {
    "Title": "6932",
    "KatalogText": "Zitadellengraben",
    "PLZ": "55131",
    "Postort": "Mainz",
    "GemeindeID": "1365",
    "BundeslandID": "7"
  },
  {
    "Title": "6933",
    "KatalogText": "Zitadellenweg",
    "PLZ": "55131",
    "Postort": "Mainz",
    "GemeindeID": "1365",
    "BundeslandID": "7"
  },
  {
    "Title": "6934",
    "KatalogText": "Zollgasse",
    "PLZ": "55130",
    "Postort": "Mainz",
    "GemeindeID": "1365",
    "BundeslandID": "7"
  },
  {
    "Title": "6935",
    "KatalogText": "Zwerchallee",
    "PLZ": "55120",
    "Postort": "Mainz",
    "GemeindeID": "1365",
    "BundeslandID": "7"
  },
  {
    "Title": "6936",
    "KatalogText": "Zwerchgasse",
    "PLZ": "55120",
    "Postort": "Mainz",
    "GemeindeID": "1365",
    "BundeslandID": "7"
  },
  {
    "Title": "6937",
    "KatalogText": "117er Ehrenhof",
    "PLZ": "55118",
    "Postort": "Mainz",
    "GemeindeID": "1365",
    "BundeslandID": "7"
  },
  {
    "Title": "6938",
    "KatalogText": "Brahmsweg",
    "PLZ": "55127",
    "Postort": "Mainz",
    "GemeindeID": "1365",
    "BundeslandID": "7"
  },
  {
    "Title": "6939",
    "KatalogText": "Brucknerstraße",
    "PLZ": "55127",
    "Postort": "Mainz",
    "GemeindeID": "1365",
    "BundeslandID": "7"
  },
  {
    "Title": "6940",
    "KatalogText": "Büchnerallee",
    "PLZ": "55127",
    "Postort": "Mainz",
    "GemeindeID": "1365",
    "BundeslandID": "7"
  },
  {
    "Title": "6941",
    "KatalogText": "Cranachweg",
    "PLZ": "55127",
    "Postort": "Mainz",
    "GemeindeID": "1365",
    "BundeslandID": "7"
  },
  {
    "Title": "6942",
    "KatalogText": "Fontanestraße",
    "PLZ": "55127",
    "Postort": "Mainz",
    "GemeindeID": "1365",
    "BundeslandID": "7"
  },
  {
    "Title": "6943",
    "KatalogText": "Grünewaldstraße",
    "PLZ": "55127",
    "Postort": "Mainz",
    "GemeindeID": "1365",
    "BundeslandID": "7"
  },
  {
    "Title": "6944",
    "KatalogText": "Hebbelstraße",
    "PLZ": "55127",
    "Postort": "Mainz",
    "GemeindeID": "1365",
    "BundeslandID": "7"
  },
  {
    "Title": "6945",
    "KatalogText": "Hermann-Hesse-Straße",
    "PLZ": "55127",
    "Postort": "Mainz",
    "GemeindeID": "1365",
    "BundeslandID": "7"
  },
  {
    "Title": "6946",
    "KatalogText": "Hindemithstraße",
    "PLZ": "55127",
    "Postort": "Mainz",
    "GemeindeID": "1365",
    "BundeslandID": "7"
  },
  {
    "Title": "6947",
    "KatalogText": "Kafkaweg",
    "PLZ": "55127",
    "Postort": "Mainz",
    "GemeindeID": "1365",
    "BundeslandID": "7"
  },
  {
    "Title": "6948",
    "KatalogText": "Lenauweg",
    "PLZ": "55127",
    "Postort": "Mainz",
    "GemeindeID": "1365",
    "BundeslandID": "7"
  },
  {
    "Title": "6949",
    "KatalogText": "Liebermannstraße",
    "PLZ": "55127",
    "Postort": "Mainz",
    "GemeindeID": "1365",
    "BundeslandID": "7"
  },
  {
    "Title": "6950",
    "KatalogText": "Lortzingstraße",
    "PLZ": "55127",
    "Postort": "Mainz",
    "GemeindeID": "1365",
    "BundeslandID": "7"
  },
  {
    "Title": "6951",
    "KatalogText": "Menzelstraße",
    "PLZ": "55127",
    "Postort": "Mainz",
    "GemeindeID": "1365",
    "BundeslandID": "7"
  },
  {
    "Title": "6952",
    "KatalogText": "Palestrinaweg",
    "PLZ": "55127",
    "Postort": "Mainz",
    "GemeindeID": "1365",
    "BundeslandID": "7"
  },
  {
    "Title": "6953",
    "KatalogText": "Regerstraße",
    "PLZ": "55127",
    "Postort": "Mainz",
    "GemeindeID": "1365",
    "BundeslandID": "7"
  },
  {
    "Title": "6954",
    "KatalogText": "Rembrandtstraße",
    "PLZ": "55127",
    "Postort": "Mainz",
    "GemeindeID": "1365",
    "BundeslandID": "7"
  },
  {
    "Title": "6955",
    "KatalogText": "Rilkeallee",
    "PLZ": "55127",
    "Postort": "Mainz",
    "GemeindeID": "1365",
    "BundeslandID": "7"
  },
  {
    "Title": "6956",
    "KatalogText": "Rubensallee",
    "PLZ": "55127",
    "Postort": "Mainz",
    "GemeindeID": "1365",
    "BundeslandID": "7"
  },
  {
    "Title": "6957",
    "KatalogText": "Silcherweg",
    "PLZ": "55127",
    "Postort": "Mainz",
    "GemeindeID": "1365",
    "BundeslandID": "7"
  },
  {
    "Title": "6958",
    "KatalogText": "Smetanaweg",
    "PLZ": "55127",
    "Postort": "Mainz",
    "GemeindeID": "1365",
    "BundeslandID": "7"
  },
  {
    "Title": "6959",
    "KatalogText": "Spitzwegstraße",
    "PLZ": "55127",
    "Postort": "Mainz",
    "GemeindeID": "1365",
    "BundeslandID": "7"
  },
  {
    "Title": "6960",
    "KatalogText": "Theodor-Storm-Weg",
    "PLZ": "55127",
    "Postort": "Mainz",
    "GemeindeID": "1365",
    "BundeslandID": "7"
  },
  {
    "Title": "6961",
    "KatalogText": "Tizianweg",
    "PLZ": "55127",
    "Postort": "Mainz",
    "GemeindeID": "1365",
    "BundeslandID": "7"
  },
  {
    "Title": "6962",
    "KatalogText": "Tucholskyweg",
    "PLZ": "55127",
    "Postort": "Mainz",
    "GemeindeID": "1365",
    "BundeslandID": "7"
  },
  {
    "Title": "6963",
    "KatalogText": "Van-Gogh-Straße",
    "PLZ": "55127",
    "Postort": "Mainz",
    "GemeindeID": "1365",
    "BundeslandID": "7"
  },
  {
    "Title": "6964",
    "KatalogText": "Wedekindstraße",
    "PLZ": "55127",
    "Postort": "Mainz",
    "GemeindeID": "1365",
    "BundeslandID": "7"
  },
  {
    "Title": "6965",
    "KatalogText": "Beethovenstraße",
    "PLZ": "55130",
    "Postort": "Mainz",
    "GemeindeID": "1365",
    "BundeslandID": "7"
  },
  {
    "Title": "6966",
    "KatalogText": "Tuchbleiche",
    "PLZ": "55130",
    "Postort": "Mainz",
    "GemeindeID": "1365",
    "BundeslandID": "7"
  },
  {
    "Title": "6967",
    "KatalogText": "Dammweg",
    "PLZ": "55130",
    "Postort": "Mainz",
    "GemeindeID": "1365",
    "BundeslandID": "7"
  },
  {
    "Title": "6968",
    "KatalogText": "Deutschhausgasse",
    "PLZ": "55130",
    "Postort": "Mainz",
    "GemeindeID": "1365",
    "BundeslandID": "7"
  },
  {
    "Title": "6969",
    "KatalogText": "Ernst-Reuter-Straße",
    "PLZ": "55130",
    "Postort": "Mainz",
    "GemeindeID": "1365",
    "BundeslandID": "7"
  },
  {
    "Title": "6970",
    "KatalogText": "Kiefernweg",
    "PLZ": "55130",
    "Postort": "Mainz",
    "GemeindeID": "1365",
    "BundeslandID": "7"
  },
  {
    "Title": "6971",
    "KatalogText": "Gewerbestraße",
    "PLZ": "55130",
    "Postort": "Mainz",
    "GemeindeID": "1365",
    "BundeslandID": "7"
  },
  {
    "Title": "6972",
    "KatalogText": "Ginsheimer Straße",
    "PLZ": "55130",
    "Postort": "Mainz",
    "GemeindeID": "1365",
    "BundeslandID": "7"
  },
  {
    "Title": "6973",
    "KatalogText": "Alexander-Fleming-Straße",
    "PLZ": "55130",
    "Postort": "Mainz",
    "GemeindeID": "1365",
    "BundeslandID": "7"
  },
  {
    "Title": "6974",
    "KatalogText": "Am Leitgraben",
    "PLZ": "55130",
    "Postort": "Mainz",
    "GemeindeID": "1365",
    "BundeslandID": "7"
  },
  {
    "Title": "6975",
    "KatalogText": "Speßweg",
    "PLZ": "55130",
    "Postort": "Mainz",
    "GemeindeID": "1365",
    "BundeslandID": "7"
  },
  {
    "Title": "6976",
    "KatalogText": "Haydnstraße",
    "PLZ": "55130",
    "Postort": "Mainz",
    "GemeindeID": "1365",
    "BundeslandID": "7"
  },
  {
    "Title": "6977",
    "KatalogText": "Hintere Talstraße",
    "PLZ": "55130",
    "Postort": "Mainz",
    "GemeindeID": "1365",
    "BundeslandID": "7"
  },
  {
    "Title": "6978",
    "KatalogText": "Hofwiesenweg",
    "PLZ": "55130",
    "Postort": "Mainz",
    "GemeindeID": "1365",
    "BundeslandID": "7"
  },
  {
    "Title": "6979",
    "KatalogText": "Im Brühl",
    "PLZ": "55130",
    "Postort": "Mainz",
    "GemeindeID": "1365",
    "BundeslandID": "7"
  },
  {
    "Title": "6980",
    "KatalogText": "Im Dorfgraben",
    "PLZ": "55130",
    "Postort": "Mainz",
    "GemeindeID": "1365",
    "BundeslandID": "7"
  },
  {
    "Title": "6981",
    "KatalogText": "Carl-Diem-Straße",
    "PLZ": "55130",
    "Postort": "Mainz",
    "GemeindeID": "1365",
    "BundeslandID": "7"
  },
  {
    "Title": "6982",
    "KatalogText": "Marienhofstraße",
    "PLZ": "55130",
    "Postort": "Mainz",
    "GemeindeID": "1365",
    "BundeslandID": "7"
  },
  {
    "Title": "6983",
    "KatalogText": "Pfarrer-Goedecker-Straße",
    "PLZ": "55130",
    "Postort": "Mainz",
    "GemeindeID": "1365",
    "BundeslandID": "7"
  },
  {
    "Title": "6984",
    "KatalogText": "Kretzerweg",
    "PLZ": "55130",
    "Postort": "Mainz",
    "GemeindeID": "1365",
    "BundeslandID": "7"
  },
  {
    "Title": "6985",
    "KatalogText": "Lönsstraße",
    "PLZ": "55130",
    "Postort": "Mainz",
    "GemeindeID": "1365",
    "BundeslandID": "7"
  },
  {
    "Title": "6986",
    "KatalogText": "Longchampplatz",
    "PLZ": "55130",
    "Postort": "Mainz",
    "GemeindeID": "1365",
    "BundeslandID": "7"
  },
  {
    "Title": "6987",
    "KatalogText": "Ludwig-Marx-Straße",
    "PLZ": "55130",
    "Postort": "Mainz",
    "GemeindeID": "1365",
    "BundeslandID": "7"
  },
  {
    "Title": "6988",
    "KatalogText": "Oppenheimer Straße",
    "PLZ": "55130",
    "Postort": "Mainz",
    "GemeindeID": "1365",
    "BundeslandID": "7"
  },
  {
    "Title": "6989",
    "KatalogText": "Marktplatz",
    "PLZ": "55130",
    "Postort": "Mainz",
    "GemeindeID": "1365",
    "BundeslandID": "7"
  },
  {
    "Title": "6990",
    "KatalogText": "Mittlere Talstraße",
    "PLZ": "55130",
    "Postort": "Mainz",
    "GemeindeID": "1365",
    "BundeslandID": "7"
  },
  {
    "Title": "6991",
    "KatalogText": "Möhnstraße",
    "PLZ": "55130",
    "Postort": "Mainz",
    "GemeindeID": "1365",
    "BundeslandID": "7"
  },
  {
    "Title": "6992",
    "KatalogText": "Robert-Schumann-Straße",
    "PLZ": "55130",
    "Postort": "Mainz",
    "GemeindeID": "1365",
    "BundeslandID": "7"
  },
  {
    "Title": "6993",
    "KatalogText": "Neuweg",
    "PLZ": "55130",
    "Postort": "Mainz",
    "GemeindeID": "1365",
    "BundeslandID": "7"
  },
  {
    "Title": "6994",
    "KatalogText": "Oberer Dorfgraben",
    "PLZ": "55130",
    "Postort": "Mainz",
    "GemeindeID": "1365",
    "BundeslandID": "7"
  },
  {
    "Title": "6995",
    "KatalogText": "Parkstraße",
    "PLZ": "55130",
    "Postort": "Mainz",
    "GemeindeID": "1365",
    "BundeslandID": "7"
  },
  {
    "Title": "6996",
    "KatalogText": "Pfarrgasse",
    "PLZ": "55130",
    "Postort": "Mainz",
    "GemeindeID": "1365",
    "BundeslandID": "7"
  },
  {
    "Title": "6997",
    "KatalogText": "Weinstraße",
    "PLZ": "55130",
    "Postort": "Mainz",
    "GemeindeID": "1365",
    "BundeslandID": "7"
  },
  {
    "Title": "6998",
    "KatalogText": "Rheintalstraße",
    "PLZ": "55130",
    "Postort": "Mainz",
    "GemeindeID": "1365",
    "BundeslandID": "7"
  },
  {
    "Title": "6999",
    "KatalogText": "Karolingerstraße",
    "PLZ": "55130",
    "Postort": "Mainz",
    "GemeindeID": "1365",
    "BundeslandID": "7"
  },
  {
    "Title": "7000",
    "KatalogText": "Riedweg",
    "PLZ": "55130",
    "Postort": "Mainz",
    "GemeindeID": "1365",
    "BundeslandID": "7"
  },
  {
    "Title": "7001",
    "KatalogText": "Rosenweg",
    "PLZ": "55130",
    "Postort": "Mainz",
    "GemeindeID": "1365",
    "BundeslandID": "7"
  },
  {
    "Title": "7002",
    "KatalogText": "Rothweg",
    "PLZ": "55130",
    "Postort": "Mainz",
    "GemeindeID": "1365",
    "BundeslandID": "7"
  },
  {
    "Title": "7003",
    "KatalogText": "Schubertstraße",
    "PLZ": "55130",
    "Postort": "Mainz",
    "GemeindeID": "1365",
    "BundeslandID": "7"
  },
  {
    "Title": "7004",
    "KatalogText": "Am alten Spritzenhaus",
    "PLZ": "55130",
    "Postort": "Mainz",
    "GemeindeID": "1365",
    "BundeslandID": "7"
  },
  {
    "Title": "7005",
    "KatalogText": "Berghofstraße",
    "PLZ": "55130",
    "Postort": "Mainz",
    "GemeindeID": "1365",
    "BundeslandID": "7"
  },
  {
    "Title": "7006",
    "KatalogText": "Niersteiner Straße",
    "PLZ": "55130",
    "Postort": "Mainz",
    "GemeindeID": "1365",
    "BundeslandID": "7"
  },
  {
    "Title": "7007",
    "KatalogText": "Vordere Talstraße",
    "PLZ": "55130",
    "Postort": "Mainz",
    "GemeindeID": "1365",
    "BundeslandID": "7"
  },
  {
    "Title": "7008",
    "KatalogText": "Kalkofenweg",
    "PLZ": "55130",
    "Postort": "Mainz",
    "GemeindeID": "1365",
    "BundeslandID": "7"
  },
  {
    "Title": "7009",
    "KatalogText": "Auf der Weide",
    "PLZ": "55130",
    "Postort": "Mainz",
    "GemeindeID": "1365",
    "BundeslandID": "7"
  },
  {
    "Title": "7010",
    "KatalogText": "Wilhelm-Leuschner-Straße",
    "PLZ": "55130",
    "Postort": "Mainz",
    "GemeindeID": "1365",
    "BundeslandID": "7"
  },
  {
    "Title": "7011",
    "KatalogText": "Hans-Zöller-Straße",
    "PLZ": "55130",
    "Postort": "Mainz",
    "GemeindeID": "1365",
    "BundeslandID": "7"
  },
  {
    "Title": "7012",
    "KatalogText": "Zukunftstraße",
    "PLZ": "55130",
    "Postort": "Mainz",
    "GemeindeID": "1365",
    "BundeslandID": "7"
  },
  {
    "Title": "7013",
    "KatalogText": "Ackergasse",
    "PLZ": "55129",
    "Postort": "Mainz",
    "GemeindeID": "1365",
    "BundeslandID": "7"
  },
  {
    "Title": "7014",
    "KatalogText": "Ahornstraße",
    "PLZ": "55129",
    "Postort": "Mainz",
    "GemeindeID": "1365",
    "BundeslandID": "7"
  },
  {
    "Title": "7015",
    "KatalogText": "Am Hechenberg",
    "PLZ": "55129",
    "Postort": "Mainz",
    "GemeindeID": "1365",
    "BundeslandID": "7"
  },
  {
    "Title": "7016",
    "KatalogText": "Am Muckenberg",
    "PLZ": "55129",
    "Postort": "Mainz",
    "GemeindeID": "1365",
    "BundeslandID": "7"
  },
  {
    "Title": "7017",
    "KatalogText": "Rödelstück",
    "PLZ": "55129",
    "Postort": "Mainz",
    "GemeindeID": "1365",
    "BundeslandID": "7"
  },
  {
    "Title": "7018",
    "KatalogText": "Am Weidezehnten",
    "PLZ": "55129",
    "Postort": "Mainz",
    "GemeindeID": "1365",
    "BundeslandID": "7"
  },
  {
    "Title": "7019",
    "KatalogText": "An den Mühlwegen",
    "PLZ": "55129",
    "Postort": "Mainz",
    "GemeindeID": "1365",
    "BundeslandID": "7"
  },
  {
    "Title": "7020",
    "KatalogText": "Bachstraße",
    "PLZ": "55129",
    "Postort": "Mainz",
    "GemeindeID": "1365",
    "BundeslandID": "7"
  },
  {
    "Title": "7021",
    "KatalogText": "Bürgermeister-Schmitt-Straße",
    "PLZ": "55129",
    "Postort": "Mainz",
    "GemeindeID": "1365",
    "BundeslandID": "7"
  },
  {
    "Title": "7022",
    "KatalogText": "Bahnweg",
    "PLZ": "55129",
    "Postort": "Mainz",
    "GemeindeID": "1365",
    "BundeslandID": "7"
  },
  {
    "Title": "7023",
    "KatalogText": "Lassallestraße",
    "PLZ": "55129",
    "Postort": "Mainz",
    "GemeindeID": "1365",
    "BundeslandID": "7"
  },
  {
    "Title": "7024",
    "KatalogText": "Bergstraße",
    "PLZ": "55129",
    "Postort": "Mainz",
    "GemeindeID": "1365",
    "BundeslandID": "7"
  },
  {
    "Title": "7025",
    "KatalogText": "Birkenstraße",
    "PLZ": "55129",
    "Postort": "Mainz",
    "GemeindeID": "1365",
    "BundeslandID": "7"
  },
  {
    "Title": "7026",
    "KatalogText": "Bischheimer Weg",
    "PLZ": "55129",
    "Postort": "Mainz",
    "GemeindeID": "1365",
    "BundeslandID": "7"
  },
  {
    "Title": "7027",
    "KatalogText": "Bodenheimer Straße",
    "PLZ": "55129",
    "Postort": "Mainz",
    "GemeindeID": "1365",
    "BundeslandID": "7"
  },
  {
    "Title": "7028",
    "KatalogText": "Am Oberen Born",
    "PLZ": "55129",
    "Postort": "Mainz",
    "GemeindeID": "1365",
    "BundeslandID": "7"
  },
  {
    "Title": "7029",
    "KatalogText": "Bürgermeister-Keim-Straße",
    "PLZ": "55129",
    "Postort": "Mainz",
    "GemeindeID": "1365",
    "BundeslandID": "7"
  },
  {
    "Title": "7030",
    "KatalogText": "Büdinger Straße",
    "PLZ": "55129",
    "Postort": "Mainz",
    "GemeindeID": "1365",
    "BundeslandID": "7"
  },
  {
    "Title": "7031",
    "KatalogText": "Carl-Zeiss-Straße",
    "PLZ": "55129",
    "Postort": "Mainz",
    "GemeindeID": "1365",
    "BundeslandID": "7"
  },
  {
    "Title": "7032",
    "KatalogText": "Clemens-Brentano-Straße",
    "PLZ": "55129",
    "Postort": "Mainz",
    "GemeindeID": "1365",
    "BundeslandID": "7"
  },
  {
    "Title": "7033",
    "KatalogText": "Eckgasse",
    "PLZ": "55129",
    "Postort": "Mainz",
    "GemeindeID": "1365",
    "BundeslandID": "7"
  },
  {
    "Title": "7034",
    "KatalogText": "Fliederweg",
    "PLZ": "55129",
    "Postort": "Mainz",
    "GemeindeID": "1365",
    "BundeslandID": "7"
  },
  {
    "Title": "7035",
    "KatalogText": "Heinrich-von-Meißen-Str.",
    "PLZ": "55129",
    "Postort": "Mainz",
    "GemeindeID": "1365",
    "BundeslandID": "7"
  },
  {
    "Title": "7036",
    "KatalogText": "Falkensteinerstraße",
    "PLZ": "55129",
    "Postort": "Mainz",
    "GemeindeID": "1365",
    "BundeslandID": "7"
  },
  {
    "Title": "7037",
    "KatalogText": "Froschmarkt",
    "PLZ": "55129",
    "Postort": "Mainz",
    "GemeindeID": "1365",
    "BundeslandID": "7"
  },
  {
    "Title": "7038",
    "KatalogText": "Frühlingsstraße",
    "PLZ": "55129",
    "Postort": "Mainz",
    "GemeindeID": "1365",
    "BundeslandID": "7"
  },
  {
    "Title": "7039",
    "KatalogText": "Am Schinnergraben",
    "PLZ": "55129",
    "Postort": "Mainz",
    "GemeindeID": "1365",
    "BundeslandID": "7"
  },
  {
    "Title": "7040",
    "KatalogText": "Rheinhessenstraße",
    "PLZ": "55129",
    "Postort": "Mainz",
    "GemeindeID": "1365",
    "BundeslandID": "7"
  },
  {
    "Title": "7041",
    "KatalogText": "Georg-Fahrbach-Straße",
    "PLZ": "55129",
    "Postort": "Mainz",
    "GemeindeID": "1365",
    "BundeslandID": "7"
  },
  {
    "Title": "7042",
    "KatalogText": "Wilhelm-Holzamer-Straße",
    "PLZ": "55129",
    "Postort": "Mainz",
    "GemeindeID": "1365",
    "BundeslandID": "7"
  },
  {
    "Title": "7043",
    "KatalogText": "Grauelstraße",
    "PLZ": "55129",
    "Postort": "Mainz",
    "GemeindeID": "1365",
    "BundeslandID": "7"
  },
  {
    "Title": "7044",
    "KatalogText": "Friedrich-Koenig-Straße",
    "PLZ": "55129",
    "Postort": "Mainz",
    "GemeindeID": "1365",
    "BundeslandID": "7"
  },
  {
    "Title": "7045",
    "KatalogText": "Johannes-Lüft-Straße",
    "PLZ": "55129",
    "Postort": "Mainz",
    "GemeindeID": "1365",
    "BundeslandID": "7"
  },
  {
    "Title": "7046",
    "KatalogText": "Max-Born-Straße",
    "PLZ": "55129",
    "Postort": "Mainz",
    "GemeindeID": "1365",
    "BundeslandID": "7"
  },
  {
    "Title": "7047",
    "KatalogText": "Heuerstraße",
    "PLZ": "55129",
    "Postort": "Mainz",
    "GemeindeID": "1365",
    "BundeslandID": "7"
  },
  {
    "Title": "7048",
    "KatalogText": "Holdergasse",
    "PLZ": "55129",
    "Postort": "Mainz",
    "GemeindeID": "1365",
    "BundeslandID": "7"
  },
  {
    "Title": "7049",
    "KatalogText": "Justus-Liebig-Straße",
    "PLZ": "55129",
    "Postort": "Mainz",
    "GemeindeID": "1365",
    "BundeslandID": "7"
  },
  {
    "Title": "7050",
    "KatalogText": "Kanalstraße",
    "PLZ": "55129",
    "Postort": "Mainz",
    "GemeindeID": "1365",
    "BundeslandID": "7"
  },
  {
    "Title": "7051",
    "KatalogText": "Am Kartäuserhof",
    "PLZ": "55129",
    "Postort": "Mainz",
    "GemeindeID": "1365",
    "BundeslandID": "7"
  },
  {
    "Title": "7052",
    "KatalogText": "Professor-Kunkel-Straße",
    "PLZ": "55129",
    "Postort": "Mainz",
    "GemeindeID": "1365",
    "BundeslandID": "7"
  },
  {
    "Title": "7053",
    "KatalogText": "Klauerstraße",
    "PLZ": "55129",
    "Postort": "Mainz",
    "GemeindeID": "1365",
    "BundeslandID": "7"
  },
  {
    "Title": "7054",
    "KatalogText": "Klein-Winternheimer Weg",
    "PLZ": "55129",
    "Postort": "Mainz",
    "GemeindeID": "1365",
    "BundeslandID": "7"
  },
  {
    "Title": "7055",
    "KatalogText": "Am Kochspfädchen",
    "PLZ": "55129",
    "Postort": "Mainz",
    "GemeindeID": "1365",
    "BundeslandID": "7"
  },
  {
    "Title": "7056",
    "KatalogText": "Zur Laubenheimer Höhe",
    "PLZ": "55129",
    "Postort": "Mainz",
    "GemeindeID": "1365",
    "BundeslandID": "7"
  },
  {
    "Title": "7057",
    "KatalogText": "Lindenplatz",
    "PLZ": "55129",
    "Postort": "Mainz",
    "GemeindeID": "1365",
    "BundeslandID": "7"
  },
  {
    "Title": "7058",
    "KatalogText": "Ludwig-Jahn-Straße",
    "PLZ": "55129",
    "Postort": "Mainz",
    "GemeindeID": "1365",
    "BundeslandID": "7"
  },
  {
    "Title": "7059",
    "KatalogText": "Frankenwaldstraße",
    "PLZ": "55129",
    "Postort": "Mainz",
    "GemeindeID": "1365",
    "BundeslandID": "7"
  },
  {
    "Title": "7060",
    "KatalogText": "Alte Mainzer Straße",
    "PLZ": "55129",
    "Postort": "Mainz",
    "GemeindeID": "1365",
    "BundeslandID": "7"
  },
  {
    "Title": "7061",
    "KatalogText": "Margraf-Fischer-Siedlung",
    "PLZ": "55129",
    "Postort": "Mainz",
    "GemeindeID": "1365",
    "BundeslandID": "7"
  },
  {
    "Title": "7062",
    "KatalogText": "Lorscher Straße",
    "PLZ": "55129",
    "Postort": "Mainz",
    "GemeindeID": "1365",
    "BundeslandID": "7"
  },
  {
    "Title": "7063",
    "KatalogText": "Martin-Josef-Straße",
    "PLZ": "55129",
    "Postort": "Mainz",
    "GemeindeID": "1365",
    "BundeslandID": "7"
  },
  {
    "Title": "7064",
    "KatalogText": "Michelsgasse",
    "PLZ": "55129",
    "Postort": "Mainz",
    "GemeindeID": "1365",
    "BundeslandID": "7"
  },
  {
    "Title": "7065",
    "KatalogText": "Militärstraße",
    "PLZ": "55129",
    "Postort": "Mainz",
    "GemeindeID": "1365",
    "BundeslandID": "7"
  },
  {
    "Title": "7066",
    "KatalogText": "Mittelstraße",
    "PLZ": "55129",
    "Postort": "Mainz",
    "GemeindeID": "1365",
    "BundeslandID": "7"
  },
  {
    "Title": "7067",
    "KatalogText": "Morschstraße",
    "PLZ": "55129",
    "Postort": "Mainz",
    "GemeindeID": "1365",
    "BundeslandID": "7"
  },
  {
    "Title": "7068",
    "KatalogText": "Mühlgasse",
    "PLZ": "55129",
    "Postort": "Mainz",
    "GemeindeID": "1365",
    "BundeslandID": "7"
  },
  {
    "Title": "7069",
    "KatalogText": "Schwarzwaldstraße",
    "PLZ": "55129",
    "Postort": "Mainz",
    "GemeindeID": "1365",
    "BundeslandID": "7"
  },
  {
    "Title": "7070",
    "KatalogText": "Neue Mainzer Straße",
    "PLZ": "55129",
    "Postort": "Mainz",
    "GemeindeID": "1365",
    "BundeslandID": "7"
  },
  {
    "Title": "7071",
    "KatalogText": "Zimmermannsgasse",
    "PLZ": "55129",
    "Postort": "Mainz",
    "GemeindeID": "1365",
    "BundeslandID": "7"
  },
  {
    "Title": "7072",
    "KatalogText": "Pappelweg",
    "PLZ": "55129",
    "Postort": "Mainz",
    "GemeindeID": "1365",
    "BundeslandID": "7"
  },
  {
    "Title": "7073",
    "KatalogText": "Platanenstraße",
    "PLZ": "55129",
    "Postort": "Mainz",
    "GemeindeID": "1365",
    "BundeslandID": "7"
  },
  {
    "Title": "7074",
    "KatalogText": "Dekan-Laist-Straße",
    "PLZ": "55129",
    "Postort": "Mainz",
    "GemeindeID": "1365",
    "BundeslandID": "7"
  },
  {
    "Title": "7075",
    "KatalogText": "Neue Rheingaustraße",
    "PLZ": "55129",
    "Postort": "Mainz",
    "GemeindeID": "1365",
    "BundeslandID": "7"
  },
  {
    "Title": "7076",
    "KatalogText": "Pfälzer-Wald-Straße",
    "PLZ": "55129",
    "Postort": "Mainz",
    "GemeindeID": "1365",
    "BundeslandID": "7"
  },
  {
    "Title": "7077",
    "KatalogText": "Riedstraße",
    "PLZ": "55129",
    "Postort": "Mainz",
    "GemeindeID": "1365",
    "BundeslandID": "7"
  },
  {
    "Title": "7078",
    "KatalogText": "Ringstraße",
    "PLZ": "55129",
    "Postort": "Mainz",
    "GemeindeID": "1365",
    "BundeslandID": "7"
  },
  {
    "Title": "7079",
    "KatalogText": "Robert-Bosch-Straße",
    "PLZ": "55129",
    "Postort": "Mainz",
    "GemeindeID": "1365",
    "BundeslandID": "7"
  },
  {
    "Title": "7080",
    "KatalogText": "Robert-Koch-Straße",
    "PLZ": "55129",
    "Postort": "Mainz",
    "GemeindeID": "1365",
    "BundeslandID": "7"
  },
  {
    "Title": "7081",
    "KatalogText": "Erlenweg",
    "PLZ": "55129",
    "Postort": "Mainz",
    "GemeindeID": "1365",
    "BundeslandID": "7"
  },
  {
    "Title": "7082",
    "KatalogText": "Schäfergäßchen",
    "PLZ": "55129",
    "Postort": "Mainz",
    "GemeindeID": "1365",
    "BundeslandID": "7"
  },
  {
    "Title": "7083",
    "KatalogText": "Peter-Weyer-Straße",
    "PLZ": "55129",
    "Postort": "Mainz",
    "GemeindeID": "1365",
    "BundeslandID": "7"
  },
  {
    "Title": "7084",
    "KatalogText": "Curiestraße",
    "PLZ": "55129",
    "Postort": "Mainz",
    "GemeindeID": "1365",
    "BundeslandID": "7"
  },
  {
    "Title": "7085",
    "KatalogText": "Philipp-Reis-Straße",
    "PLZ": "55129",
    "Postort": "Mainz",
    "GemeindeID": "1365",
    "BundeslandID": "7"
  },
  {
    "Title": "7086",
    "KatalogText": "Strickergasse",
    "PLZ": "55129",
    "Postort": "Mainz",
    "GemeindeID": "1365",
    "BundeslandID": "7"
  },
  {
    "Title": "7087",
    "KatalogText": "Südstraße",
    "PLZ": "55129",
    "Postort": "Mainz",
    "GemeindeID": "1365",
    "BundeslandID": "7"
  },
  {
    "Title": "7088",
    "KatalogText": "Synagogenstraße",
    "PLZ": "55129",
    "Postort": "Mainz",
    "GemeindeID": "1365",
    "BundeslandID": "7"
  },
  {
    "Title": "7089",
    "KatalogText": "Talstraße",
    "PLZ": "55129",
    "Postort": "Mainz",
    "GemeindeID": "1365",
    "BundeslandID": "7"
  },
  {
    "Title": "7090",
    "KatalogText": "Tannenweg",
    "PLZ": "55129",
    "Postort": "Mainz",
    "GemeindeID": "1365",
    "BundeslandID": "7"
  },
  {
    "Title": "7091",
    "KatalogText": "Donnersbergstraße",
    "PLZ": "55129",
    "Postort": "Mainz",
    "GemeindeID": "1365",
    "BundeslandID": "7"
  },
  {
    "Title": "7092",
    "KatalogText": "Teufelskaute",
    "PLZ": "55129",
    "Postort": "Mainz",
    "GemeindeID": "1365",
    "BundeslandID": "7"
  },
  {
    "Title": "7093",
    "KatalogText": "Elisabeth-Langgässer-Str.",
    "PLZ": "55129",
    "Postort": "Mainz",
    "GemeindeID": "1365",
    "BundeslandID": "7"
  },
  {
    "Title": "7094",
    "KatalogText": "Tulpenweg",
    "PLZ": "55129",
    "Postort": "Mainz",
    "GemeindeID": "1365",
    "BundeslandID": "7"
  },
  {
    "Title": "7095",
    "KatalogText": "An den Sandkauten",
    "PLZ": "55129",
    "Postort": "Mainz",
    "GemeindeID": "1365",
    "BundeslandID": "7"
  },
  {
    "Title": "7096",
    "KatalogText": "Georg-Büchner-Straße",
    "PLZ": "55129",
    "Postort": "Mainz",
    "GemeindeID": "1365",
    "BundeslandID": "7"
  },
  {
    "Title": "7097",
    "KatalogText": "Maurergasse",
    "PLZ": "55129",
    "Postort": "Mainz",
    "GemeindeID": "1365",
    "BundeslandID": "7"
  },
  {
    "Title": "7098",
    "KatalogText": "Weststraße",
    "PLZ": "55129",
    "Postort": "Mainz",
    "GemeindeID": "1365",
    "BundeslandID": "7"
  },
  {
    "Title": "7099",
    "KatalogText": "Wingertsweg",
    "PLZ": "55129",
    "Postort": "Mainz",
    "GemeindeID": "1365",
    "BundeslandID": "7"
  },
  {
    "Title": "7100",
    "KatalogText": "Winkelgasse",
    "PLZ": "55129",
    "Postort": "Mainz",
    "GemeindeID": "1365",
    "BundeslandID": "7"
  },
  {
    "Title": "7101",
    "KatalogText": "Adlergasse",
    "PLZ": "55126",
    "Postort": "Mainz",
    "GemeindeID": "1365",
    "BundeslandID": "7"
  },
  {
    "Title": "7102",
    "KatalogText": "Am Hang",
    "PLZ": "55126",
    "Postort": "Mainz",
    "GemeindeID": "1365",
    "BundeslandID": "7"
  },
  {
    "Title": "7103",
    "KatalogText": "Am Königsborn",
    "PLZ": "55126",
    "Postort": "Mainz",
    "GemeindeID": "1365",
    "BundeslandID": "7"
  },
  {
    "Title": "7104",
    "KatalogText": "Am Mittelweg",
    "PLZ": "55126",
    "Postort": "Mainz",
    "GemeindeID": "1365",
    "BundeslandID": "7"
  },
  {
    "Title": "7105",
    "KatalogText": "Am Weisel",
    "PLZ": "55126",
    "Postort": "Mainz",
    "GemeindeID": "1365",
    "BundeslandID": "7"
  },
  {
    "Title": "7106",
    "KatalogText": "An der Steige",
    "PLZ": "55126",
    "Postort": "Mainz",
    "GemeindeID": "1365",
    "BundeslandID": "7"
  },
  {
    "Title": "7107",
    "KatalogText": "Aubachstraße",
    "PLZ": "55126",
    "Postort": "Mainz",
    "GemeindeID": "1365",
    "BundeslandID": "7"
  },
  {
    "Title": "7108",
    "KatalogText": "Poststraße",
    "PLZ": "55126",
    "Postort": "Mainz",
    "GemeindeID": "1365",
    "BundeslandID": "7"
  },
  {
    "Title": "7109",
    "KatalogText": "Amselweg",
    "PLZ": "55126",
    "Postort": "Mainz",
    "GemeindeID": "1365",
    "BundeslandID": "7"
  },
  {
    "Title": "7110",
    "KatalogText": "Thüringer Straße",
    "PLZ": "55126",
    "Postort": "Mainz",
    "GemeindeID": "1365",
    "BundeslandID": "7"
  },
  {
    "Title": "7111",
    "KatalogText": "Bierothstraße",
    "PLZ": "55126",
    "Postort": "Mainz",
    "GemeindeID": "1365",
    "BundeslandID": "7"
  },
  {
    "Title": "7112",
    "KatalogText": "Flugplatzstraße",
    "PLZ": "55126",
    "Postort": "Mainz",
    "GemeindeID": "1365",
    "BundeslandID": "7"
  },
  {
    "Title": "7113",
    "KatalogText": "Am Kirchborn",
    "PLZ": "55126",
    "Postort": "Mainz",
    "GemeindeID": "1365",
    "BundeslandID": "7"
  },
  {
    "Title": "7114",
    "KatalogText": "Borngasse",
    "PLZ": "55126",
    "Postort": "Mainz",
    "GemeindeID": "1365",
    "BundeslandID": "7"
  },
  {
    "Title": "7115",
    "KatalogText": "Breslauer Straße",
    "PLZ": "55126",
    "Postort": "Mainz",
    "GemeindeID": "1365",
    "BundeslandID": "7"
  },
  {
    "Title": "7116",
    "KatalogText": "Waldthausenstraße",
    "PLZ": "55126",
    "Postort": "Mainz",
    "GemeindeID": "1365",
    "BundeslandID": "7"
  },
  {
    "Title": "7117",
    "KatalogText": "Am Draisberg",
    "PLZ": "55126",
    "Postort": "Mainz",
    "GemeindeID": "1365",
    "BundeslandID": "7"
  },
  {
    "Title": "7118",
    "KatalogText": "Wilhelm-Busch-Straße",
    "PLZ": "55126",
    "Postort": "Mainz",
    "GemeindeID": "1365",
    "BundeslandID": "7"
  },
  {
    "Title": "7119",
    "KatalogText": "Frankenstraße",
    "PLZ": "55126",
    "Postort": "Mainz",
    "GemeindeID": "1365",
    "BundeslandID": "7"
  },
  {
    "Title": "7120",
    "KatalogText": "Sauerbruchstraße",
    "PLZ": "55126",
    "Postort": "Mainz",
    "GemeindeID": "1365",
    "BundeslandID": "7"
  }
]